schoolname,latitude,longitude,address,city,zip,percentasian,percentblack,percenthispanic,percentblackhispanic,percentwhite
THE PECK SLIP SCHOOL,40.708639,-74.001925,"1 PECK SLIP NEW YORK, NY 10038",NEW YORK,10038,16%,3%,13%,16%,59%
P.S. 527 - EAST SIDE SCHOOL FOR SOCIAL ACTION,40.78058,-73.94791,"323 E 91ST ST NEW YORK, NY 10128",NEW YORK,10128,15%,2%,19%,21%,59%
WEST END SECONDARY SCHOOL,40.772487,-73.988153,"227-243 W 61ST ST NEW YORK, NY 10023",NEW YORK,10023,4%,10%,18%,27%,63%
LINDEN TREE ELEMENTARY SCHOOL,40.838494,-73.853201,"1560 PURDY ST BRONX, NY 10462",BRONX,10462,16%,16%,64%,80%,3%
P.S. 372 -THE CHILDREN'S SCHOOL,40.67652,-73.985495,"512 CARROLL ST BROOKLYN, NY 11215",BROOKLYN,11215,5%,22%,24%,46%,47%
M.S. 839,40.647837,-73.973229,"713 CATON AVE BROOKLYN, NY 11218",BROOKLYN,11218,14%,14%,33%,47%,36%
P.S. 110,40.745554,-73.86677,"96-18 43RD AVE CORONA, NY 11368",CORONA,11368,5%,1%,92%,94%,1%
M.S. 358,40.708473,-73.797859,"88-06 164TH ST JAMAICA, NY 11432",JAMAICA,11432,23%,38%,32%,70%,2%
ACHIEVEMENT FIRST ASPIRE CHARTER SCHOOL,40.666256,-73.876405,"982 HEGEMAN AVE BROOKLYN, NY 11208",BROOKLYN,11208,1%,75%,23%,97%,0%
CITIZENS OF THE WORLD CHARTER SCHOOL 1 WILLIAMSBURG,40.719769,-73.947968,"424 LEONARD ST-3RD FL BROOKLYN, NY 11222",BROOKLYN,11222,2%,25%,63%,88%,9%
CITIZENS OF THE WORLD CHARTER SCHOOL NEW YORK 2 CROWN HEIGHTS,40.663936,-73.93606,"791 EMPIRE BLVD BROOKLYN, NY 11213",BROOKLYN,11213,0%,90%,6%,96%,1%
NEW AMERICAN ACADEMY CHARTER SCHOOL,40.648057,-73.922234,"5800 TILDEN AVE BROOKLYN, NY 11203",BROOKLYN,11203,0%,94%,6%,100%,0%
SUCCESS ACADEMY CROWN HEIGHTS (BROOKLYN 7),40.665905,-73.9492,"330 CROWN ST BROOKLYN, NY 11225",BROOKLYN,11225,1%,91%,7%,98%,1%
SUCCESS ACADEMY FORT GREENE (BROOKLYN 5),40.696738,-73.976039,"101 PARK AVE-3RD FL BROOKLYN, NY 11205",BROOKLYN,11205,1%,67%,24%,91%,6%
SUCCESS ACADEMY PROSPECT HEIGHTS (BROOKLYN 6),40.67349,-73.951131,"801 PARK PL-4TH FL BROOKLYN, NY 11216",BROOKLYN,11216,2%,89%,6%,95%,2%
CANARSIE ASCEND CHARTER SCHOOL,40.644209,-73.900824,"9719 FLATLANDS AVE BROOKLYN, NY 11236",BROOKLYN,11236,0%,91%,6%,97%,0%
EAST HARLEM SCHOLARS ACADEMY CHARTER SCHOOL II,40.793747,-73.948572,"1573 MADISON AVE-RM 320 NEW YORK, NY 10029",NEW YORK,10029,4%,28%,63%,92%,3%
SUCCESS ACADEMY HELL'S KITCHEN (MANHATTAN 2),40.763999,-73.990835,"439 W 49TH ST-2ND FL NEW YORK, NY 10019",NEW YORK,10019,14%,16%,52%,68%,16%
SUCCESS ACADEMY UNION SQUARE (MANHATTAN 1),40.735324,-73.987081,"40 IRVING PL-2ND FL NEW YORK, NY 10003",NEW YORK,10003,19%,20%,21%,41%,35%
HARLEM HEBREW LANGUAGE CHARTER SCHOOL,40.804844,-73.953075,"147 ST NICHOLAS AVE NEW YORK, NY 10026",NEW YORK,10026,1%,32%,30%,62%,34%
SOUTH BRONX CLASSICAL CHARTER SCHOOL II,40.808255,-73.925748,"333 E 135TH ST BRONX, NY 10454",BRONX,10454,0%,45%,52%,97%,2%
SUCCESS ACADEMY CHARTER SCHOOL - BRONX 3,40.827748,-73.913773,"1000 TELLER AVE BRONX, NY 10469",BRONX,10469,1%,51%,45%,96%,1%
BRILLA COLLEGE PREP CHARTER SCHOOL,40.812806,-73.919302,"413 E 144TH ST BRONX, NY 10454",BRONX,10454,0%,26%,71%,97%,1%
ATMOSPHERE CHARTER SCHOOL,40.875134,-73.910245,"22 MARBLE HILL AVE BRONX, NY 10463",BRONX,10463,2%,21%,73%,94%,4%
SOUTH BRONX EARLY COLLEGE ACADEMY CHARTER SCHOOL,40.808913,-73.921746,"423 E 138TH ST-7TH FL BRONX, NY 10454",BRONX,10454,0%,34%,63%,97%,1%
NEW DIRECTIONS SECONDARY SCHOOL,40.839654,-73.911386,"240 E 172ND ST BRONX, NY 10457",BRONX,10457,0%,30%,67%,98%,0%
GLOBAL COMMUNITY CHARTER SCHOOL,40.817192,-73.935438,"2350 5TH AVE NEW YORK, NY 10037",NEW YORK,10037,1%,28%,69%,97%,1%
ORCHARD COLLEGIATE ACADEMY,40.713343,-73.986069,"220 HENRY ST NEW YORK, NY 10002",NEW YORK,10002,12%,26%,57%,84%,3%
P.S. 306 ETHAN ALLEN,40.655261,-73.886334,"970 VERMONT ST BROOKLYN, NY 11207",BROOKLYN,11207,1%,74%,23%,98%,1%
THE NEW AMERICAN ACADEMY AT ROBERTO CLEMENTE STATE PARK,40.841563,-73.929604,"275 HARLEM RIVER PARK BRIDGE BRONX, NY 10453",BRONX,10453,0%,39%,59%,98%,1%
P.S. 287 BAILEY K. ASHFORD,40.697861,-73.981047,"50 NAVY ST BROOKLYN, NY 11201",BROOKLYN,11201,5%,70%,22%,91%,1%
DIGITAL ARTS AND CINEMA TECHNOLOGY HIGH SCHOOL,40.685159,-73.993634,"284 BALTIC ST BROOKLYN, NY 11201",BROOKLYN,11201,3%,54%,39%,93%,4%
CHRISTOPHER AVENUE COMMUNITY SCHOOL,40.672333,-73.906225,"51 CHRISTOPHER AVE BROOKLYN, NY 11212",BROOKLYN,11212,0%,69%,29%,97%,1%
P.S. 256 BENJAMIN BANNEKER,40.690482,-73.94971,"114 KOSCIUSKO ST BROOKLYN, NY 11216",BROOKLYN,11216,2%,69%,27%,96%,2%
P.S. 328 PHYLLIS WHEATLEY,40.667817,-73.898173,"330 ALABAMA AVE BROOKLYN, NY 11207",BROOKLYN,11207,2%,57%,37%,94%,3%
P.S. 38 ROBERTO CLEMENTE,40.788684,-73.944766,"232 E 103RD ST NEW YORK, NY 10029",NEW YORK,10029,4%,31%,61%,91%,2%
P.S. 190 SHEFFIELD,40.662265,-73.894749,"590 SHEFFIELD AVE BROOKLYN, NY 11207",BROOKLYN,11207,1%,77%,22%,98%,1%
P.S. 165 IDA POSNER,40.657196,-73.910944,"76 LOTT AVE BROOKLYN, NY 11212",BROOKLYN,11212,0%,83%,14%,97%,2%
P.S. 050 VITO MARCANTONIO,40.785868,-73.940587,"433 E 100TH ST NEW YORK, NY 10029",NEW YORK,10029,1%,45%,53%,98%,0%
P.S. 123 MAHALIA JACKSON,40.820192,-73.944457,"301 W 140TH ST NEW YORK, NY 10030",NEW YORK,10030,2%,52%,41%,93%,4%
P.S. 065 MOTHER HALE ACADEMY,40.807731,-73.912768,"677 E 141ST ST BRONX, NY 10454",BRONX,10454,3%,32%,64%,96%,1%
M.S. 302 LUISA DESSUS CRUZ,40.815971,-73.901686,"681 KELLY ST BRONX, NY 10455",BRONX,10455,1%,20%,77%,98%,1%
EAST BRONX ACADEMY FOR THE FUTURE,40.836839,-73.887671,"1716 SOUTHERN BLVD BRONX, NY 10460",BRONX,10460,1%,26%,72%,98%,1%
P.S. 202 ERNEST S. JENKYNS,40.666256,-73.876405,"982 HEGEMAN AVE BROOKLYN, NY 11208",BROOKLYN,11208,1%,61%,35%,96%,2%
P.S. 184 NEWPORT,40.660228,-73.904947,"273 NEWPORT ST BROOKLYN, NY 11212",BROOKLYN,11212,1%,71%,27%,98%,0%
P.S./M.S 042 R. VERNAM,40.594435,-73.794945,"488 BEACH 66TH ST ARVERNE, NY 11692",ARVERNE,11692,1%,71%,24%,95%,2%
EAGLE ACADEMY FOR YOUNG MEN OF HARLEM,40.817282,-73.947238,"6 EDGECOMBE AVE NEW YORK, NY 10030",NEW YORK,10030,0%,74%,24%,98%,1%
P.S. 194 COUNTEE CULLEN,40.821182,-73.940665,"244 W 144TH ST NEW YORK, NY 10030",NEW YORK,10030,2%,52%,40%,92%,3%
P.S. 197 JOHN B. RUSSWURM,40.813298,-73.937828,"2230 5TH AVE NEW YORK, NY 10037",NEW YORK,10037,0%,62%,33%,95%,3%
SATELLITE EAST MIDDLE SCHOOL,40.685945,-73.945303,"344 MONROE ST BROOKLYN, NY 11216",BROOKLYN,11216,17%,65%,14%,78%,2%
SATELLITE WEST MIDDLE SCHOOL,40.701781,-73.981587,"209 YORK ST BROOKLYN, NY 11201",BROOKLYN,11201,4%,42%,52%,94%,0%
P.S. 191 PAUL ROBESON,40.671812,-73.924196,"1600 PARK PL BROOKLYN, NY 11233",BROOKLYN,11233,1%,80%,17%,97%,0%
P.S. 327 DR. ROSE B. ENGLISH,40.66798,-73.912085,"111 BRISTOL ST BROOKLYN, NY 11212",BROOKLYN,11212,2%,71%,25%,96%,2%
P.S. 200- THE JAMES MCCUNE SMITH SCHOOL,40.823955,-73.935802,"2589 7TH AVE NEW YORK, NY 10039",NEW YORK,10039,0%,54%,40%,94%,2%
P.S. 333 - THE MUSEUM SCHOOL,40.820082,-73.898647,"888 REV J A POLITE AVE BRONX, NY 10459",BRONX,10459,0%,20%,77%,97%,2%
LEADERS OF TOMORROW,40.880634,-73.860155,"3710 BARNES AVE BRONX, NY 10467",BRONX,10467,4%,50%,40%,90%,3%
THE SCHOOL OF SCIENCE AND APPLIED LEARNING,40.84624,-73.887388,"2050 PROSPECT AVE BRONX, NY 10457",BRONX,10457,0%,39%,59%,98%,1%
"M.S. 267 MATH, SCIENCE & TECHNOLOGY",40.687938,-73.932378,"800 GATES AVE BROOKLYN, NY 11221",BROOKLYN,11221,2%,63%,25%,87%,3%
P.S. 398 WALTER WEAVER,40.663966,-73.927858,"60 E 94TH ST BROOKLYN, NY 11212",BROOKLYN,11212,1%,73%,12%,85%,1%
P.S. 288 THE SHIRLEY TANYHILL,40.57427,-73.992477,"2950 W 25TH ST BROOKLYN, NY 11224",BROOKLYN,11224,2%,53%,36%,90%,7%
P.S. 178 SAINT CLAIR MCKELWAY,40.675234,-73.915306,"2163 DEAN ST BROOKLYN, NY 11233",BROOKLYN,11233,1%,79%,16%,95%,2%
M.S. 301 PAUL L. DUNBAR,40.822303,-73.906686,"890 CAULDWELL AVE BRONX, NY 10456",BRONX,10456,0%,41%,57%,98%,1%
BRONX WRITING ACADEMY,40.832278,-73.914142,"270 E 167TH ST BRONX, NY 10456",BRONX,10456,3%,30%,66%,95%,1%
P.S. 006 WEST FARMS,40.840605,-73.88219,"1000 E TREMONT AVE BRONX, NY 10460",BRONX,10460,1%,25%,72%,97%,1%
P.S. 111 JACOB BLACKWELL,40.75855,-73.939237,"37-15 13TH ST LONG ISLAND CITY, NY 11101",LONG ISLAND CITY,11101,4%,41%,48%,89%,6%
P.S. 036 MARGARET DOUGLAS,40.810705,-73.957404,"123 MORNINGSIDE DR NEW YORK, NY 10027",NEW YORK,10027,1%,45%,51%,97%,1%
P.S./M.S. 004 CROTONA PARK WEST,40.841242,-73.898492,"1701 FULTON AVE BRONX, NY 10457",BRONX,10457,1%,53%,45%,98%,1%
P.S. 132 GARRET A. MORGAN,40.832081,-73.906951,"1245 WASHINGTON AVE BRONX, NY 10456",BRONX,10456,0%,44%,54%,98%,0%
P.S. 112 BRONXWOOD,40.884792,-73.843995,"1925 SCHEIFFELIN AVE BRONX, NY 10466",BRONX,10466,0%,48%,50%,98%,2%
P.S. 046 EDWARD C. BLUM,40.694425,-73.971627,"100 CLERMONT AVE BROOKLYN, NY 11205",BROOKLYN,11205,1%,50%,45%,95%,2%
P.S. 270 JOHANN DEKALB,40.689626,-73.961094,"241 EMERSON PL BROOKLYN, NY 11205",BROOKLYN,11205,4%,68%,24%,93%,1%
P.S. 305 DR. PETER RAY,40.685945,-73.945303,"344 MONROE ST BROOKLYN, NY 11216",BROOKLYN,11216,4%,76%,11%,87%,4%
P.S. 308 CLARA CARDWELL,40.688447,-73.935295,"616 QUINCY ST BROOKLYN, NY 11221",BROOKLYN,11221,2%,78%,19%,96%,0%
MOTT HALL IV,40.678113,-73.915211,"1137 HERKIMER ST BROOKLYN, NY 11233",BROOKLYN,11233,2%,87%,12%,98%,0%
M.S. 328 - MANHATTAN MIDDLE SCHOOL FOR SCIENTIFIC INQUIRY,40.836912,-73.937412,"401 W 164TH ST NEW YORK, NY 10032",NEW YORK,10032,1%,12%,85%,97%,1%
P.S. 107,40.818887,-73.868609,"1695 SEWARD AVE BRONX, NY 10473",BRONX,10473,1%,32%,64%,96%,3%
P.S. 058,40.846275,-73.898878,"459 E 176TH ST BRONX, NY 10457",BRONX,10457,0%,26%,71%,97%,1%
J.H.S. 145 ARTURO TOSCANINI,40.827748,-73.913773,"1000 TELLER AVE BRONX, NY 10456",BRONX,10456,1%,29%,69%,98%,0%
P.S. 297 ABRAHAM STOCKTON,40.697436,-73.947854,"700 PARK AVE BROOKLYN, NY 11206",BROOKLYN,11206,1%,44%,51%,95%,1%
HIGHLAND PARK COMMUNITY SCHOOL,40.685841,-73.869429,"528 RIDGEWOOD AVE BROOKLYN, NY 11208",BROOKLYN,11208,2%,17%,78%,96%,0%
P.S./I.S. 137 RACHEL JEAN MITCHELL,40.682247,-73.916696,"121 SARATOGA AVE BROOKLYN, NY 11233",BROOKLYN,11233,0%,74%,20%,94%,1%
P.S./ I.S. 155 NICHOLAS HERKIMER,40.677642,-73.908695,"1355 HERKIMER ST BROOKLYN, NY 11233",BROOKLYN,11233,2%,50%,46%,96%,1%
LIGHTHOUSE ELEMENTARY SCHOOL,40.594681,-73.767108,"180 BEACH 35TH ST FAR ROCKAWAY, NY 11691",FAR ROCKAWAY,11691,1%,67%,27%,94%,2%
P.S. 183 DR. RICHARD R. GREEN,40.588936,-73.805282,"2-45 BEACH 79TH ST ROCKAWAY BEACH, NY 11693",ROCKAWAY BEACH,11693,3%,53%,33%,87%,6%
P.S. 076 A. PHILIP RANDOLPH,40.806541,-73.951368,"220 W 121ST ST NEW YORK, NY 10027",NEW YORK,10027,1%,80%,16%,96%,3%
URBAN ASSEMBLY ACADEMY FOR FUTURE LEADERS,40.815745,-73.9556,"509 W 129TH ST NEW YORK, NY 10027",NEW YORK,10027,0%,59%,39%,98%,1%
P.S. 138 SAMUEL RANDALL,40.822374,-73.852831,"2060 LAFAYETTE AVE BRONX, NY 10473",BRONX,10473,2%,26%,70%,95%,1%
P.S. 053 BASHEER QUISIM,40.832774,-73.911831,"360 E 168TH ST BRONX, NY 10456",BRONX,10456,1%,33%,64%,97%,2%
I.S. 313 SCHOOL OF LEADERSHIP DEVELOPMENT,40.840589,-73.90454,"1600 WEBSTER AVE BRONX, NY 10457",BRONX,10457,1%,32%,67%,99%,0%
P.S. 057 CRESCENT,40.848711,-73.888912,"2111 CROTONA AVE BRONX, NY 10457",BRONX,10457,0%,24%,71%,95%,1%
P.S. 092 BRONX,40.846335,-73.889323,"700 E 179TH ST BRONX, NY 10457",BRONX,10457,1%,19%,77%,96%,1%
URBAN ASSEMBLY SCHOOL FOR WILDLIFE CONSERVATION,40.843884,-73.884317,"2024 MOHEGAN AVE BRONX, NY 10460",BRONX,10460,1%,27%,69%,96%,2%
P.S. 054 SAMUEL C. BARNES,40.692697,-73.952501,"195 SANFORD ST BROOKLYN, NY 11205",BROOKLYN,11205,4%,57%,37%,93%,0%
P.S. 023 CARTER G. WOODSON,40.694156,-73.94779,"545 WILLOUGHBY AVE BROOKLYN, NY 11206",BROOKLYN,11206,1%,48%,46%,95%,3%
P.S. 059 WILLIAM FLOYD,40.697704,-73.943342,"211 THROOP AVE BROOKLYN, NY 11206",BROOKLYN,11206,1%,45%,50%,95%,2%
DR. JACQUELINE PEEK-DAVIS SCHOOL,40.673118,-73.920067,"430 HOWARD AVE BROOKLYN, NY 11233",BROOKLYN,11233,1%,78%,19%,97%,2%
P.S. 272 CURTIS ESTABROOK,40.626334,-73.900586,"101-24 SEAVIEW AVE BROOKLYN, NY 11236",BROOKLYN,11236,3%,76%,15%,91%,3%
P.S. 041 FRANCIS WHITE,40.660182,-73.906873,"411 THATFORD AVE BROOKLYN, NY 11212",BROOKLYN,11212,1%,63%,32%,95%,1%
P.S. 298 DR. BETTY SHABAZZ,40.671012,-73.90774,"85 WATKINS ST BROOKLYN, NY 11212",BROOKLYN,11212,1%,66%,28%,94%,1%
BROWNSVILLE COLLABORATIVE MIDDLE SCHOOL,40.671012,-73.90774,"85 WATKINS ST BROOKLYN, NY 11212",BROOKLYN,11212,0%,63%,33%,96%,2%
P.S. 157 GROVE HILL,40.819262,-73.909065,"757 CAULDWELL AVE BRONX, NY 10456",BRONX,10456,0%,30%,69%,99%,0%
P.S. 073 BRONX,40.83262,-73.926485,"1020 ANDERSON AVE BRONX, NY 10452",BRONX,10452,0%,25%,74%,99%,1%
RED HOOK NEIGHBORHOOD SCHOOL,40.677847,-74.004818,"27 HUNTINGTON ST BROOKLYN, NY 11231",BROOKLYN,11231,1%,49%,45%,94%,3%
M.S. 584,40.674464,-73.928381,"130 ROCHESTER AVE BROOKLYN, NY 11213",BROOKLYN,11213,1%,74%,23%,97%,0%
P.S. 289 GEORGE V. BROWER,40.67424,-73.9424,"900 ST MARKS AVE BROOKLYN, NY 11213",BROOKLYN,11213,3%,73%,19%,92%,2%
P.S. 213 NEW LOTS,40.660048,-73.890219,"580 HEGEMAN AVE BROOKLYN, NY 11207",BROOKLYN,11207,1%,76%,21%,96%,3%
J.H.S. 218 JAMES P. SINNOTT,40.670064,-73.874556,"370 FOUNTAIN AVE BROOKLYN, NY 11208",BROOKLYN,11208,20%,36%,43%,79%,1%
BROOKLYN GARDENS ELEMENTARY SCHOOL,40.665557,-73.897641,"574 DUMONT AVE BROOKLYN, NY 11207",BROOKLYN,11207,0%,63%,34%,97%,2%
P.S. 031 WILLIAM T. DAVIS,40.641954,-74.085457,"55 LAYTON AVE STATEN ISLAND, NY 10301",STATEN ISLAND,10301,0%,52%,39%,91%,4%
P.S. 78,40.622418,-74.079229,"100 TOMPKINS AVE STATEN ISLAND, NY 10304",STATEN ISLAND,10304,3%,42%,49%,91%,5%
P.S. 030 HERNANDEZ/HUGHES,40.805584,-73.935484,"144-176 E 128TH ST NEW YORK, NY 10035",NEW YORK,10035,2%,47%,47%,94%,3%
P.S. 030 WILTON,40.809065,-73.91752,"510 E 141ST ST BRONX, NY 10454",BRONX,10454,2%,21%,75%,96%,2%
P.S. X140 THE EAGLE SCHOOL,40.823374,-73.907378,"916 EAGLE AVE BRONX, NY 10456",BRONX,10456,0%,35%,61%,96%,2%
THE BRONX MATHEMATICS PREPARATORY SCHOOL,40.815017,-73.856018,"456 WHITE PLAINS RD BRONX, NY 10473",BRONX,10473,2%,33%,63%,97%,0%
P.S. 9 RYER AVENUE ELEMENTARY SCHOOL,40.856803,-73.898907,"230 E 183RD ST BRONX, NY 10458",BRONX,10458,1%,16%,80%,96%,1%
P.S. 044 DAVID C. FARRAGUT,40.842605,-73.890915,"1825 PROSPECT AVE BRONX, NY 10457",BRONX,10457,0%,31%,68%,98%,1%
ACCION ACADEMY,40.842605,-73.890915,"1825 PROSPECT AVE BRONX, NY 10457",BRONX,10457,2%,25%,69%,95%,3%
J.H.S. 050 JOHN D. WELLS,40.711863,-73.960049,"183 S 3RD ST BROOKLYN, NY 11211",BROOKLYN,11211,1%,14%,82%,96%,3%
P.S. 243K- THE WEEKSVILLE SCHOOL,40.675732,-73.935082,"1580 DEAN ST BROOKLYN, NY 11213",BROOKLYN,11213,4%,70%,22%,92%,0%
P.S. 149 DANNY KAYE,40.669352,-73.89276,"700 SUTTER AVE BROOKLYN, NY 11207",BROOKLYN,11207,3%,63%,32%,96%,1%
P.S. 188 MICHAEL E. BERDY,40.576776,-74.000539,"3314 NEPTUNE AVE BROOKLYN, NY 11224",BROOKLYN,11224,4%,51%,35%,86%,9%
P.S. 156 WAVERLY,40.665297,-73.917884,"104 SUTTER AVE BROOKLYN, NY 11212",BROOKLYN,11212,1%,78%,19%,97%,1%
"THE GREGORY JOCKO JACKSON SCHOOL OF SPORTS, ART, AND TECHNOLOGY",40.666934,-73.90761,"213 OSBORN ST BROOKLYN, NY 11212",BROOKLYN,11212,0%,69%,30%,99%,1%
CATHERINE & COUNT BASIE MIDDLE SCHOOL 72,40.675061,-73.77561,"133-25 GUY R BREWER BLVD JAMAICA, NY 11434",JAMAICA,11434,12%,72%,12%,83%,0%
P.S. 046 ARTHUR TAPPAN,40.831496,-73.936154,"2987 FREDERICK DOUGLAS BLVD NEW YORK, NY 10039",NEW YORK,10039,1%,50%,48%,97%,1%
P.S. 175 HENRY H GARNET,40.814259,-73.942662,"175 W 134TH ST NEW YORK, NY 10030",NEW YORK,10030,2%,64%,30%,93%,4%
P.S./M.S. 031 THE WILLIAM LLOYD GARRISON,40.822539,-73.921487,"250 E 156TH ST BRONX, NY 10451",BRONX,10451,2%,27%,69%,96%,1%
J.H.S. 162 LOLA RODRIGUEZ DE TIO,40.814702,-73.912036,"600 ST ANNS AVE BRONX, NY 10455",BRONX,10455,1%,29%,70%,99%,1%
P.S. 063 AUTHOR'S ACADEMY,40.830895,-73.902386,"1260 FRANKLIN AVE BRONX, NY 10456",BRONX,10456,0%,36%,61%,97%,3%
I.S. 117 JOSEPH H. WADE,40.848521,-73.908447,"1865 MORRIS AVE BRONX, NY 10453",BRONX,10453,2%,17%,80%,97%,1%
P.S. 021 PHILIP H. SHERIDAN,40.88794,-73.859406,"715 E 225TH ST BRONX, NY 10466",BRONX,10466,1%,70%,24%,94%,1%
P.S. 041 GUN HILL ROAD,40.874682,-73.867877,"3352 OLINVILLE AVE BRONX, NY 10467",BRONX,10467,1%,53%,43%,96%,2%
NORTH BRONX SCHOOL OF EMPOWERMENT,40.880634,-73.860155,"3710 BARNES AVE BRONX, NY 10467",BRONX,10467,3%,58%,33%,92%,1%
P.S. 093 WILLIAM H. PRESCOTT,40.678907,-73.9465,"31 NEW YORK AVE BROOKLYN, NY 11216",BROOKLYN,11216,22%,70%,3%,73%,4%
LYONS COMMUNITY SCHOOL,40.709765,-73.944519,"223 GRAHAM AVE BROOKLYN, NY 11206",BROOKLYN,11206,1%,40%,56%,97%,1%
P.S. 005 DR. RONALD MCNAIR,40.685603,-73.923212,"820 HANCOCK ST BROOKLYN, NY 11233",BROOKLYN,11233,0%,81%,14%,95%,3%
P.S. 025 EUBIE BLAKE SCHOOL,40.691477,-73.940691,"787 LAFAYETTE AVE BROOKLYN, NY 11221",BROOKLYN,11221,4%,65%,28%,93%,1%
P.S. 026 JESSE OWENS,40.691976,-73.931488,"1014 LAFAYETTE AVE BROOKLYN, NY 11221",BROOKLYN,11221,1%,72%,25%,98%,1%
P.S. 158 WARWICK,40.672588,-73.885197,"400 ASHFORD ST BROOKLYN, NY 11207",BROOKLYN,11207,1%,55%,41%,96%,0%
ACADEMY FOR YOUNG WRITERS,40.6573,-73.874138,"1065 ELTON ST BROOKLYN, NY 11208",BROOKLYN,11208,1%,72%,24%,97%,1%
M.S. 256 ACADEMIC & ATHLETIC EXCELLENCE,40.791685,-73.97077,"154 W 93RD ST NEW YORK, NY 10025",NEW YORK,10025,2%,51%,38%,88%,7%
P.S. 125 RALPH BUNCHE,40.81064,-73.955847,"425 W 123RD ST NEW YORK, NY 10027",NEW YORK,10027,6%,43%,42%,85%,7%
SOUTH BRONX ACADEMY FOR APPLIED MEDIA,40.818906,-73.905333,"778 FOREST AVE BRONX, NY 10456",BRONX,10456,1%,34%,63%,97%,1%
I.S. 229 ROLAND PATTERSON,40.841563,-73.929604,"275 HARLEM RIVER PARK BRIDGE BRONX, NY 10453",BRONX,10453,1%,35%,63%,98%,1%
NEW MILLENNIUM BUSINESS ACADEMY MIDDLE SCHOOL,40.827748,-73.913773,"1000 TELLER AVE BRONX, NY 10456",BRONX,10456,1%,33%,65%,98%,0%
SHERIDAN ACADEMY FOR YOUNG LEADERS,40.832033,-73.917519,"1116 SHERIDAN AVE BRONX, NY 10456",BRONX,10456,1%,30%,67%,97%,1%
P.S. 059 THE COMMUNITY SCHOOL OF TECHNOLOGY,40.85306,-73.893421,"2185 BATHGATE AVE BRONX, NY 10457",BRONX,10457,1%,27%,68%,96%,1%
J.H.S. 080 THE MOSHOLU PARKWAY,40.876823,-73.88124,"149 E MOSHOLU PKWY BRONX, NY 10467",BRONX,10467,13%,13%,67%,81%,5%
P.S. 067 MOHEGAN SCHOOL,40.843884,-73.884317,"2024 MOHEGAN AVE BRONX, NY 10460",BRONX,10460,1%,25%,74%,99%,0%
SCHOOL OF PERFORMING ARTS,40.822084,-73.894038,"977 FOX ST BRONX, NY 10459",BRONX,10459,3%,28%,67%,96%,1%
"I.S. X318 MATH, SCIENCE & TECHNOLOGY THROUGH ARTS",40.84385,-73.890063,"1919 PROSPECT AVE BRONX, NY 10457",BRONX,10457,1%,27%,70%,97%,2%
P.S./I.S. 323,40.666247,-73.91127,"210 CHESTER ST BROOKLYN, NY 11212",BROOKLYN,11212,1%,78%,20%,98%,0%
P.S./I.S. 116 WILLIAM C. HUGHLEY,40.70076,-73.781916,"107-25 WREN PL JAMAICA, NY 11433",JAMAICA,11433,5%,60%,32%,92%,2%
P.S. 188 THE ISLAND SCHOOL,40.71987,-73.977376,"442 E HOUSTON ST NEW YORK, NY 10002",NEW YORK,10002,2%,30%,64%,93%,4%
P.S. 149 SOJOURNER TRUTH,40.802666,-73.948256,"41 W 117TH ST NEW YORK, NY 10026",NEW YORK,10026,3%,64%,27%,92%,2%
P.S. 242 - THE YOUNG DIPLOMATS MAGNET ACADEMY,40.806174,-73.948335,"134 W 122ND ST NEW YORK, NY 10027",NEW YORK,10027,1%,65%,29%,94%,2%
P.S. 096 JOSEPH LANZETTA,40.799987,-73.937388,"216 E 120TH ST NEW YORK, NY 10035",NEW YORK,10035,2%,26%,68%,94%,3%
P.S. 092 MARY MCLEOD BETHUNE,40.814949,-73.945808,"222 W 134TH ST NEW YORK, NY 10030",NEW YORK,10030,1%,61%,34%,95%,3%
P.S. 161 JUAN PONCE DE LEON SCHOOL,40.814507,-73.905159,"628 TINTON AVE BRONX, NY 10455",BRONX,10455,1%,23%,73%,96%,2%
ACADEMY OF PUBLIC RELATIONS,40.818906,-73.905333,"778 FOREST AVE BRONX, NY 10456",BRONX,10456,0%,26%,72%,98%,1%
P.S. 042 CLAREMONT,40.838559,-73.903026,"1537 WASHINGTON AVE BRONX, NY 10456",BRONX,10456,0%,41%,56%,97%,2%
P.S. 070 MAX SCHOENFELD,40.844394,-73.908023,"1691 WEEKS AVE BRONX, NY 10457",BRONX,10457,1%,25%,74%,98%,1%
P.S. 3 RAUL JULIA MICRO SOCIETY,40.850163,-73.891656,"2100 LAFONTAINE AVE BRONX, NY 10457",BRONX,10457,2%,29%,68%,97%,0%
P.S. 016 WAKEFIELD,40.90237,-73.854546,"4550 CARPENTER AVE BRONX, NY 10470",BRONX,10470,4%,58%,28%,86%,2%
P.S. 134 GEORGE F. BRISTOW,40.831595,-73.894227,"1330 BRISTOW ST BRONX, NY 10459",BRONX,10459,1%,46%,50%,96%,2%
FREDERICK DOUGLASS ACADEMY V. MIDDLE SCHOOL,40.848711,-73.888912,"2111 CROTONA AVE BRONX, NY 10457",BRONX,10457,1%,30%,67%,97%,1%
EMOLIOR ACADEMY,40.839183,-73.88028,"1970 W FARMS RD BRONX, NY 10460",BRONX,10460,4%,25%,64%,89%,2%
P.S. 044 MARCUS GARVEY,40.686208,-73.940924,"432 MONROE ST BROOKLYN, NY 11221",BROOKLYN,11221,3%,83%,11%,93%,2%
THE URBAN ASSEMBLY UNISON SCHOOL,40.684336,-73.960549,"170 GATES AVE BROOKLYN, NY 11238",BROOKLYN,11238,15%,68%,14%,82%,3%
BRIGHTER CHOICE COMMUNITY SCHOOL,40.693761,-73.940731,"280 HART ST BROOKLYN, NY 11206",BROOKLYN,11206,0%,71%,29%,99%,1%
M.S. 053 BRIAN PICCOLO,40.603951,-73.749868,"10-45 NAMEOKE ST FAR ROCKAWAY, NY 11691",FAR ROCKAWAY,11691,1%,61%,37%,97%,1%
P.S. 105 THE BAY SCHOOL,40.595904,-73.781257,"420 BEACH 51ST ST FAR ROCKAWAY, NY 11691",FAR ROCKAWAY,11691,3%,66%,28%,94%,2%
P.S. 044 THOMAS C. BROWN,40.631586,-74.157068,"80 MAPLE PKWY STATEN ISLAND, NY 10303",STATEN ISLAND,10303,3%,39%,52%,91%,2%
P.S./I.S. 045 HORACE E. GREENE,40.686658,-73.910178,"84 SCHAEFER ST BROOKLYN, NY 11207",BROOKLYN,11207,2%,48%,47%,95%,1%
P.S. 134 HENRIETTA SZOLD,40.714301,-73.982966,"293 E BROADWAY NEW YORK, NY 10002",NEW YORK,10002,21%,20%,55%,75%,3%
P.S. 5 PORT MORRIS,40.813613,-73.908429,"564 JACKSON AVE BRONX, NY 10455",BRONX,10455,0%,27%,71%,98%,1%
P.S. 75 SCHOOL OF RESEARCH AND DISCOVERY,40.82229,-73.88896,"984 FAILE ST BRONX, NY 10459",BRONX,10459,1%,26%,71%,97%,1%
P.S. 146 EDWARD COLLINS,40.825125,-73.90592,"968 CAULDWELL AVE BRONX, NY 10456",BRONX,10456,1%,42%,55%,97%,0%
P.S. 126 DR MARJORIE H DUNBAR,40.836201,-73.928346,"175 W 166TH ST BRONX, NY 10452",BRONX,10452,1%,26%,71%,97%,2%
URBAN SCIENCE ACADEMY,40.827748,-73.913773,"1000 TELLER AVE BRONX, NY 10456",BRONX,10456,1%,30%,67%,97%,1%
P.S. 091 BRONX,40.858716,-73.907408,"2220 AQUEDUCT AVE BRONX, NY 10453",BRONX,10453,3%,18%,76%,94%,2%
FAIRMONT NEIGHBORHOOD SCHOOL,40.834237,-73.887144,"1550 VYSE AVE BRONX, NY 10460",BRONX,10460,0%,40%,57%,98%,2%
P.S. 536,40.838212,-73.866026,"1827 ARCHER ST BRONX, NY 10460",BRONX,10460,6%,20%,71%,91%,2%
P.S. 067 CHARLES A. DORSEY,40.695143,-73.977889,"51 ST EDWARDS ST BROOKLYN, NY 11205",BROOKLYN,11205,8%,54%,35%,88%,1%
DR. SUSAN S. MCKINNEY SECONDARY SCHOOL OF THE ARTS,40.697012,-73.976044,"101 PARK AVE BROOKLYN, NY 11205",BROOKLYN,11205,2%,73%,23%,96%,0%
P.S. 028 THE WARREN PREP ACADEMY,40.678161,-73.920219,"1001 HERKIMER ST BROOKLYN, NY 11233",BROOKLYN,11233,1%,83%,11%,94%,5%
J.H.S. 057 WHITELAW REID,40.691396,-73.93314,"125 STUYVESANT AVE BROOKLYN, NY 11221",BROOKLYN,11221,0%,66%,32%,98%,1%
P.S. 081 THADDEUS STEVENS,40.692927,-73.934795,"990 DEKALB AVE BROOKLYN, NY 11221",BROOKLYN,11221,3%,56%,38%,94%,0%
RONALD EDMONDS LEARNING CENTER II,40.673118,-73.920067,"430 HOWARD AVE BROOKLYN, NY 11233",BROOKLYN,11233,1%,84%,13%,96%,1%
SCHOOL FOR DEMOCRACY AND LEADERSHIP,40.658665,-73.943838,"600 KINGSTON AVE BROOKLYN, NY 11203",BROOKLYN,11203,0%,88%,8%,96%,1%
P.S. 273 WORTMAN,40.657867,-73.879289,"923 JEROME ST BROOKLYN, NY 11207",BROOKLYN,11207,1%,75%,23%,97%,1%
THE FRESH CREEK SCHOOL,40.65401,-73.894627,"875 WILLIAMS RD BROOKLYN, NY 11207",BROOKLYN,11207,1%,74%,23%,97%,1%
P.S. 194 RAOUL WALLENBERG,40.597404,-73.934085,"3117 AVE W BROOKLYN, NY 11229",BROOKLYN,11229,12%,49%,23%,73%,14%
J.H.S. 008 RICHARD S. GROSSLEY,40.696913,-73.786396,"108-35 167TH ST JAMAICA, NY 11433",JAMAICA,11433,12%,55%,21%,77%,1%
P.S. 057 HUBERT H. HUMPHREY,40.611011,-74.083588,"140 PALMA DR STATEN ISLAND, NY 10304",STATEN ISLAND,10304,4%,53%,34%,88%,7%
J.H.S. 291 ROLAND HAYES,40.695648,-73.915406,"231 PALMETTO ST BROOKLYN, NY 11221",BROOKLYN,11221,1%,15%,81%,96%,3%
SUMMIT ACADEMY CHARTER SCHOOL,40.677847,-74.004818,"27 HUNTINGTON ST BROOKLYN, NY 11231",BROOKLYN,11231,0%,49%,43%,92%,3%
"TECHNOLOGY, ARTS, AND SCIENCES STUDIO",40.729892,-73.984231,"185 1ST AVE NEW YORK, NY 10003",NEW YORK,10003,8%,29%,55%,84%,4%
"P.S. 145, THE BLOOMINGDALE SCHOOL",40.79909,-73.965359,"150 W 105TH ST NEW YORK, NY 10025",NEW YORK,10025,2%,25%,63%,88%,7%
P.S. 102 JACQUES CARTIER,40.79495,-73.938295,"315 E 113TH ST NEW YORK, NY 10029",NEW YORK,10029,8%,30%,55%,85%,4%
ESPERANZA PREPARATORY ACADEMY,40.79259,-73.942119,"240 E 109TH ST NEW YORK, NY 10029",NEW YORK,10029,1%,15%,82%,97%,2%
P.S. 161 PEDRO ALBIZU CAMPOS,40.817721,-73.952459,"499 W 133RD ST NEW YORK, NY 10027",NEW YORK,10027,3%,18%,77%,95%,1%
KAPPA IV,40.817282,-73.947238,"6 EDGECOMBE AVE NEW YORK, NY 10030",NEW YORK,10030,6%,53%,39%,92%,1%
P.S./M.S. 029 MELROSE SCHOOL,40.821611,-73.916768,"758 COURTLANDT AVE BRONX, NY 10451",BRONX,10451,3%,28%,67%,96%,1%
P.S./I.S. 224,40.810207,-73.91839,"345 BROOK AVE BRONX, NY 10454",BRONX,10454,0%,25%,74%,98%,1%
P.S. 062 INOCENSIO CASANOVA,40.813875,-73.90019,"660 FOX ST BRONX, NY 10455",BRONX,10455,0%,20%,77%,96%,3%
P.S. 072 DR. WILLIAM DORNEY,40.823158,-73.818136,"2951 DEWEY AVE BRONX, NY 10465",BRONX,10465,3%,19%,72%,92%,5%
P.S. 152 EVERGREEN,40.823978,-73.880504,"1007 EVERGREEN AVE BRONX, NY 10472",BRONX,10472,1%,18%,78%,96%,1%
THE HUNTS POINT SCHOOL,40.815594,-73.885238,"730 BRYANT AVE BRONX, NY 10474",BRONX,10474,0%,21%,77%,98%,1%
I.S. 219 NEW VENTURE SCHOOL,40.833708,-73.903937,"3630 3RD AVE BRONX, NY 10456",BRONX,10456,1%,37%,61%,98%,1%
P.S. 085 GREAT EXPECTATIONS,40.858852,-73.894829,"2400 MARION AVE BRONX, NY 10458",BRONX,10458,1%,29%,69%,98%,0%
THE ANGELO PATRI MIDDLE SCHOOL,40.854655,-73.897036,"2225 WEBSTER AVE BRONX, NY 10457",BRONX,10457,1%,25%,72%,97%,1%
P.S. 103 HECTOR FONTANEZ,40.892319,-73.861898,"4125 CARPENTER AVE BRONX, NY 10466",BRONX,10466,3%,53%,37%,90%,3%
J.H.S. 098 HERMAN RIDDER,40.835821,-73.890983,"1619 BOSTON RD BRONX, NY 10460",BRONX,10460,1%,29%,67%,96%,2%
P.S. 150 CHARLES JAMES FOX,40.826198,-73.894273,"920 E 167TH ST BRONX, NY 10459",BRONX,10459,1%,21%,76%,97%,1%
P.S. 212,40.828715,-73.900452,"1180 TINTON AVE BRONX, NY 10456",BRONX,10456,1%,35%,61%,95%,1%
JUAN MOREL CAMPOS SECONDARY SCHOOL,40.703878,-73.953472,"215 HEYWARD ST BROOKLYN, NY 11206",BROOKLYN,11206,1%,15%,78%,93%,5%
P.S. 335 GRANVILLE T. WOODS,40.674464,-73.928381,"130 ROCHESTER AVE BROOKLYN, NY 11213",BROOKLYN,11213,0%,80%,18%,98%,2%
P.S. 375 JACKIE ROBINSON SCHOOL,40.664878,-73.959522,"46 MCKEEVER PL BROOKLYN, NY 11225",BROOKLYN,11225,3%,62%,30%,92%,4%
BROOKLYN ARTS AND SCIENCE ELEMENTARY SCHOOL,40.677036,-73.960074,"443 ST MARKS AVE BROOKLYN, NY 11238",BROOKLYN,11238,6%,49%,29%,78%,14%
P.S. 219 KENNEDY-KING,40.658996,-73.922485,"1060 CLARKSON AVE BROOKLYN, NY 11212",BROOKLYN,11212,1%,85%,12%,97%,1%
P.S. 140 EDWARD K ELLINGTON,40.689923,-73.783228,"116-00 166TH ST JAMAICA, NY 11434",JAMAICA,11434,3%,71%,17%,88%,1%
P.S. 075 MAYDA CORTIELLA,40.693254,-73.921321,"95 GROVE ST BROOKLYN, NY 11221",BROOKLYN,11221,2%,21%,74%,96%,2%
FREDERICK DOUGLASS ACADEMY II SECONDARY SCHOOL,40.802284,-73.95408,"215 W 114TH ST NEW YORK, NY 10026",NEW YORK,10026,2%,68%,27%,95%,1%
P.S. 007 SAMUEL STERN,40.800631,-73.939323,"160 E 120TH ST NEW YORK, NY 10035",NEW YORK,10035,3%,30%,62%,92%,4%
P.S. 108 ASSEMBLYMAN ANGELO DEL TORO EDUCATIONAL COMPLEX,40.795035,-73.947872,"1615 MADISON AVE NEW YORK, NY 10029",NEW YORK,10029,5%,28%,64%,92%,1%
P.S. 133 FRED R MOORE,40.809663,-73.939148,"2121 5TH AVE NEW YORK, NY 10037",NEW YORK,10037,4%,52%,37%,89%,5%
J.H.S. 131 ALBERT EINSTEIN,40.823319,-73.860062,"885 BOLTON AVE BRONX, NY 10473",BRONX,10473,3%,35%,60%,96%,1%
THE ACADEMY OF THE ARTS,40.820082,-73.898647,"888 REV J A POLITE AVE BRONX, NY 10459",BRONX,10459,1%,30%,67%,96%,1%
J.H.S. 022 JORDAN L. MOTT,40.832278,-73.914142,"270 E 167TH ST BRONX, NY 10456",BRONX,10456,1%,25%,72%,98%,1%
P.S. 199X - THE SHAKESPEARE SCHOOL,40.843553,-73.920665,"1449 SHAKESPEARE AVE BRONX, NY 10452",BRONX,10452,0%,30%,67%,97%,1%
P.S. 023 THE NEW CHILDREN'S SCHOOL,40.85336,-73.894798,"2151 WASHINGTON AVE BRONX, NY 10457",BRONX,10457,0%,37%,62%,99%,1%
P.S. 094 KINGS COLLEGE SCHOOL,40.88051,-73.875267,"3530 KINGS COLLEGE PL BRONX, NY 10467",BRONX,10467,11%,16%,68%,84%,3%
P.S. 078 ANNE HUTCHINSON,40.878465,-73.85058,"1400 NEEDHAM AVE BRONX, NY 10469",BRONX,10469,1%,72%,22%,94%,4%
P.S. 111 SETON FALLS,40.884355,-73.839263,"3740 BAYCHESTER AVE BRONX, NY 10466",BRONX,10466,0%,61%,36%,97%,1%
P.S. 040 GEORGE W. CARVER,40.680202,-73.921465,"265 RALPH AVE BROOKLYN, NY 11233",BROOKLYN,11233,3%,76%,17%,93%,2%
NORMA ADAMS CLEMONS ACADEMY,40.648983,-73.956246,"43 SNYDER AVE BROOKLYN, NY 11226",BROOKLYN,11226,0%,74%,23%,97%,2%
NEW BRIDGES ELEMENTARY,40.669514,-73.934328,"1025 EASTERN PKWY BROOKLYN, NY 11213",BROOKLYN,11213,1%,74%,21%,95%,2%
P.S. 013 ROBERTO CLEMENTE,40.663784,-73.893259,"557 PENNSYLVANIA AVE BROOKLYN, NY 11207",BROOKLYN,11207,1%,67%,28%,95%,3%
RIVERDALE AVENUE COMMUNITY SCHOOL,40.65997,-73.913616,"76 RIVERDALE AVE BROOKLYN, NY 11212",BROOKLYN,11212,2%,81%,14%,95%,1%
P.S. 043,40.594019,-73.761378,"160 BEACH 29TH ST FAR ROCKAWAY, NY 11691",FAR ROCKAWAY,11691,4%,60%,31%,91%,4%
P.S. 018 JOHN G. WHITTIER,40.636543,-74.116882,"221 BROADWAY STATEN ISLAND, NY 10310",STATEN ISLAND,10310,4%,43%,46%,89%,5%
NEW YORK CITY MONTESSORI CHARTER SCHOOL,40.808913,-73.921746,"423 E 138TH ST BRONX, NY 10454",BRONX,10454,1%,30%,65%,94%,1%
P.S. 064 ROBERT SIMON,40.723747,-73.981602,"600 E 6TH ST NEW YORK, NY 10009",NEW YORK,10009,7%,19%,66%,84%,7%
P.S. 191 AMSTERDAM,40.771743,-73.987572,"210 W 61ST ST NEW YORK, NY 10023",NEW YORK,10023,7%,36%,45%,81%,11%
STEM INSTITUTE OF MANHATTAN,40.801651,-73.955295,"240 W 113TH ST NEW YORK, NY 10026",NEW YORK,10026,3%,53%,38%,91%,4%
P.S. 129 JOHN H. FINLEY,40.814981,-73.952121,"425 W 130TH ST NEW YORK, NY 10027",NEW YORK,10027,2%,42%,51%,93%,1%
P.S. 004 DUKE ELLINGTON,40.834847,-73.941204,"500 W 160TH ST NEW YORK, NY 10032",NEW YORK,10032,1%,8%,91%,98%,0%
P.S. 001 COURTLANDT SCHOOL,40.819101,-73.91941,"335 E 152ND ST BRONX, NY 10451",BRONX,10451,0%,23%,74%,97%,2%
P.S. 043 JONAS BRONCK,40.806419,-73.921424,"165 BROWN PL BRONX, NY 10454",BRONX,10454,0%,27%,71%,98%,1%
P.S. 179,40.809216,-73.920032,"468 E 140TH ST BRONX, NY 10454",BRONX,10454,1%,15%,83%,98%,0%
THE URBAN ASSEMBLY BRONX ACADEMY OF LETTERS,40.81366,-73.925999,"339 MORRIS AVE BRONX, NY 10451",BRONX,10451,1%,30%,67%,97%,2%
J.H.S. 125 HENRY HUDSON,40.829414,-73.856783,"1111 PUGSLEY AVE BRONX, NY 10472",BRONX,10472,20%,17%,54%,71%,7%
P.S. 011 HIGHBRIDGE,40.83973,-73.925913,"1257 OGDEN AVE BRONX, NY 10452",BRONX,10452,0%,30%,69%,99%,0%
P.S. 028 MOUNT HOPE,40.848338,-73.903702,"1861 ANTHONY AVE BRONX, NY 10457",BRONX,10457,1%,18%,81%,98%,1%
LUCERO ELEMENTARY SCHOOL,40.840366,-73.915716,"1425 WALTON AVE BRONX, NY 10452",BRONX,10452,1%,10%,87%,97%,1%
P.S. X037 - MULTIPLE INTELLIGENCE SCHOOL,40.87984,-73.910788,"360 W 230TH ST BRONX, NY 10463",BRONX,10463,2%,23%,72%,95%,2%
I.S. 206 ANN MERSEREAU,40.859604,-73.906275,"2280 AQUEDUCT AVE BRONX, NY 10468",BRONX,10468,1%,19%,78%,97%,1%
J.H.S. 144 MICHELANGELO,40.86429,-73.836566,"2545 GUNTHER AVE BRONX, NY 10469",BRONX,10469,3%,65%,29%,94%,2%
THE YOUNG SCHOLARS ACADEMY OF THE BRONX,40.880634,-73.860155,"3710 BARNES AVE BRONX, NY 10467",BRONX,10467,2%,70%,25%,95%,2%
P.S. 214,40.839183,-73.88028,"1970 W FARMS RD BRONX, NY 10460",BRONX,10460,2%,25%,70%,95%,1%
URBAN SCHOLARS COMMUNITY SCHOOL,40.828715,-73.900452,"1180 TINTON AVE BRONX, NY 10456",BRONX,10456,1%,47%,52%,99%,1%
P.S. 003 THE BEDFORD VILLAGE,40.682307,-73.955241,"50 JEFFERSON AVE BROOKLYN, NY 11216",BROOKLYN,11216,11%,70%,12%,83%,2%
M.S. K266 - PARK PLACE COMMUNITY MIDDLE SCHOOL,40.678907,-73.9465,"31 NEW YORK AVE BROOKLYN, NY 11216",BROOKLYN,11216,1%,78%,19%,98%,1%
P.S. 221 TOUSSAINT L'OUVERTURE,40.663936,-73.93606,"791 EMPIRE BLVD BROOKLYN, NY 11213",BROOKLYN,11213,0%,86%,10%,97%,2%
P.S. 345 PATROLMAN ROBERT BOLDEN,40.676188,-73.879886,"111 BERRIMAN ST BROOKLYN, NY 11208",BROOKLYN,11208,7%,38%,51%,89%,2%
VAN SICLEN COMMUNITY MIDDLE SCHOOL,40.659637,-73.885597,"800 VAN SICLEN AVE BROOKLYN, NY 11207",BROOKLYN,11207,2%,68%,28%,96%,2%
TEACHERS PREPARATORY HIGH SCHOOL,40.66553,-73.912061,"226 BRISTOL ST BROOKLYN, NY 11212",BROOKLYN,11212,1%,80%,17%,97%,1%
P.S./I.S. 087 MIDDLE VILLAGE,40.711906,-73.871298,"67-54 80TH ST MIDDLE VILLAGE, NY 11379",MIDDLE VILLAGE,11379,3%,1%,50%,51%,46%
P.S. 197 THE OCEAN SCHOOL,40.599988,-73.743995,"825 HICKSVILLE RD FAR ROCKAWAY, NY 11691",FAR ROCKAWAY,11691,2%,54%,40%,93%,4%
P.S. 040 SAMUEL HUNTINGTON,40.693996,-73.790818,"109-20 UNION HALL ST JAMAICA, NY 11433",JAMAICA,11433,11%,59%,23%,82%,5%
P.S. 052 QUEENS,40.661251,-73.766923,"178-37 146TH TERRACE JAMAICA, NY 11434",JAMAICA,11434,1%,86%,10%,96%,1%
P.S. 106 EDWARD EVERETT HALE,40.693691,-73.913234,"1328 PUTNAM AVE BROOKLYN, NY 11221",BROOKLYN,11221,2%,12%,86%,98%,1%
FAMILY LIFE ACADEMY CHARTER SCHOOL II,40.811498,-73.925102,"296 E 140TH ST BRONX, NY 10454",BRONX,10454,1%,27%,72%,99%,0%
ICAHN CHARTER SCHOOL 4,40.856635,-73.843042,"1500 PELHAM PKWY SOUTH BRONX, NY 10461",BRONX,10461,2%,61%,33%,95%,1%
RENAISSANCE SCHOOL OF THE ARTS,40.797495,-73.936193,"319 E 117TH ST NEW YORK, NY 10035",NEW YORK,10035,1%,45%,53%,98%,1%
CONCOURSE VILLAGE ELEMENTARY SCHOOL,40.823009,-73.92284,"750 CONCOURSE VILLAGE W BRONX, NY 10451",BRONX,10451,0%,33%,62%,95%,3%
P.S. 182,40.818892,-73.856982,"601 STICKBALL BLVD BRONX, NY 10473",BRONX,10473,8%,28%,62%,90%,2%
ANTONIA PANTOJA PREPARATORY ACADEMY: A COLLEGE BOARD SCHOOL,40.821448,-73.855654,"1980 LAFAYETTE AVE BRONX, NY 10473",BRONX,10473,7%,22%,68%,91%,1%
P.S. 109 SEDGWICK,40.851637,-73.918772,"1771 POPHAM AVE BRONX, NY 10453",BRONX,10453,0%,20%,80%,99%,1%
THOMAS C. GIORDANO MIDDLE SCHOOL 45,40.858431,-73.887039,"2502 LORILLARD PL BRONX, NY 10458",BRONX,10458,1%,16%,78%,94%,4%
P.S. 096 RICHARD RODGERS,40.861185,-73.868521,"2385 OLINVILLE AVE BRONX, NY 10467",BRONX,10467,4%,25%,61%,86%,9%
P.S. 020 CLINTON HILL,40.691059,-73.971016,"225 ADELPHI ST BROOKLYN, NY 11205",BROOKLYN,11205,3%,54%,21%,75%,16%
P.S. 056 LEWIS H. LATIMER,40.684336,-73.960549,"170 GATES AVE BROOKLYN, NY 11238",BROOKLYN,11238,5%,80%,10%,90%,5%
P.S. 307 DANIEL HALE WILLIAMS,40.701781,-73.981587,"209 YORK ST BROOKLYN, NY 11201",BROOKLYN,11201,4%,57%,29%,86%,8%
P.S. 015 PATRICK F. DALY,40.677069,-74.011851,"71 SULLIVAN ST BROOKLYN, NY 11231",BROOKLYN,11231,2%,30%,51%,81%,13%
P.S. 262 EL HAJJ MALIK EL SHABAZZ ELEMENTARY SCHOOL,40.683055,-73.929959,"500 MACON ST BROOKLYN, NY 11233",BROOKLYN,11233,1%,84%,14%,97%,2%
M.S. 246 WALT WHITMAN,40.648365,-73.953433,"72 VERONICA PL BROOKLYN, NY 11226",BROOKLYN,11226,1%,75%,21%,96%,2%
P.S. 224 HALE A. WOODRUFF,40.664057,-73.866271,"755 WORTMAN AVE BROOKLYN, NY 11208",BROOKLYN,11208,2%,65%,30%,95%,2%
EAST NEW YORK MIDDLE SCHOOL OF EXCELLENCE,40.669568,-73.879189,"605 SHEPHERD AVE BROOKLYN, NY 11208",BROOKLYN,11208,4%,59%,37%,96%,0%
P.S. 104 THE BAYS WATER,40.608307,-73.76471,"26-01 MOTT AVE FAR ROCKAWAY, NY 11691",FAR ROCKAWAY,11691,4%,48%,41%,90%,5%
P.S. 134 HOLLIS,40.70796,-73.755348,"203-02 109TH AVE HOLLIS, NY 11423",HOLLIS,11423,3%,86%,9%,95%,1%
P.S. 156 LAURELTON,40.672087,-73.743438,"229-02 137TH AVE SPRINGFIELD GARDENS, NY 11413",SPRINGFIELD GARDENS,11413,2%,90%,6%,97%,0%
P.S. 377 ALEJANDRINA B. DE GAUTIER,40.693817,-73.914879,"200 WOODBINE ST BROOKLYN, NY 11221",BROOKLYN,11221,1%,12%,85%,97%,2%
P.S. 154 HARRIET TUBMAN,40.810555,-73.948862,"250 W 127TH ST NEW YORK, NY 10027",NEW YORK,10027,4%,55%,36%,90%,4%
THURGOOD MARSHALL ACADEMY LOWER SCHOOL,40.825964,-73.937942,"276 W 151ST ST NEW YORK, NY 10027",NEW YORK,10027,3%,79%,14%,93%,1%
P.S. 048 JOSEPH R. DRAKE,40.814228,-73.886889,"1290 SPOFFORD AVE BRONX, NY 10474",BRONX,10474,1%,26%,71%,97%,1%
P.S. 100 ISAAC CLASON,40.82191,-73.862615,"800 TAYLOR AVE BRONX, NY 10473",BRONX,10473,1%,33%,64%,97%,1%
SOUNDVIEW ACADEMY FOR CULTURE AND SCHOLARSHIP,40.823319,-73.860062,"885 BOLTON AVE BRONX, NY 10473",BRONX,10473,2%,31%,65%,96%,1%
MOTT HALL COMMUNITY SCHOOL,40.826997,-73.818271,"650 HOLLYWOOD AVE BRONX, NY 10465",BRONX,10465,4%,10%,69%,79%,18%
P.S. X114 - LUIS LLORENS TORRES SCHOOLS,40.835007,-73.923347,"1155 CROMWELL AVE BRONX, NY 10452",BRONX,10452,4%,22%,71%,93%,2%
I.S. 339,40.840589,-73.90454,"1600 WEBSTER AVE BRONX, NY 10457",BRONX,10457,1%,28%,70%,98%,1%
THE FAMILY SCHOOL,40.832033,-73.917519,"1116 SHERIDAN AVE BRONX, NY 10456",BRONX,10456,4%,28%,66%,94%,1%
P.S. 033 TIMOTHY DWIGHT,40.861675,-73.901633,"2424 JEROME AVE BRONX, NY 10468",BRONX,10468,2%,10%,84%,94%,2%
P.S. 360,40.874718,-73.902209,"2880 KINGSBRIDGE TER BRONX, NY 10463",BRONX,10463,2%,11%,84%,95%,3%
PELHAM GARDENS MIDDLE SCHOOL,40.86429,-73.836566,"2545 GUNTHER AVE BRONX, NY 10469",BRONX,10469,2%,67%,27%,95%,2%
P.S. 066 SCHOOL OF HIGHER EXPECTATIONS,40.831394,-73.886584,"1001 JENNINGS ST BRONX, NY 10460",BRONX,10460,0%,27%,71%,98%,2%
BRONX LITTLE SCHOOL,40.838212,-73.866026,"1827 ARCHER ST BRONX, NY 10460",BRONX,10460,9%,18%,69%,87%,2%
P.S. 018 EDWARD BUSH,40.710655,-73.946565,"101 MAUJER ST BROOKLYN, NY 11206",BROOKLYN,11206,2%,16%,80%,96%,1%
P.S. 138 BROOKLYN,40.673945,-73.951395,"760 PROSPECT PL BROOKLYN, NY 11216",BROOKLYN,11216,1%,85%,9%,94%,4%
ESSENCE SCHOOL,40.662265,-73.894749,"590 SHEFFIELD AVE BROOKLYN, NY 11207",BROOKLYN,11207,4%,69%,20%,89%,7%
SPRING CREEK COMMUNITY SCHOOL,40.6573,-73.874138,"1065 ELTON ST BROOKLYN, NY 11208",BROOKLYN,11208,1%,72%,24%,96%,1%
LIBERTY AVENUE MIDDLE SCHOOL,40.676982,-73.883838,"350 LINWOOD ST BROOKLYN, NY 11208",BROOKLYN,11208,5%,24%,68%,92%,1%
P.S. 90 EDNA COHEN SCHOOL,40.578198,-73.980151,"2840 W 12TH ST BROOKLYN, NY 11224",BROOKLYN,11224,11%,13%,59%,72%,15%
BROOKLYN ENVIRONMENTAL EXPLORATION SCHOOL (BEES),40.680262,-73.91115,"251 MCDOUGAL ST BROOKLYN, NY 11233",BROOKLYN,11233,1%,78%,19%,97%,2%
MOTT HALL BRIDGES ACADEMY,40.666247,-73.91127,"210 CHESTER ST BROOKLYN, NY 11212",BROOKLYN,11212,0%,81%,16%,98%,1%
J.H.S. 162 THE WILLOUGHBY,40.706871,-73.92002,"1390 WILLOUGHBY AVE BROOKLYN, NY 11237",BROOKLYN,11237,2%,3%,92%,95%,2%
P.S. 274 KOSCIUSKO,40.694186,-73.928157,"800 BUSHWICK AVE BROOKLYN, NY 11221",BROOKLYN,11221,1%,10%,85%,95%,1%
MANHATTAN CHARTER SCHOOL II,40.713343,-73.986069,"220 HENRY ST NEW YORK, NY 10002",NEW YORK,10002,6%,26%,63%,89%,2%
P.S. 019 ASHER LEVY,40.729892,-73.984231,"185 1ST AVE NEW YORK, NY 10003",NEW YORK,10003,10%,20%,63%,83%,6%
LIFE SCIENCES SECONDARY SCHOOL,40.783283,-73.945937,"320 E 96TH ST NEW YORK, NY 10128",NEW YORK,10128,5%,31%,60%,91%,2%
THE LEXINGTON ACADEMY,40.791451,-73.947448,"131 E 104TH ST NEW YORK, NY 10029",NEW YORK,10029,1%,13%,83%,95%,3%
P.S. 049 WILLIS AVENUE,40.810342,-73.922626,"383 E 139TH ST BRONX, NY 10454",BRONX,10454,0%,29%,68%,98%,1%
YOUNG LEADERS ELEMENTARY SCHOOL,40.809216,-73.920032,"468 E 140TH ST BRONX, NY 10454",BRONX,10454,0%,18%,81%,99%,1%
THE WALTON AVENUE SCHOOL,40.840366,-73.915716,"1425 WALTON AVE BRONX, NY 10452",BRONX,10452,1%,22%,73%,95%,3%
P.S. 246 POE CENTER,40.865975,-73.895314,"2641 GRAND CONCOURSE BRONX, NY 10468",BRONX,10468,2%,10%,85%,95%,2%
I.S. 254,40.858858,-73.889841,"2452 WASHINGTON AVE BRONX, NY 10458",BRONX,10458,3%,18%,78%,95%,1%
P.S. 291,40.859165,-73.909733,"2195 ANDREWS AVE BRONX, NY 10453",BRONX,10453,0%,11%,88%,99%,0%
P.S. 340,40.869429,-73.897161,"25 W 195TH ST BRONX, NY 10468",BRONX,10468,3%,9%,85%,94%,2%
CORNERSTONE ACADEMY FOR SOCIAL ACTION,40.883064,-73.830908,"3441 STEENWICK AVE BRONX, NY 10475",BRONX,10475,0%,54%,41%,96%,2%
P.S. 211,40.84385,-73.890063,"1919 PROSPECT AVE BRONX, NY 10457",BRONX,10457,0%,15%,84%,98%,1%
P.S. 147 ISAAC REMSEN,40.705023,-73.938707,"325 BUSHWICK AVE BROOKLYN, NY 11206",BROOKLYN,11206,3%,23%,65%,88%,6%
P.S. 092 ADRIAN HEGEMAN,40.656271,-73.954146,"601 PARKSIDE AVE BROOKLYN, NY 11226",BROOKLYN,11226,6%,76%,18%,93%,1%
P.S. 108 SAL ABBRACCIAMENTO,40.681272,-73.884346,"200 LINWOOD ST BROOKLYN, NY 11208",BROOKLYN,11208,6%,12%,79%,91%,2%
P.S. 159 ISAAC PITKIN,40.676117,-73.869676,"2781 PITKIN AVE BROOKLYN, NY 11208",BROOKLYN,11208,32%,39%,26%,65%,1%
I.S. 364 GATEWAY,40.646471,-73.881132,"1426 FREEPORT LOOP BROOKLYN, NY 11239",BROOKLYN,11239,2%,69%,26%,94%,3%
EAST NEW YORK ELEMENTARY SCHOOL OF EXCELLENCE,40.669568,-73.879189,"605 SHEPHERD AVE BROOKLYN, NY 11208",BROOKLYN,11208,2%,60%,36%,95%,1%
P.S. 329 SURFSIDE,40.574839,-73.995807,"2929 W 30TH ST BROOKLYN, NY 11224",BROOKLYN,11224,6%,59%,27%,86%,7%
P.S. 150 CHRISTOPHER,40.668635,-73.905086,"364 SACKMAN ST BROOKLYN, NY 11212",BROOKLYN,11212,2%,59%,32%,91%,3%
P.S./M.S. 147 RONALD MCNAIR,40.698026,-73.740151,"218-01 116TH AVE CAMBRIA HEIGHTS, NY 11411",CAMBRIA HEIGHTS,11411,1%,95%,2%,97%,1%
P.S. 151 MARY D. CARTER,40.757671,-73.908368,"50-05 31ST AVE WOODSIDE, NY 11377",WOODSIDE,11377,17%,22%,51%,73%,7%
P.S. 171 PETER G. VAN ALST,40.771098,-73.929462,"14-14 29TH AVE LONG ISLAND CITY, NY 11102",LONG ISLAND CITY,11102,20%,27%,49%,75%,4%
P.S. 016 JOHN J. DRISCOLL,40.639729,-74.079582,"80 MONROE AVE STATEN ISLAND, NY 10301",STATEN ISLAND,10301,6%,28%,55%,83%,10%
I.S. 49 BERTA A. DREYFUS,40.620483,-74.080771,"101 WARREN ST STATEN ISLAND, NY 10304",STATEN ISLAND,10304,11%,35%,41%,76%,12%
HARBOR SCIENCE AND ARTS CHARTER SCHOOL,40.795537,-73.944526,"132-142 E 111TH ST NEW YORK, NY 10029",NEW YORK,10029,3%,56%,38%,93%,1%
THE 47 AMERICAN SIGN LANGUAGE & ENGLISH LOWER SCHOOL,40.738621,-73.981534,"223 E 23RD ST NEW YORK, NY 10010",NEW YORK,10010,4%,22%,46%,68%,23%
P.S. 165 ROBERT E. SIMON,40.802678,-73.96595,"234 W 109TH ST NEW YORK, NY 10025",NEW YORK,10025,3%,14%,68%,82%,13%
P.S. 146 ANN M. SHORT,40.7897,-73.939094,"421 E 106TH ST NEW YORK, NY 10029",NEW YORK,10029,3%,26%,68%,94%,2%
P.S. 128 AUDUBON,40.841047,-73.938751,"560 W 169TH ST NEW YORK, NY 10032",NEW YORK,10032,1%,3%,95%,98%,1%
P.S. 018 JOHN PETER ZENGER,40.816249,-73.922585,"502 MORRIS AVE BRONX, NY 10451",BRONX,10451,2%,29%,64%,94%,3%
J.H.S. 151 LOU GEHRIG,40.822539,-73.921487,"250 E 156TH ST BRONX, NY 10451",BRONX,10451,1%,28%,69%,98%,1%
ACADEMY OF APPLIED MATHEMATICS AND TECHNOLOGY,40.810207,-73.91839,"345 BROOK AVE BRONX, NY 10454",BRONX,10454,1%,26%,72%,99%,1%
BRONX STUDIO SCHOOL FOR WRITERS AND ARTISTS,40.820398,-73.892938,"928 SIMPSON ST BRONX, NY 10459",BRONX,10459,1%,22%,76%,98%,1%
BLUEPRINT MIDDLE SCHOOL,40.829108,-73.85691,"1111 PUGLSEY AVE BRONX, NY 10472",BRONX,10472,23%,18%,56%,74%,1%
SCIENCE AND TECHNOLOGY ACADEMY: A MOTT HALL SCHOOL,40.828111,-73.917661,"250 E 164TH ST BRONX, NY 10456",BRONX,10456,2%,26%,70%,96%,1%
P.S. 008 ISAAC VARIAN,40.872553,-73.883365,"3010 BRIGGS AVE BRONX, NY 10458",BRONX,10458,5%,11%,77%,88%,7%
"P.S./M.S. 20 P.O.GEORGE J. WERDANN, III",40.869618,-73.879012,"3050 WEBSTER AVE BRONX, NY 10458",BRONX,10458,9%,8%,73%,82%,8%
P.S. 046 EDGAR ALLAN POE,40.858431,-73.887039,"2502 LORILLARD PL BRONX, NY 10458",BRONX,10458,3%,15%,80%,95%,2%
P.S. 095 SHEILA MENCHER,40.883022,-73.891672,"3961 HILLMAN AVE BRONX, NY 10463",BRONX,10463,7%,17%,70%,87%,4%
P.S. 195,40.830906,-73.877497,"1250 WARD AVE BRONX, NY 10472",BRONX,10472,2%,16%,80%,96%,0%
M.S. 582,40.708781,-73.939529,"207 BUSHWICK AVE BROOKLYN, NY 11206",BROOKLYN,11206,0%,23%,72%,95%,3%
P.S. 021 CRISPUS ATTUCKS,40.680441,-73.92635,"180 CHAUNCEY ST BROOKLYN, NY 11233",BROOKLYN,11233,1%,89%,8%,97%,2%
EBBETS FIELD MIDDLE SCHOOL,40.664878,-73.959522,"46 MCKEEVER PL BROOKLYN, NY 11225",BROOKLYN,11225,3%,64%,30%,94%,4%
P.S. 007 ABRAHAM LINCOLN,40.689594,-73.872989,"858 JAMAICA AVE BROOKLYN, NY 11208",BROOKLYN,11208,7%,9%,80%,90%,2%
J.H.S. 292 MARGARET S. DOUGLAS,40.671887,-73.893453,"301 VERMONT ST BROOKLYN, NY 11207",BROOKLYN,11207,12%,52%,33%,86%,1%
J.H.S. 014 SHELL BANK,40.593516,-73.938193,"2424 BATCHELDER ST BROOKLYN, NY 11235",BROOKLYN,11235,11%,48%,17%,64%,24%
P.S. 201 THE DISCOVERY SCHOOL FOR INQUIRY AND RESEARCH,40.736521,-73.813001,"65-11 155TH ST FLUSHING, NY 11367",FLUSHING,11367,18%,41%,36%,77%,4%
P.S. 160 WALTER FRANCIS BISHOP,40.688017,-73.799965,"109-59 INWOOD ST JAMAICA, NY 11435",JAMAICA,11435,13%,55%,20%,75%,1%
I.S. 051 EDWIN MARKHAM,40.623011,-74.145295,"20 HOUSTON ST STATEN ISLAND, NY 10302",STATEN ISLAND,10302,6%,22%,44%,66%,27%
I.S. 061 WILLIAM A MORRIS,40.634527,-74.097992,"445 CASTLETON AVE STATEN ISLAND, NY 10301",STATEN ISLAND,10301,5%,34%,44%,78%,16%
P.S. 74 FUTURE LEADERS ELEMENTARY SCHOOL,40.638837,-74.079494,"211 DANIEL LOW TERR STATEN ISLAND, NY 10301",STATEN ISLAND,10301,7%,24%,63%,87%,6%
P.S. 299 THOMAS WARREN FIELD,40.690997,-73.91785,"88 WOODBINE ST BROOKLYN, NY 11221",BROOKLYN,11221,0%,47%,51%,98%,2%
SOUTH BRONX CHARTER SCHOOL FOR INTERNATIONAL CULTURES AND THE ARTS,40.807564,-73.929369,"164 BRUCKNER BLVD BRONX, NY 10454",BRONX,10454,0%,16%,82%,98%,1%
P.S. 034 FRANKLIN D. ROOSEVELT,40.726147,-73.975043,"730 E 12TH ST NEW YORK, NY 10009",NEW YORK,10009,5%,29%,63%,92%,4%
RIVER EAST ELEMENTARY,40.796906,-73.929978,"508 E 120TH ST NEW YORK, NY 10035",NEW YORK,10035,0%,45%,51%,96%,2%
JAMES WELDON JOHNSON,40.797156,-73.941285,"176 E 115TH ST NEW YORK, NY 10029",NEW YORK,10029,4%,26%,67%,93%,2%
P.S. 093 ALBERT G. OLIVER,40.822513,-73.877255,"1535 STORY AVE BRONX, NY 10473",BRONX,10473,0%,57%,40%,97%,2%
J.H.S. 123 JAMES M. KIERAN,40.824884,-73.873517,"1025 MORRISON AVE BRONX, NY 10472",BRONX,10472,1%,21%,78%,99%,0%
P.S. 055 BENJAMIN FRANKLIN,40.835973,-73.904838,"450 ST PAUL'S PL BRONX, NY 10456",BRONX,10456,0%,47%,52%,99%,0%
P.S. 032 BELMONT,40.852095,-73.885739,"690 E 183RD ST BRONX, NY 10458",BRONX,10458,1%,25%,71%,96%,3%
M.S. 129 ACADEMY FOR INDEPENDENT LEARNING AND LEADERSHIP,40.845682,-73.886532,"2055 MAPES AVE BRONX, NY 10460",BRONX,10460,2%,32%,63%,95%,1%
M.S. 113 RONALD EDMONDS LEARNING CENTER,40.688432,-73.971169,"300 ADELPHI ST BROOKLYN, NY 11205",BROOKLYN,11205,4%,75%,18%,93%,2%
URBAN ASSEMBLY INSTITUTE OF MATH AND SCIENCE FOR YOUNG WOMEN,40.694639,-73.988307,"283 ADAMS ST BROOKLYN, NY 11201",BROOKLYN,11201,5%,71%,14%,86%,8%
M.S. 035 STEPHEN DECATUR,40.681708,-73.935722,"272 MCDONOUGH ST BROOKLYN, NY 11233",BROOKLYN,11233,1%,85%,14%,98%,0%
P.S. 309 THE GEORGE E. WIBECAN PREPARATORY ACADEMY,40.688119,-73.924441,"794 MONROE ST BROOKLYN, NY 11221",BROOKLYN,11221,5%,62%,31%,93%,1%
P.S. 091 THE ALBANY AVENUE SCHOOL,40.661792,-73.940462,"532 ALBANY AVE BROOKLYN, NY 11203",BROOKLYN,11203,1%,90%,6%,97%,1%
P.S. 114 RYDER ELEMENTARY,40.642544,-73.90803,"1077 REMSEN AVE BROOKLYN, NY 11236",BROOKLYN,11236,2%,81%,10%,91%,6%
P.S. 290 JUAN MOREL CAMPOS,40.677932,-73.889763,"135 SCHENCK AVE BROOKLYN, NY 11207",BROOKLYN,11207,4%,24%,70%,94%,1%
P.S. 099 ISAAC ASIMOV,40.621492,-73.966006,"1120 E 10TH ST BROOKLYN, NY 11230",BROOKLYN,11230,41%,8%,18%,26%,32%
P.S. 212 LADY DEBORAH MOODY,40.587495,-73.985611,"87 BAY 49TH ST BROOKLYN, NY 11214",BROOKLYN,11214,34%,15%,33%,48%,18%
BROOKLYN LANDMARK ELEMENTARY SCHOOL,40.680262,-73.91115,"251 MCDOUGAL ST BROOKLYN, NY 11233",BROOKLYN,11233,2%,74%,22%,96%,2%
I.S. 250 THE ROBERT F. KENNEDY COMMUNITY MIDDLE SCHOOL,40.724191,-73.80937,"158-40 76TH RD FLUSHING, NY 11366",FLUSHING,11366,33%,28%,25%,53%,11%
P.S. 151 LYNDON B. JOHNSON,40.693371,-73.908233,"763 KNICKERBOCKER AVE BROOKLYN, NY 11237",BROOKLYN,11237,0%,19%,73%,92%,8%
CONEY ISLAND PREPARATORY PUBLIC CHARTER SCHOOL,40.598888,-73.974233,"294 AVE T BROOKLYN, NY 11223",BROOKLYN,11223,9%,40%,32%,72%,16%
P.S. 140 NATHAN STRAUS,40.719128,-73.983283,"123 RIDGE ST NEW YORK, NY 10002",NEW YORK,10002,5%,13%,78%,90%,3%
P.S. 142 AMALIA CASTRO,40.71823,-73.984082,"100 ATTORNEY ST NEW YORK, NY 10002",NEW YORK,10002,6%,11%,78%,90%,2%
SCHOOL FOR GLOBAL LEADERS,40.720185,-73.985957,"145 STANTON ST NEW YORK, NY 10002",NEW YORK,10002,15%,22%,58%,81%,2%
MOSAIC PREPARATORY ACADEMY,40.796046,-73.944549,"141 E 111TH ST NEW YORK, NY 10029",NEW YORK,10029,5%,41%,50%,91%,1%
NEW DESIGN MIDDLE SCHOOL,40.819764,-73.95724,"625 W 133RD ST NEW YORK, NY 10031",NEW YORK,10031,1%,52%,43%,95%,3%
P.S. 115 ALEXANDER HUMBOLDT,40.846134,-73.935144,"586 W 177TH ST NEW YORK, NY 10033",NEW YORK,10033,0%,1%,96%,97%,2%
P.S. 325,40.820988,-73.952995,"500 W 138TH ST NEW YORK, NY 10031",NEW YORK,10031,0%,5%,91%,96%,4%
HAMILTON HEIGHTS SCHOOL,40.826477,-73.947458,"1750 AMSTERDAM AVE NEW YORK, NY 10031",NEW YORK,10031,5%,19%,58%,77%,15%
P.S. 130 ABRAM STEVENS HEWITT,40.817778,-73.901831,"750 PROSPECT AVE BRONX, NY 10455",BRONX,10455,2%,23%,73%,96%,2%
I.S. X303 LEADERSHIP & COMMUNITY SERVICE,40.849461,-73.915529,"1700 MACOMBS RD BRONX, NY 10453",BRONX,10453,0%,23%,75%,98%,1%
P.S. 306,40.851349,-73.910712,"40 W TREMONT AVE BRONX, NY 10453",BRONX,10453,1%,28%,70%,98%,1%
ACADEMY FOR PERSONAL LEADERSHIP AND EXCELLENCE,40.859506,-73.900475,"120 E 184TH ST BRONX, NY 10468",BRONX,10468,2%,12%,85%,96%,1%
EAST FORDHAM ACADEMY FOR THE ARTS,40.859506,-73.900475,"120 E 184TH ST BRONX, NY 10468",BRONX,10468,2%,12%,84%,97%,1%
BRONX GREEN MIDDLE SCHOOL,40.86206,-73.864588,"2441 WALLACE AVE BRONX, NY 10467",BRONX,10467,8%,26%,57%,83%,9%
BRONX PARK MIDDLE SCHOOL,40.86206,-73.864588,"2441 WALLACE AVE BRONX, NY 10467",BRONX,10467,7%,26%,57%,83%,9%
P.S. 196,40.830906,-73.877497,"1250 WARD AVE BRONX, NY 10472",BRONX,10472,1%,18%,78%,95%,1%
M.S. 442 CARROLL GARDENS SCHOOL FOR INNOVATION,40.680431,-73.991704,"317 HOYT ST BROOKLYN, NY 11231",BROOKLYN,11231,6%,26%,47%,73%,19%
MADIBA PREP MIDDLE SCHOOL,40.691976,-73.931488,"1014 LAFAYETTE AVE BROOKLYN, NY 11221",BROOKLYN,11221,1%,76%,21%,97%,2%
THE SCHOOL OF INTEGRATED LEARNING,40.672272,-73.937164,"1224 PARK PL BROOKLYN, NY 11213",BROOKLYN,11213,3%,78%,13%,91%,3%
P.S. 397 FOSTER-LAURIE,40.658733,-73.946384,"490 FENIMORE ST BROOKLYN, NY 11203",BROOKLYN,11203,2%,83%,8%,91%,4%
P.S. 244 RICHARD R. GREEN,40.647918,-73.925602,"5404 TILDEN AVE BROOKLYN, NY 11203",BROOKLYN,11203,0%,96%,2%,98%,1%
RIVERDALE AVENUE MIDDLE SCHOOL,40.65997,-73.913616,"76 RIVERDALE AVE BROOKLYN, NY 11212",BROOKLYN,11212,1%,87%,11%,98%,0%
P.S. 048 WILLIAM WORDSWORTH,40.693571,-73.796189,"108-29 155TH ST JAMAICA, NY 11433",JAMAICA,11433,13%,65%,17%,82%,1%
P.S. 118 LORRAINE HANSBERRY,40.703442,-73.765375,"190-20 109TH RD HOLLIS, NY 11423",HOLLIS,11423,3%,82%,12%,94%,0%
EAGLE ACADEMY FOR YOUNG MEN III,40.691665,-73.778987,"171-10 LINDEN BLVD JAMAICA, NY 11434",JAMAICA,11434,1%,86%,3%,90%,3%
COMMUNITY VOICES MIDDLE SCHOOL,40.664858,-73.759088,"145-00 SPRINGFIELD BLVD SPRINGFIELD GARDENS, NY 11413",SPRINGFIELD GARDENS,11413,1%,91%,6%,97%,1%
P.S. 046 ALBERT V. MANISCALCO,40.594211,-74.080521,"41 REID AVE STATEN ISLAND, NY 10305",STATEN ISLAND,10305,10%,15%,39%,54%,35%
SISULU-WALKER CHARTER SCHOOL OF HARLEM,40.802102,-73.951358,"125 W 115TH ST NEW YORK, NY 10026",NEW YORK,10026,1%,77%,16%,92%,1%
UNIVERSITY NEIGHBORHOOD MIDDLE SCHOOL,40.713343,-73.986069,"220 HENRY ST NEW YORK, NY 10002",NEW YORK,10002,5%,27%,63%,90%,4%
P.S. 111 ADOLPH S. OCHS,40.765834,-73.989602,"440 W 53RD ST NEW YORK, NY 10019",NEW YORK,10019,18%,16%,50%,66%,13%
ELLA BAKER SCHOOL,40.765368,-73.959696,"317 E 67TH ST NEW YORK, NY 10021",NEW YORK,10021,4%,19%,37%,56%,35%
P.S. 208 ALAIN L. LOCKE,40.798341,-73.950453,"21 W 111TH ST NEW YORK, NY 10026",NEW YORK,10026,3%,61%,34%,95%,1%
P.S. 005 ELLEN LURIE,40.85892,-73.922428,"3703 10TH AVE NEW YORK, NY 10034",NEW YORK,10034,1%,6%,92%,98%,0%
P.S. 098 SHORAC KAPPOCK,40.867823,-73.917818,"512 W 212TH ST NEW YORK, NY 10034",NEW YORK,10034,1%,2%,94%,96%,3%
P.S. 153 ADAM CLAYTON POWELL,40.826477,-73.947458,"1750 AMSTERDAM AVE NEW YORK, NY 10031",NEW YORK,10031,2%,20%,74%,94%,3%
P.S. 192 JACOB H. SCHIFF,40.820988,-73.952995,"500 W 138TH ST NEW YORK, NY 10031",NEW YORK,10031,0%,7%,92%,98%,1%
P.S. 163 ARTHUR A. SCHOMBURG,40.851773,-73.898794,"2075 WEBSTER AVE BRONX, NY 10457",BRONX,10457,1%,37%,60%,97%,1%
"URBAN ASSEMBLY SCHOOL FOR APPLIED MATH AND SCIENCE, THE",40.839457,-73.901895,"1595 BATHGATE AVE BRONX, NY 10457",BRONX,10457,1%,34%,64%,98%,1%
J.H.S. 118 WILLIAM W. NILES,40.848559,-73.89257,"577 E 179TH ST BRONX, NY 10457",BRONX,10457,15%,21%,60%,81%,3%
P.S. 159 LUIS MUNOZ MARIN BILING,40.855521,-73.893276,"2315 WASHINGTON AVE BRONX, NY 10457",BRONX,10457,0%,8%,90%,98%,1%
P.S. 205 FIORELLO LAGUARDIA,40.855742,-73.881407,"2475 SOUTHERN BLVD BRONX, NY 10458",BRONX,10458,1%,15%,79%,94%,5%
THEATRE ARTS PRODUCTION COMPANY SCHOOL,40.854655,-73.897036,"2225 WEBSTER AVE BRONX, NY 10457",BRONX,10457,1%,27%,68%,95%,2%
"P.S. 279 CAPTAIN MANUEL RIVERA, JR.",40.854751,-73.905024,"2100 WALTON AVE BRONX, NY 10453",BRONX,10453,3%,17%,79%,96%,0%
CRESTON ACADEMY,40.855211,-73.903264,"125 E 181ST ST BRONX, NY 10453",BRONX,10453,3%,12%,84%,96%,1%
P.S. 121 THROOP,40.866944,-73.850467,"2750 THROOP AVE BRONX, NY 10469",BRONX,10469,7%,61%,26%,88%,4%
BRONX ALLIANCE MIDDLE SCHOOL,40.886043,-73.840576,"3750 BAYCHESTER AVE BRONX, NY 10466",BRONX,10466,5%,61%,31%,92%,2%
BAYCHESTER MIDDLE SCHOOL,40.886043,-73.840576,"3750 BAYCHESTER AVE BRONX, NY 10466",BRONX,10466,1%,68%,27%,95%,1%
P.S. 282 PARK SLOPE,40.676626,-73.977783,"180 6TH AVE BROOKLYN, NY 11217",BROOKLYN,11217,3%,59%,25%,85%,9%
P.S. 016 LEONARD DUNKLY,40.705915,-73.962068,"157 WILSON ST BROOKLYN, NY 11211",BROOKLYN,11211,1%,27%,67%,94%,2%
JOHN ERICSSON MIDDLE SCHOOL 126,40.719769,-73.947968,"424 LEONARD ST BROOKLYN, NY 11222",BROOKLYN,11222,2%,22%,63%,84%,12%
YOUNG WOMEN'S LEADERSHIP SCHOOL OF BROOKLYN,40.705023,-73.938707,"325 BUSHWICK AVE BROOKLYN, NY 11206",BROOKLYN,11206,4%,58%,33%,91%,2%
P.S. 181 BROOKLYN,40.64809,-73.945911,"1023 NEW YORK AVE BROOKLYN, NY 11203",BROOKLYN,11203,0%,86%,10%,95%,2%
I.S. 285 MEYER LEVIN,40.647443,-73.920775,"5909 BEVERLY RD BROOKLYN, NY 11203",BROOKLYN,11203,0%,94%,5%,99%,1%
MIDDLE SCHOOL FOR ART AND PHILOSOPHY,40.65785,-73.920032,"1084 LENOX RD BROOKLYN, NY 11212",BROOKLYN,11212,0%,88%,6%,94%,1%
I.S. 171 ABRAHAM LINCOLN,40.685841,-73.869429,"528 RIDGEWOOD AVE BROOKLYN, NY 11208",BROOKLYN,11208,4%,14%,77%,91%,1%
WATERSIDE SCHOOL FOR LEADERSHIP,40.579602,-73.831079,"1-90 BEACH 110TH ST ROCKAWAY PARK, NY 11694",ROCKAWAY PARK,11694,2%,55%,34%,88%,8%
VILLAGE ACADEMY,40.603951,-73.749868,"10-45 NAMEOKE ST FAR ROCKAWAY, NY 11691",FAR ROCKAWAY,11691,1%,64%,33%,97%,1%
THE EMERSON SCHOOL,40.696913,-73.786396,"108-35 167TH ST JAMAICA, NY 11433",JAMAICA,11433,11%,58%,20%,79%,2%
COLLABORATIVE ARTS MIDDLE SCHOOL,40.664858,-73.759088,"145-00 SPRINGFIELD BLVD SPRINGFIELD GARDENS, NY 11413",SPRINGFIELD GARDENS,11413,1%,91%,6%,97%,1%
P.S. 076 WILLIAM HALLET,40.760848,-73.941632,"36-36 10TH ST LONG ISLAND CITY, NY 11106",LONG ISLAND CITY,11106,9%,31%,47%,77%,11%
I.S. 027 ANNING S. PRALL,40.628284,-74.117592,"11 CLOVE LAKE PL STATEN ISLAND, NY 10310",STATEN ISLAND,10310,10%,24%,40%,63%,25%
TEACHING FIRMS OF AMERICA-PROFESSIONAL PREPARATORY CHARTER SCHOOL,40.688447,-73.935295,"616 QUINCY ST-3RD FL BROOKLYN, NY 11221",BROOKLYN,11221,1%,74%,20%,94%,1%
BROOKLYN CHARTER SCHOOL,40.694156,-73.94779,"545 WILLOUGHBY AVE BROOKLYN, NY 11206",BROOKLYN,11206,2%,81%,16%,97%,0%
EAST HARLEM SCHOLARS ACADEMY CHARTER SCHOOL,40.790378,-73.942991,"2050 2ND AVE NEW YORK, NY 10026",NEW YORK,10026,1%,29%,64%,93%,2%
FUTURE LEADERS INSTITUTE CHARTER SCHOOL,40.806174,-73.948335,"134 W 122ND ST NEW YORK, NY 10027",NEW YORK,10027,1%,84%,15%,98%,1%
TECH INTERNATIONAL CHARTER SCHOOL,40.880836,-73.907086,"3120 CORLEAR AVE BRONX, NY 10463",BRONX,10463,2%,19%,76%,95%,3%
MOTT HAVEN ACADEMY CHARTER SCHOOL,40.806307,-73.920868,"170 BROWN PL BRONX, NY 10454",BRONX,10454,0%,29%,69%,98%,1%
WEST PREP ACADEMY,40.79909,-73.965359,"150 W 105TH ST NEW YORK, NY 10025",NEW YORK,10025,2%,52%,39%,91%,5%
P.S. 083 LUIS MUNOZ RIVERA,40.79313,-73.941812,"219 E 109TH ST NEW YORK, NY 10029",NEW YORK,10029,13%,20%,64%,84%,3%
P.S. 155 WILLIAM PACA,40.797495,-73.936193,"319 E 117TH ST NEW YORK, NY 10035",NEW YORK,10035,2%,11%,87%,97%,0%
P.S. 206 JOSE CELSO BARBOSA,40.796906,-73.929978,"508 E 120TH ST NEW YORK, NY 10035",NEW YORK,10035,4%,26%,61%,87%,6%
P.S. 154 JONATHAN D. HYATT,40.808255,-73.925748,"333 E 135TH ST BRONX, NY 10454",BRONX,10454,0%,40%,57%,97%,1%
URBAN INSTITUTE OF MATHEMATICS,40.826997,-73.818271,"650 HOLLYWOOD AVE BRONX, NY 10465",BRONX,10465,5%,15%,59%,74%,21%
P.S. 110 THEODORE SCHOENFELD,40.834973,-73.900304,"580 CROTONA PARK S BRONX, NY 10456",BRONX,10456,0%,42%,52%,95%,5%
I.S. 232,40.849461,-73.915529,"1700 MACOMBS RD BRONX, NY 10453",BRONX,10453,0%,20%,79%,99%,1%
P.S./I.S. 54,40.864937,-73.887793,"2703 WEBSTER AVE BRONX, NY 10458",BRONX,10458,2%,27%,70%,97%,1%
P.S. 056 NORWOOD HEIGHTS,40.872439,-73.875912,"3177 WEBSTER AVE BRONX, NY 10467",BRONX,10467,22%,8%,63%,71%,6%
WEST BRONX ACADEMY FOR THE FUTURE,40.859516,-73.88858,"500 E FORDHAM RD BRONX, NY 10458",BRONX,10458,2%,20%,75%,95%,2%
P.S. 076 THE BENNINGTON SCHOOL,40.869164,-73.860906,"900 ADEE AVE BRONX, NY 10469",BRONX,10469,3%,45%,42%,87%,8%
P.S. 196 TEN EYCK,40.708781,-73.939529,"207 BUSHWICK AVE BROOKLYN, NY 11206",BROOKLYN,11206,1%,18%,78%,96%,2%
P.S. 038 THE PACIFIC,40.684964,-73.982824,"450 PACIFIC ST BROOKLYN, NY 11217",BROOKLYN,11217,13%,37%,26%,63%,21%
P.S. 399 STANLEY EUGENE CLARK,40.648247,-73.951778,"2707 ALBERMARLE RD BROOKLYN, NY 11226",BROOKLYN,11226,3%,72%,14%,86%,1%
I.S. 068 ISAAC BILDERSEE,40.63522,-73.910912,"956 E 82ND ST BROOKLYN, NY 11236",BROOKLYN,11236,1%,90%,5%,95%,3%
P.S. 233 LANGSTON HUGHES,40.651408,-73.914021,"9301 AVE B BROOKLYN, NY 11236",BROOKLYN,11236,1%,93%,5%,98%,1%
P.S. 121 QUEENS,40.684009,-73.815955,"126-10 109TH AVE SOUTH OZONE PARK, NY 11420",SOUTH OZONE PARK,11420,49%,19%,11%,31%,1%
P.S. 036 SAINT ALBANS SCHOOL,40.690773,-73.763989,"187-01 FOCH BLVD SAINT ALBANS, NY 11412",SAINT ALBANS,11412,0%,88%,9%,97%,0%
P.S. 181 BROOKFIELD,40.656203,-73.753128,"148-15 230TH ST SPRINGFIELD GARDENS, NY 11413",SPRINGFIELD GARDENS,11413,2%,86%,8%,94%,1%
P.S. 022 GRANITEVILLE,40.624959,-74.150648,"1860 FOREST AVE STATEN ISLAND, NY 10303",STATEN ISLAND,10303,7%,24%,55%,79%,12%
EVERGREEN MIDDLE SCHOOL FOR URBAN EXPLORATION,40.688922,-73.91033,"125 COVERT ST BROOKLYN, NY 11207",BROOKLYN,11207,1%,28%,69%,96%,2%
HYDE LEADERSHIP CHARTER SCHOOL- BROOKLYN,40.667817,-73.898173,"330 ALABAMA AVE BROOKLYN, NY 11207",BROOKLYN,11207,1%,71%,27%,98%,1%
HEKETI COMMUNITY CHARTER SCHOOL,40.809304,-73.909769,"403 CONCORD AVE BRONX, NY 10454",BRONX,10454,0%,29%,69%,98%,1%
J.H.S. 143 ELEANOR ROOSEVELT,40.849099,-73.931106,"511 W 182ND ST NEW YORK, NY 10033",NEW YORK,10033,0%,1%,96%,97%,3%
P.S. 173,40.84562,-73.939738,"306 FT WASHINGTON AVE NEW YORK, NY 10033",NEW YORK,10033,3%,3%,92%,94%,3%
I.S. 218 SALOME URENA,40.86082,-73.930066,"4600 BROADWAY NEW YORK, NY 10040",NEW YORK,10040,0%,2%,93%,96%,3%
P.S. 036 UNIONPORT,40.829446,-73.849749,"1070 CASTLE HILL AVE BRONX, NY 10472",BRONX,10472,19%,11%,64%,76%,3%
"ARCHIMEDES ACADEMY FOR MATH, SCIENCE AND TECHNOLOGY APPLICATIONS",40.815017,-73.856018,"456 WHITE PLAINS RD BRONX, NY 10473",BRONX,10473,8%,32%,58%,90%,1%
GRANT AVENUE ELEMENTARY SCHOOL,40.828111,-73.917661,"250 E 164TH ST BRONX, NY 10456",BRONX,10456,5%,30%,62%,92%,1%
THE NEW SCHOOL FOR LEADERSHIP AND JOURNALISM,40.875451,-73.901516,"120 W 231ST ST BRONX, NY 10463",BRONX,10463,2%,11%,83%,94%,3%
M.S. 390,40.854367,-73.913024,"1930 ANDREWS AVE BRONX, NY 10453",BRONX,10453,1%,13%,85%,98%,1%
ONE WORLD MIDDLE SCHOOL AT EDENWALD,40.886043,-73.840576,"3750 BAYCHESTER AVE BRONX, NY 10466",BRONX,10466,3%,60%,32%,93%,2%
P.S. 047 JOHN RANDOLPH,40.832525,-73.866982,"1794 E 172ND ST BRONX, NY 10472",BRONX,10472,12%,16%,68%,84%,2%
E.S.M.T- I.S. 190,40.836359,-73.89275,"1550 CROTONA PARK E BRONX, NY 10460",BRONX,10460,1%,25%,71%,96%,1%
ARCHER ELEMENTARY SCHOOL,40.838212,-73.866026,"1827 ARCHER ST BRONX, NY 10460",BRONX,10460,11%,26%,59%,85%,2%
BROOKLYN BROWNSTONE SCHOOL,40.681708,-73.935722,"272 MCDONOUGH ST BROOKLYN, NY 11233",BROOKLYN,11233,0%,82%,9%,91%,8%
M.S. K394,40.672706,-73.92893,"188 ROCHESTER AVE BROOKLYN, NY 11213",BROOKLYN,11213,6%,77%,15%,92%,1%
VISTA ACADEMY,40.676982,-73.883838,"350 LINWOOD ST BROOKLYN, NY 11208",BROOKLYN,11208,4%,27%,66%,93%,2%
P.S. K225 - THE EILEEN E. ZAGLIN,40.57981,-73.95601,"1075 OCEANVIEW AVE BROOKLYN, NY 11235",BROOKLYN,11235,17%,3%,37%,40%,42%
P.S. 198 BROOKLYN,40.636966,-73.937009,"4105 FARRAGUT RD BROOKLYN, NY 11210",BROOKLYN,11210,3%,87%,7%,94%,1%
P.S. 251 PAERDEGAT,40.631331,-73.92384,"1037 E 54TH ST BROOKLYN, NY 11234",BROOKLYN,11234,4%,77%,13%,90%,5%
P.S. 045 CLARENCE WITHERSPOON,40.672298,-73.788265,"126-28 150TH ST SOUTH OZONE PARK, NY 11436",SOUTH OZONE PARK,11436,8%,71%,17%,87%,1%
P.S. 65 - THE RAYMOND YORK ELEMENTARY SCHOOL,40.682272,-73.841648,"103-22 99TH ST OZONE PARK, NY 11417",OZONE PARK,11417,40%,6%,41%,47%,4%
M.S. 137 AMERICA'S SCHOOL OF HEROES,40.67807,-73.839652,"109-15 98TH ST OZONE PARK, NY 11417",OZONE PARK,11417,54%,5%,32%,37%,2%
P.S. 050 TALFOURD LAWN ELEMENTARY SCHOOL,40.694854,-73.806837,"143-26 101ST AVE JAMAICA, NY 11435",JAMAICA,11435,19%,22%,45%,67%,2%
P.S. 182 SAMANTHA SMITH,40.706506,-73.803188,"153-27 88TH AVE JAMAICA, NY 11432",JAMAICA,11432,28%,14%,54%,68%,1%
P.S. 035 NATHANIEL WOODHULL,40.713433,-73.768881,"191-02 90TH AVE HOLLIS, NY 11423",HOLLIS,11423,24%,35%,29%,64%,4%
P.S. 019 THE CURTIS SCHOOL,40.630563,-74.126888,"780 POST AVE STATEN ISLAND, NY 10310",STATEN ISLAND,10310,4%,16%,68%,84%,8%
P.S. 145 ANDREW JACKSON,40.701446,-73.932301,"100 NOLL ST BROOKLYN, NY 11206",BROOKLYN,11206,1%,3%,94%,97%,2%
I.S. 347 SCHOOL OF HUMANITIES,40.700818,-73.927587,"35 STARR ST BROOKLYN, NY 11221",BROOKLYN,11221,2%,7%,89%,96%,1%
HARRIET TUBMAN CHARTER SCHOOL,40.832272,-73.905817,"3565 3RD AVE BRONX, NY 10456",BRONX,10456,0%,68%,31%,98%,1%
THE STAR ACADEMY - P.S.63,40.724404,-73.98636,"121 E 3RD ST NEW YORK, NY 10009",NEW YORK,10009,4%,20%,65%,84%,10%
THE CHILDREN'S WORKSHOP SCHOOL,40.727726,-73.978382,"610 E 12TH ST NEW YORK, NY 10009",NEW YORK,10009,10%,10%,39%,49%,38%
NEIGHBORHOOD SCHOOL,40.724404,-73.98636,"121 E 3RD ST NEW YORK, NY 10009",NEW YORK,10009,5%,13%,34%,47%,45%
WADLEIGH SECONDARY SCHOOL FOR THE PERFORMING & VISUAL ARTS,40.802284,-73.95408,"215 W 114TH ST NEW YORK, NY 10026",NEW YORK,10026,2%,53%,44%,96%,1%
M.S. 224 MANHATTAN EAST SCHOOL FOR ARTS & ACADEMICS,40.785027,-73.942008,"410 E 100TH ST NEW YORK, NY 10029",NEW YORK,10029,5%,36%,51%,87%,7%
ISAAC NEWTON MIDDLE SCHOOL FOR MATH & SCIENCE,40.794167,-73.932694,"260 PLEASANT AVE NEW YORK, NY 10029",NEW YORK,10029,5%,29%,64%,94%,1%
P.S. 018 PARK TERRACE,40.871646,-73.911618,"4124 9TH AVE NEW YORK, NY 10034",NEW YORK,10034,0%,1%,97%,98%,2%
J.H.S. 052 INWOOD,40.865914,-73.925157,"650 ACADEMY ST NEW YORK, NY 10034",NEW YORK,10034,0%,4%,93%,97%,2%
MIDDLE SCHOOL 322,40.86082,-73.930066,"4600 BROADWAY NEW YORK, NY 10040",NEW YORK,10040,0%,3%,95%,98%,1%
P.S. 025 BILINGUAL SCHOOL,40.812854,-73.905725,"811 E 149TH ST BRONX, NY 10455",BRONX,10455,1%,11%,87%,97%,1%
P.S. 035 FRANZ SIEGEL,40.82761,-73.91809,"261 E 163RD ST BRONX, NY 10451",BRONX,10451,1%,29%,68%,97%,1%
BRONX EARLY COLLEGE ACADEMY FOR TEACHING & LEARNING,40.828111,-73.917661,"250 E 164TH ST BRONX, NY 10456",BRONX,10456,3%,29%,66%,95%,2%
P.S. 226,40.855568,-73.91622,"1950 SEDGWICK AVE BRONX, NY 10453",BRONX,10453,1%,23%,76%,98%,0%
SCHOOL FOR ENVIRONMENTAL CITIZENSHIP,40.855211,-73.903264,"125 E 181ST ST BRONX, NY 10453",BRONX,10453,1%,15%,83%,98%,1%
P.S. 396,40.854367,-73.913024,"1930 ANDREWS AVE BRONX, NY 10453",BRONX,10453,0%,22%,76%,98%,2%
P.S. 068 BRONX,40.891483,-73.838736,"4011 MONTICELLO AVE BRONX, NY 10466",BRONX,10466,2%,77%,19%,95%,1%
P.S. 105 SEN ABRAHAM BERNSTEIN,40.852767,-73.866401,"725 BRADY AVE BRONX, NY 10462",BRONX,10462,8%,11%,66%,77%,13%
P.S. 106 PARKCHESTER,40.837105,-73.85484,"2120 ST RAYMOND'S AVE BRONX, NY 10462",BRONX,10462,34%,26%,35%,61%,4%
ENTRADA ACADEMY,40.822084,-73.894038,"977 FOX ST BRONX, NY 10459",BRONX,10459,2%,16%,80%,96%,1%
P.S. 084 JOSE DE DIEGO,40.714822,-73.963516,"250 BERRY ST BROOKLYN, NY 11211",BROOKLYN,11211,3%,3%,62%,65%,27%
P.S./I.S. 157 THE BENJAMIN FRANKLIN HEALTH & SCIENCE ACADEMY,40.695397,-73.960005,"850 KENT AVE BROOKLYN, NY 11205",BROOKLYN,11205,0%,17%,81%,98%,2%
P.S. 770 NEW AMERICAN ACADEMY,40.663966,-73.927858,"60 E 94TH ST BROOKLYN, NY 11212",BROOKLYN,11212,1%,65%,8%,73%,16%
EAST FLATBUSH COMMUNITY RESEARCH SCHOOL,40.658685,-73.928682,"905 WINTHROP ST BROOKLYN, NY 11203",BROOKLYN,11203,2%,89%,2%,91%,2%
MIDDLE SCHOOL OF MARKETING AND LEGAL STUDIES,40.658685,-73.928682,"905 WINTHROP ST BROOKLYN, NY 11203",BROOKLYN,11203,2%,89%,7%,96%,2%
P.S. 346 ABE STARK,40.646745,-73.881849,"1400 PENNSYLVANIA AVE BROOKLYN, NY 11239",BROOKLYN,11239,6%,61%,24%,85%,6%
P.S. 179 KENSINGTON,40.64022,-73.977267,"202 AVE C BROOKLYN, NY 11218",BROOKLYN,11218,56%,3%,25%,28%,15%
I.S. 303 HERBERT S. EISENBERG,40.58241,-73.972436,"501 WEST AVE BROOKLYN, NY 11224",BROOKLYN,11224,21%,12%,34%,46%,33%
P.S. 109,40.636004,-73.933149,"1001 E 45TH ST BROOKLYN, NY 11210",BROOKLYN,11210,2%,80%,15%,95%,3%
EAGLE ACADEMY FOR YOUNG MEN II,40.678113,-73.915211,"1137 HERKIMER ST BROOKLYN, NY 11233",BROOKLYN,11233,1%,90%,8%,97%,1%
P.S. 123,40.678902,-73.795555,"145-01 119TH AVE SOUTH OZONE PARK, NY 11436",SOUTH OZONE PARK,11436,12%,61%,19%,81%,2%
J.H.S. 210 ELIZABETH BLACKWELL,40.684802,-73.847569,"93-11 101ST AVE OZONE PARK, NY 11416",OZONE PARK,11416,28%,6%,61%,67%,3%
P.S. 054 HILLSIDE,40.702681,-73.824185,"86-02 127TH ST RICHMOND HILL, NY 11418",RICHMOND HILL,11418,34%,9%,50%,59%,2%
P.S. 095 EASTWOOD,40.710718,-73.783055,"179-01 90TH AVE JAMAICA, NY 11432",JAMAICA,11432,39%,11%,43%,54%,2%
THE EAGLE ACADEMY FOR YOUNG MEN OF STATEN ISLAND,40.620483,-74.080771,"101 WARREN ST STATEN ISLAND, NY 10304",STATEN ISLAND,10304,9%,52%,31%,83%,7%
P.S. /I.S. 384 FRANCES E. CARTER,40.68977,-73.904832,"242 COOPER ST BROOKLYN, NY 11207",BROOKLYN,11207,2%,12%,85%,97%,1%
DR. RICHARD IZQUIERDO HEALTH AND SCIENCE CHARTER SCHOOL,40.827387,-73.900529,"800 HOME ST-RM 205 BRONX, NY 10456",BRONX,10456,1%,32%,65%,97%,1%
P.S. 075 EMILY DICKINSON,40.79511,-73.973988,"735 WEST END AVE NEW YORK, NY 10025",NEW YORK,10025,2%,23%,56%,80%,16%
FREDERICK DOUGLASS ACADEMY,40.824398,-73.936545,"2581 7TH AVE NEW YORK, NY 10039",NEW YORK,10039,1%,71%,23%,94%,2%
P.S. 152 DYCKMAN VALLEY,40.860052,-73.927601,"93 NAGLE AVE NEW YORK, NY 10040",NEW YORK,10040,0%,2%,96%,98%,1%
P.S. 277,40.813307,-73.913837,"519 ST ANNS AVE BRONX, NY 10454",BRONX,10454,0%,23%,74%,97%,1%
P.S. X014 SENATOR JOHN CALANDRA,40.835535,-73.825861,"3041 BRUCKNER BLVD BRONX, NY 10461",BRONX,10461,4%,6%,65%,71%,24%
P.S. 069 JOURNEY PREP SCHOOL,40.816837,-73.860541,"560 THERIOT AVE BRONX, NY 10473",BRONX,10473,2%,16%,80%,96%,1%
P.S. 071 ROSE E. SCALA,40.845595,-73.829638,"3040 ROBERTS AVE BRONX, NY 10461",BRONX,10461,7%,4%,62%,66%,26%
P.S./M.S. 280 MOSHOLU PARKWAY,40.877179,-73.881546,"3202 STEUBEN AVE BRONX, NY 10467",BRONX,10467,11%,9%,74%,83%,5%
IN-TECH ACADEMY (M.S. / HIGH SCHOOL 368),40.87956,-73.909674,"2975 TIBBETTS AVE BRONX, NY 10463",BRONX,10463,4%,10%,82%,91%,4%
P.S. 089 BRONX,40.862563,-73.859202,"980 MACE AVE BRONX, NY 10469",BRONX,10469,7%,22%,54%,76%,17%
CORNERSTONE ACADEMY FOR SOCIAL ACTION MIDDLE SCHOOL (CASA),40.883064,-73.830908,"3441 STEENWICK AVE BRONX, NY 10475",BRONX,10475,0%,67%,29%,97%,2%
MOTT HALL V,40.831694,-73.877464,"1551 E 172ND ST BRONX, NY 10472",BRONX,10472,4%,18%,76%,94%,1%
FORT GREENE PREPARATORY ACADEMY,40.694425,-73.971627,"100 CLERMONT AVE BROOKLYN, NY 11205",BROOKLYN,11205,2%,65%,28%,93%,4%
P.S. 017 HENRY D. WOODWORTH,40.715274,-73.957057,"208 N 5TH ST BROOKLYN, NY 11211",BROOKLYN,11211,2%,7%,80%,87%,11%
P.S. 250 GEORGE H. LINDSAY,40.70674,-73.945664,"108 MONTROSE AVE BROOKLYN, NY 11206",BROOKLYN,11206,14%,12%,73%,84%,2%
ELIJAH STROUD MIDDLE SCHOOL,40.674551,-73.960867,"750 CLASSON AVE BROOKLYN, NY 11238",BROOKLYN,11238,2%,83%,14%,96%,2%
P.S. 276 LOUIS MARSHALL,40.633955,-73.908254,"1070 E 83RD ST BROOKLYN, NY 11236",BROOKLYN,11236,1%,91%,5%,96%,1%
P.S. 214 MICHAEL FRIEDSAM,40.676324,-73.863062,"2944 PITKIN AVE BROOKLYN, NY 11208",BROOKLYN,11208,51%,13%,33%,46%,2%
J.H.S. 078 ROY H. MANN,40.620767,-73.912988,"1420 E 68TH ST BROOKLYN, NY 11234",BROOKLYN,11234,5%,73%,10%,83%,11%
SCHOOL OF SCIENCE & TECHNOLOGY,40.632709,-73.95457,"725 E 23RD ST BROOKLYN, NY 11210",BROOKLYN,11210,5%,64%,26%,90%,3%
P.S. 071 FOREST,40.7114,-73.904763,"62-85 FOREST AVE RIDGEWOOD, NY 11385",RIDGEWOOD,11385,3%,1%,58%,59%,37%
I.S. 077,40.699269,-73.901988,"976 SENECA AVE RIDGEWOOD, NY 11385",RIDGEWOOD,11385,10%,3%,76%,79%,11%
P.S. 091 RICHARD ARKWRIGHT,40.703479,-73.883974,"68-10 CENTRAL AVE GLENDALE, NY 11385",GLENDALE,11385,4%,3%,49%,52%,44%
P.S. 223 LYNDON B. JOHNSON,40.674555,-73.790212,"125-20 SUTPHIN BLVD JAMAICA, NY 11436",JAMAICA,11436,8%,67%,16%,83%,1%
P.S. 055 MAURE,40.6936,-73.816147,"131-10 97TH AVE RICHMOND HILL, NY 11418",RICHMOND HILL,11418,53%,9%,23%,33%,1%
P.S. 80 THE THURGOOD MARSHALL MAGNET SCHOOL OF MULTIMEDIA AND COMMUNICATION,40.673264,-73.769014,"171-05 137TH AVE JAMAICA, NY 11434",JAMAICA,11434,2%,86%,9%,94%,1%
P.S. 117 J. KELD / BRIARWOOD SCHOOL,40.710231,-73.813057,"85-15 143RD ST JAMAICA, NY 11435",JAMAICA,11435,37%,10%,33%,43%,16%
THE JERMAINE L. GREEN STEM INSTITUTE OF QUEENS,40.679787,-73.774018,"126-10 BEDELL ST JAMAICA, NY 11434",JAMAICA,11434,2%,90%,6%,96%,0%
P.S. 015 JACKIE ROBINSON,40.685998,-73.756807,"121-15 LUCAS ST SPRINGFIELD GARDENS, NY 11413",SPRINGFIELD GARDENS,11413,1%,94%,5%,99%,0%
I.S. 034 TOTTENVILLE,40.507803,-74.243221,"528 ACADEMY AVE STATEN ISLAND, NY 10307",STATEN ISLAND,10307,4%,0%,11%,11%,85%
THE OPPORTUNITY CHARTER SCHOOL,40.801651,-73.955295,"240 W 113TH ST-4TH FL NEW YORK, NY 10026",NEW YORK,10026,1%,56%,42%,98%,0%
ACADEMY OF THE CITY CHARTER SCHOOL,40.75721,-73.902515,"31-29 60TH ST WOODSIDE, NY 11377",WOODSIDE,11377,21%,12%,51%,63%,14%
BRONX CHARTER SCHOOL FOR THE ARTS,40.821798,-73.886463,"950 LONGFELLOW AVE BRONX, NY 10474",BRONX,10474,1%,28%,67%,96%,2%
SOUTH BRONX PREPARATORY: A COLLEGE BOARD SCHOOL,40.813507,-73.920477,"360 E 145TH ST BRONX, NY 10454",BRONX,10454,1%,24%,72%,96%,2%
HOSTOS-LINCOLN ACADEMY OF SCIENCE,40.814702,-73.912036,"600 ST ANNS AVE BRONX, NY 10455",BRONX,10455,3%,18%,76%,94%,1%
THE DR. EMMETT W. BASSETT SCHOOL,40.828493,-73.856571,"1075 PUGSLEY AVE BRONX, NY 10472",BRONX,10472,31%,9%,51%,60%,7%
COMPREHENSIVE MODEL SCHOOL PROJECT M.S. 327,40.842811,-73.916384,"1501 JEROME AVE BRONX, NY 10452",BRONX,10452,0%,22%,77%,99%,1%
P.S. 051 BRONX NEW SCHOOL,40.850632,-73.88653,"695 E 182ND ST BRONX, NY 10457",BRONX,10457,3%,37%,59%,96%,2%
P.S. 310 MARBLE HILL,40.872481,-73.905299,"260 W KINGSBRIDGE RD BRONX, NY 10463",BRONX,10463,1%,9%,85%,95%,3%
BAYCHESTER ACADEMY,40.880961,-73.839642,"3500 EDSON AVE BRONX, NY 10466",BRONX,10466,1%,72%,21%,93%,2%
I.S. 181 PABLO CASALS,40.874988,-73.832178,"800 BAYCHESTER AVE BRONX, NY 10475",BRONX,10475,5%,63%,26%,89%,4%
M.S. 061 DR. GLADSTONE H. ATWELL,40.663676,-73.949034,"400 EMPIRE BLVD BROOKLYN, NY 11225",BROOKLYN,11225,1%,84%,10%,94%,1%
I.S. 340,40.67627,-73.969722,"227 STERLING PL BROOKLYN, NY 11238",BROOKLYN,11238,2%,83%,13%,96%,1%
P.S. 208 ELSA EBELING,40.642701,-73.9309,"4801 AVE D BROOKLYN, NY 11203",BROOKLYN,11203,1%,93%,3%,97%,2%
I.S. 211 JOHN WILSON,40.643163,-73.895658,"1001 E 100TH ST BROOKLYN, NY 11236",BROOKLYN,11236,1%,87%,11%,98%,1%
P.S. 268 EMMA LAZARUS,40.657324,-73.927558,"133 E 53RD ST BROOKLYN, NY 11203",BROOKLYN,11203,0%,94%,4%,98%,2%
URBAN ASSEMBLY SCHOOL FOR CRIMINAL JUSTICE,40.634787,-73.981631,"4200 16TH AVE BROOKLYN, NY 11204",BROOKLYN,11204,47%,21%,19%,40%,12%
I.S. 096 SETH LOW,40.608043,-73.984972,"99 AVE P BROOKLYN, NY 11204",BROOKLYN,11204,33%,11%,28%,38%,27%
KINGSBOROUGH EARLY COLLEGE SCHOOL,40.593624,-73.986144,"2630 BENSON AVE BROOKLYN, NY 11214",BROOKLYN,11214,8%,24%,27%,51%,40%
P.S. 088 SENECA,40.7041,-73.89641,"60-85 CATALPA AVE RIDGEWOOD, NY 11385",RIDGEWOOD,11385,6%,2%,52%,54%,40%
J.H.S. 226 VIRGIL I. GRISSOM,40.675063,-73.816692,"121-10 ROCKAWAY BLVD SOUTH OZONE PARK, NY 11420",SOUTH OZONE PARK,11420,24%,39%,16%,55%,1%
CYNTHIA JENKINS SCHOOL,40.676251,-73.758597,"179-37 137TH AVE JAMAICA, NY 11434",JAMAICA,11434,2%,90%,7%,97%,0%
P.S. 136 ROY WILKINS,40.698936,-73.752691,"201-15 115TH AVE SAINT ALBANS, NY 11412",SAINT ALBANS,11412,1%,90%,6%,96%,1%
I.S. 238 - SUSAN B. ANTHONY ACADEMY,40.712772,-73.780173,"88-15 182ND ST HOLLIS, NY 11423",HOLLIS,11423,27%,39%,28%,67%,2%
I.S. 204 OLIVER W. HOLMES,40.756628,-73.932648,"36-41 28TH ST LONG ISLAND CITY, NY 11106",LONG ISLAND CITY,11106,23%,18%,53%,71%,6%
P.S. 045 JOHN TYLER,40.628306,-74.107516,"58 LAWRENCE AVE STATEN ISLAND, NY 10310",STATEN ISLAND,10310,5%,17%,47%,64%,27%
P.S. 116 ELIZABETH L FARRELL,40.698057,-73.916588,"515 KNICKERBOCKER AVE BROOKLYN, NY 11237",BROOKLYN,11237,2%,4%,94%,98%,0%
UNITY PREP CHARTER SCHOOL,40.686208,-73.940924,"432 MONROE ST BROOKLYN, NY 11221",BROOKLYN,11221,2%,78%,17%,95%,1%
P.S. 020 ANNA SILVER,40.721274,-73.986315,"166 ESSEX ST NEW YORK, NY 10002",NEW YORK,10002,35%,8%,49%,57%,4%
P.S. 008 LUIS BELLIARD,40.839384,-73.936783,"465 W 167TH ST NEW YORK, NY 10032",NEW YORK,10032,0%,4%,96%,99%,1%
P.S. 028 WRIGHT BROTHERS,40.831655,-73.942079,"475 W 155TH ST NEW YORK, NY 10032",NEW YORK,10032,1%,12%,84%,95%,4%
COMMUNITY HEALTH ACADEMY OF THE HEIGHTS,40.833487,-73.942446,"504 W 158TH ST NEW YORK, NY 10033",NEW YORK,10033,1%,7%,91%,98%,1%
THE SCHOOL FOR INQUIRY AND SOCIAL JUSTICE,40.824884,-73.873517,"1025 MORRISON AVE BRONX, NY 10472",BRONX,10472,4%,28%,68%,96%,1%
P.S. 236 LANGSTON HUGHES,40.848826,-73.909699,"1871 WALTON AVE BRONX, NY 10453",BRONX,10453,0%,29%,68%,98%,2%
THE HIGHBRIDGE GREEN SCHOOL,40.838201,-73.928084,"200 W 167TH ST BRONX, NY 10452",BRONX,10452,1%,25%,73%,98%,1%
P.S. 086 KINGSBRIDGE HEIGHTS,40.869847,-73.898263,"2756 RESERVOIR AVE BRONX, NY 10468",BRONX,10468,4%,8%,86%,94%,1%
THE BRONX SCHOOL OF YOUNG LEADERS,40.851349,-73.910712,"40 W TREMONT ST BRONX, NY 10453",BRONX,10453,1%,24%,74%,98%,1%
"ELEMENTARY SCHOOL FOR MATH, SCIENCE, AND TECHNOLOGY",40.855211,-73.903264,"125 E 181ST ST BRONX, NY 10453",BRONX,10453,0%,24%,75%,99%,0%
P.S. 097 BRONX,40.863072,-73.846947,"1375 MACE AVE BRONX, NY 10469",BRONX,10469,17%,28%,36%,65%,16%
FANNIE LOU HAMER MIDDLE SCHOOL,40.831394,-73.886584,"1001 JENNINGS ST BRONX, NY 10460",BRONX,10460,1%,26%,71%,97%,1%
P.S. 120 CARLOS TAPIA,40.700657,-73.937693,"18 BEAVER ST BROOKLYN, NY 11206",BROOKLYN,11206,2%,17%,80%,96%,1%
PARK SLOPE COLLEGIATE,40.669302,-73.97867,"237 7TH AVE BROOKLYN, NY 11215",BROOKLYN,11215,7%,39%,36%,75%,14%
P.S. 161 THE CROWN,40.665905,-73.9492,"330 CROWN ST BROOKLYN, NY 11225",BROOKLYN,11225,8%,78%,11%,89%,2%
P.S. 241 EMMA L. JOHNSTON,40.668884,-73.960541,"976 PRESIDENT ST BROOKLYN, NY 11225",BROOKLYN,11225,0%,86%,10%,96%,2%
P.S. 052 SHEEPSHEAD BAY,40.587404,-73.940251,"2675 E 29TH ST BROOKLYN, NY 11235",BROOKLYN,11235,16%,14%,15%,29%,53%
P.S. K315,40.632619,-73.954263,"2310 GLENWOOD RD BROOKLYN, NY 11210",BROOKLYN,11210,9%,62%,25%,87%,3%
P.S. 068 CAMBRIDGE,40.696839,-73.897308,"59-09 ST FELIX AVE RIDGEWOOD, NY 11385",RIDGEWOOD,11385,4%,3%,83%,86%,9%
P.S. 063 OLD SOUTH,40.676903,-73.84656,"90-15 SUTTER AVE OZONE PARK, NY 11417",OZONE PARK,11417,31%,5%,51%,56%,8%
P.S. 253,40.607296,-73.748812,"1307 CENTRAL AVE FAR ROCKAWAY, NY 11691",FAR ROCKAWAY,11691,2%,35%,58%,93%,3%
ACADEMY OF MEDICAL TECHNOLOGY: A COLLEGE BOARD SCHOOL,40.601532,-73.763979,"8-21 BAY 25TH ST FAR ROCKAWAY, NY 11691",FAR ROCKAWAY,11691,8%,43%,42%,85%,4%
WAVE PREPARATORY ELEMENTARY SCHOOL,40.599704,-73.758355,"535 BRIAR PL FAR ROCKAWAY, NY 11691",FAR ROCKAWAY,11691,1%,42%,54%,96%,1%
I.S. 059 SPRINGFIELD GARDENS,40.681888,-73.753044,"132-55 RIDGEDALE ST SPRINGFIELD GARDENS, NY 11413",SPRINGFIELD GARDENS,11413,1%,91%,5%,96%,1%
P.S. 017 HENRY DAVID THOREAU,40.768259,-73.922754,"28-37 29TH ST LONG ISLAND CITY, NY 11102",LONG ISLAND CITY,11102,19%,12%,55%,67%,13%
P.S. 112 DUTCH KILLS,40.757217,-73.933922,"25-05 37TH AVE LONG ISLAND CITY, NY 11101",LONG ISLAND CITY,11101,28%,20%,43%,64%,7%
ALBERT SHANKER SCHOOL FOR VISUAL AND PERFORMING ARTS,40.766101,-73.929913,"31-51 21ST ST LONG ISLAND CITY, NY 11106",LONG ISLAND CITY,11106,25%,15%,49%,64%,10%
P.S. 127 AEROSPACE SCIENCE MAGNET SCHOOL,40.764979,-73.871196,"98-01 25TH AVE EAST ELMHURST, NY 11369",EAST ELMHURST,11369,12%,13%,74%,86%,2%
I.S. R002 GEORGE L. EGBERT,40.577094,-74.10015,"333 MIDLAND AVE STATEN ISLAND, NY 10306",STATEN ISLAND,10306,11%,6%,29%,34%,54%
P.S. 013 M. L. LINDEMEYER,40.613146,-74.06915,"191 VERMONT AVE STATEN ISLAND, NY 10305",STATEN ISLAND,10305,15%,16%,44%,60%,22%
P.S. 21 MARGARET EMERY-ELM PARK,40.631307,-74.144611,"168 HOOKER PL STATEN ISLAND, NY 10302",STATEN ISLAND,10302,2%,24%,58%,83%,15%
MOTT HALL CHARTER SCHOOL,40.830895,-73.902386,"1260 FRANKLIN AVE BRONX, NY 10456",BRONX,10456,0%,40%,58%,98%,0%
ACADEMIC LEADERSHIP CHARTER SCHOOL,40.807731,-73.912768,"677 E 141ST ST BRONX, NY 10454",BRONX,10454,0%,46%,52%,98%,1%
P.S. 198 ISADOR E. IDA STRAUS,40.785014,-73.950031,"1700 3RD AVE NEW YORK, NY 10128",NEW YORK,10128,16%,10%,27%,37%,45%
CITY KNOLL MIDDLE SCHOOL,40.753389,-73.997896,"425 W 33RD ST NEW YORK, NY 10001",NEW YORK,10001,10%,20%,47%,67%,20%
P.S. 180 HUGO NEWMAN,40.807609,-73.955839,"370 W 120TH ST NEW YORK, NY 10027",NEW YORK,10027,1%,57%,30%,87%,8%
P.S. 171 PATRICK HENRY,40.792304,-73.951449,"19 E 103RD ST NEW YORK, NY 10029",NEW YORK,10029,5%,25%,63%,89%,4%
P.S. 315 LAB SCHOOL,40.857969,-73.903757,"2246 JEROME AVE BRONX, NY 10453",BRONX,10453,1%,16%,82%,98%,1%
KAPPA III,40.845682,-73.886532,"2055 MAPES AVE BRONX, NY 10460",BRONX,10460,2%,30%,65%,95%,2%
P.S. 380 JOHN WAYNE ELEMENTARY,40.701894,-73.953459,"370 MARCY AVE BROOKLYN, NY 11206",BROOKLYN,11206,1%,19%,74%,92%,7%
I.S. 136 CHARLES O. DEWEY,40.652095,-74.007424,"4004 4TH AVE BROOKLYN, NY 11232",BROOKLYN,11232,6%,3%,84%,87%,7%
P.S. 065,40.686902,-73.878276,"696 JAMAICA AVE BROOKLYN, NY 11208",BROOKLYN,11208,2%,11%,82%,92%,0%
P.S. 095 THE GRAVESEND,40.595711,-73.975173,"345 VAN SICKLEN ST BROOKLYN, NY 11223",BROOKLYN,11223,29%,9%,39%,48%,22%
P.S. 215 MORRIS H. WEISS,40.602465,-73.970072,"415 AVE S BROOKLYN, NY 11223",BROOKLYN,11223,23%,3%,26%,29%,47%
I.S. 281 JOSEPH B CAVALLARO,40.594445,-73.993819,"8787 24TH AVE BROOKLYN, NY 11214",BROOKLYN,11214,38%,7%,22%,29%,31%
P.S. 239,40.69943,-73.903833,"17-15 WEIRFIELD ST RIDGEWOOD, NY 11385",RIDGEWOOD,11385,13%,2%,75%,78%,9%
LEARNERS AND LEADERS,40.706955,-73.914959,"378 SENECA AVE GLENDALE, NY 11385",GLENDALE,11385,7%,2%,78%,81%,12%
P.S. 060 WOODHAVEN,40.691436,-73.85279,"91-02 88TH AVE WOODHAVEN, NY 11421",WOODHAVEN,11421,14%,3%,73%,76%,5%
P.S. 097 FOREST PARK,40.694215,-73.860039,"85-52 85TH ST WOODHAVEN, NY 11421",WOODHAVEN,11421,19%,2%,73%,76%,4%
J.H.S. 217 ROBERT A. VAN WYCK,40.710509,-73.811875,"85-05 144TH ST JAMAICA, NY 11435",JAMAICA,11435,37%,13%,41%,55%,6%
REDWOOD MIDDLE SCHOOL,40.675061,-73.77561,"133-25 GUY R BREWER BLVD JAMAICA, NY 11434",JAMAICA,11434,9%,77%,8%,85%,1%
P.S./M.S. 138 SUNRISE,40.659983,-73.734434,"251-11 WELLER AVE ROSEDALE, NY 11422",ROSEDALE,11422,3%,84%,8%,92%,2%
P.S. 195 WILLIAM HABERLE,40.652625,-73.735205,"253-50 149TH AVE ROSEDALE, NY 11422",ROSEDALE,11422,1%,92%,5%,97%,1%
P.S. 085 JUDGE CHARLES VALLONE,40.773009,-73.914843,"23-70 31ST ST LONG ISLAND CITY, NY 11105",LONG ISLAND CITY,11105,18%,4%,31%,35%,43%
P.S. 11 THOMAS DONGAN SCHOOL,40.590709,-74.097904,"50 JEFFERSON ST STATEN ISLAND, NY 10304",STATEN ISLAND,10304,8%,16%,40%,56%,35%
P.S. 39 FRANCIS J. MURPHY JR.,40.597613,-74.071405,"71 SAND LN STATEN ISLAND, NY 10305",STATEN ISLAND,10305,14%,5%,32%,37%,47%
BEDFORD STUYVESANT NEW BEGINNINGS CHARTER SCHOOL,40.694681,-73.937742,"82 LEWIS AVE BROOKLYN, NY 11206",BROOKLYN,11206,0%,62%,35%,98%,1%
DEMOCRACY PREP ENDURANCE CHARTER SCHOOL,40.810555,-73.948862,"250 W 127TH ST NEW YORK, NY 10027",NEW YORK,10027,0%,66%,31%,98%,1%
ICAHN CHARTER SCHOOL 2,40.845031,-73.857976,"1640 BRONXDALE AVE BRONX, NY 10462",BRONX,10462,5%,29%,62%,91%,2%
P.S. 015 ROBERTO CLEMENTE,40.721834,-73.978766,"333 E 4TH ST NEW YORK, NY 10009",NEW YORK,10009,5%,32%,60%,92%,1%
P.S. 001 ALFRED E. SMITH,40.712561,-73.997474,"8 HENRY ST NEW YORK, NY 10038",NEW YORK,10038,64%,12%,22%,34%,1%
M.S. 250 WEST SIDE COLLABORATIVE MIDDLE SCHOOL,40.79511,-73.973988,"735 W END AVE NEW YORK, NY 10025",NEW YORK,10025,2%,32%,55%,87%,9%
THE BILINGUAL BICULTURAL SCHOOL,40.79313,-73.941812,"219 E 109TH ST NEW YORK, NY 10029",NEW YORK,10029,1%,7%,91%,99%,0%
CENTRAL PARK EAST II,40.792304,-73.951449,"19 E 103 ST NEW YORK, NY 10029",NEW YORK,10029,6%,29%,31%,60%,25%
P.S. 189,40.853091,-73.927999,"2580 AMSTERDAM AVE NEW YORK, NY 10040",NEW YORK,10040,0%,1%,96%,97%,2%
M.S. 319 - MARIA TERESA,40.839408,-73.935772,"21 JUMEL PL NEW YORK, NY 10032",NEW YORK,10032,0%,5%,93%,98%,1%
WASHINGTON HEIGHTS EXPEDITIONARY LEARNING SCHOOL,40.849099,-73.931106,"511 W 182ND ST NEW YORK, NY 10033",NEW YORK,10033,1%,3%,94%,97%,2%
P.S. 204 MORRIS HEIGHTS,40.849995,-73.915226,"1780 DR M L KING JR BLVD BRONX, NY 10453",BRONX,10453,1%,29%,67%,96%,2%
P.S./I.S. 218 RAFAEL HERNANDEZ DUAL LANGUAGE MAGNET SCHOOL,40.835694,-73.919663,"1220 GERARD AVE BRONX, NY 10452",BRONX,10452,4%,5%,89%,94%,1%
EAGLE ACADEMY FOR YOUNG MEN,40.845324,-73.897392,"4143 3RD AVE BRONX, NY 10457",BRONX,10457,0%,58%,39%,97%,0%
BRONX DANCE ACADEMY SCHOOL,40.885328,-73.878058,"3617 BAINBRIDGE AVE BRONX, NY 10467",BRONX,10467,2%,21%,77%,97%,1%
P.S. 087 BRONX,40.895363,-73.845825,"1935 BUSSING AVE BRONX, NY 10466",BRONX,10466,6%,71%,16%,87%,1%
P.S. 160 WALT DISNEY,40.864136,-73.82396,"4140 HUTCHNSN RVR PKWY E BRONX, NY 10475",BRONX,10475,2%,60%,33%,93%,2%
P.S. 009 TEUNIS G. BERGEN,40.678584,-73.96634,"80 UNDERHILL AVE BROOKLYN, NY 11238",BROOKLYN,11238,7%,45%,14%,59%,28%
P.S. 257 JOHN F. HYLAN,40.702805,-73.941486,"60 COOK ST BROOKLYN, NY 11206",BROOKLYN,11206,1%,21%,76%,97%,2%
P.S. 189 THE BILINGUAL CENTER,40.665446,-73.925681,"1100 E NEW YORK AVE BROOKLYN, NY 11212",BROOKLYN,11212,2%,72%,25%,97%,0%
P.S. 316 ELIJAH STROUD,40.674551,-73.960867,"750 CLASSON AVE BROOKLYN, NY 11238",BROOKLYN,11238,0%,72%,20%,92%,6%
"SCHOOL FOR HUMAN RIGHTS, THE",40.658665,-73.943838,"600 KINGSTON AVE BROOKLYN, NY 11203",BROOKLYN,11203,1%,87%,10%,97%,0%
NEW HEIGHTS MIDDLE SCHOOL,40.662087,-73.936458,"790 E NEW YORK AVE BROOKLYN, NY 11203",BROOKLYN,11203,1%,82%,11%,93%,0%
P.S. 115 DANIEL MUCATEL SCHOOL,40.634851,-73.897895,"1500 E 92ND ST BROOKLYN, NY 11236",BROOKLYN,11236,3%,85%,8%,92%,3%
P.S. 135 SHELDON A. BROOKNER,40.653258,-73.932975,"684 LINDEN BLVD BROOKLYN, NY 11203",BROOKLYN,11203,1%,88%,7%,95%,2%
P.S. 279 HERMAN SCHREIBER,40.644044,-73.892737,"1070 E 104TH ST BROOKLYN, NY 11236",BROOKLYN,11236,0%,93%,4%,97%,1%
P.S. 177 THE MARLBORO,40.608431,-73.974412,"346 AVE P BROOKLYN, NY 11204",BROOKLYN,11204,25%,1%,33%,34%,39%
P.S. 209 MARGARET MEAD,40.58677,-73.961478,"2609 E 7TH ST BROOKLYN, NY 11235",BROOKLYN,11235,30%,4%,23%,27%,42%
P.S. 238 ANNE SULLIVAN,40.608787,-73.964587,"1633 E 8TH ST BROOKLYN, NY 11223",BROOKLYN,11223,17%,4%,56%,61%,22%
P.S. 269 NOSTRAND,40.637617,-73.947663,"1957 NOSTRAND AVE BROOKLYN, NY 11210",BROOKLYN,11210,2%,84%,11%,95%,2%
P.S./M.S. 200 - THE POMONOK SCHOOL & STAR ACADEMY,40.73106,-73.805449,"70-10 164TH ST FLUSHING, NY 11365",FLUSHING,11365,13%,23%,46%,69%,16%
P.S. 273,40.693524,-73.844578,"88-07 102ND ST RICHMOND HILL, NY 11418",RICHMOND HILL,11418,16%,9%,68%,77%,4%
P.S. Q086,40.709456,-73.803563,"87-41 PARSONS BLVD JAMAICA, NY 11432",JAMAICA,11432,50%,9%,34%,42%,4%
P.S. 001 TOTTENVILLE,40.508835,-74.244025,"58 SUMMIT ST STATEN ISLAND, NY 10307",STATEN ISLAND,10307,1%,2%,16%,18%,80%
P.S. 020 PORT RICHMOND,40.636739,-74.132576,"161 PARK AVE STATEN ISLAND, NY 10302",STATEN ISLAND,10302,1%,13%,79%,91%,6%
"I.S. 349 MATH, SCIENCE & TECH.",40.700818,-73.927587,"35 STARR ST BROOKLYN, NY 11211",BROOKLYN,11211,0%,4%,95%,99%,0%
EXCELLENCE GIRLS CHARTER SCHOOL,40.688119,-73.924441,"794 MONROE ST-3RD FL BROOKLYN, NY 11221",BROOKLYN,11221,2%,84%,11%,95%,1%
IMAGINE ME LEADERSHIP CHARTER SCHOOL,40.660065,-73.883496,"818 SCHENCK AVE BROOKLYN, NY 11207",BROOKLYN,11207,0%,87%,11%,98%,1%
GIRLS PREPARATORY CHARTER SCHOOL OF NEW YORK,40.71987,-73.977376,"442 E HOUSTON ST-RM 312 NEW YORK, NY 10002",NEW YORK,10002,2%,45%,49%,94%,2%
ICAHN CHARTER SCHOOL 6,40.837913,-73.868495,"1776 MANSION ST BRONX, NY 10457",BRONX,10457,0%,58%,40%,98%,1%
P.S. X088 - S. SILVERSTEIN LITTLE SPARROW SCHOOL,40.83702,-73.913549,"1340 SHERIDAN AVE BRONX, NY 10456",BRONX,10456,1%,31%,68%,98%,0%
YOUNG WOMEN'S LEADERSHIP SCHOOL OF THE BRONX,40.848521,-73.908447,"1865 MORRIS AVE BRONX, NY 10453",BRONX,10453,2%,39%,58%,97%,1%
P.S. 081 ROBERT J. CHRISTEN,40.903455,-73.904682,"5550 RIVERDALE AVE BRONX, NY 10471",BRONX,10471,8%,10%,49%,59%,30%
P.S. 108 PHILIP J. ABINANTI,40.854535,-73.852919,"1166 NEILL AVE BRONX, NY 10461",BRONX,10461,11%,7%,44%,50%,37%
J.H.S. 127 THE CASTLE HILL,40.838494,-73.853201,"1560 PURDY ST BRONX, NY 10462",BRONX,10462,31%,23%,41%,64%,4%
PELHAM ACADEMY OF ACADEMICS AND COMMUNITY ENGAGEMENT,40.86206,-73.864588,"2441 WALLACE AVE BRONX, NY 10467",BRONX,10467,7%,18%,64%,82%,10%
P.S. 061 FRANCISCO OLLER,40.836359,-73.89275,"1550 CROTONA PARK E BRONX, NY 10460",BRONX,10460,0%,22%,76%,99%,0%
P.S. 132 THE CONSELYEA SCHOOL,40.714793,-73.945708,"320 MANHATTAN AVE BROOKLYN, NY 11211",BROOKLYN,11211,7%,16%,42%,58%,33%
BROOKLYN SECONDARY SCHOOL FOR COLLABORATIVE STUDIES,40.679432,-74.001943,"610 HENRY ST BROOKLYN, NY 11231",BROOKLYN,11231,3%,40%,45%,85%,10%
P.S. 249 THE CATON,40.649555,-73.966506,"18 MARLBOROUGH RD BROOKLYN, NY 11226",BROOKLYN,11226,6%,39%,50%,89%,4%
ACADEMY FOR COLLEGE PREPARATION AND CAREER EXPLORATION: A COLLEGE BOARD SCHOOL,40.649588,-73.957176,"911 FLATBUSH AVE BROOKLYN, NY 11226",BROOKLYN,11226,1%,81%,15%,96%,1%
P.S. 197 - THE KINGS HIGHWAY ACADEMY,40.612571,-73.951555,"1599 E 22ND ST BROOKLYN, NY 11210",BROOKLYN,11210,9%,12%,17%,29%,59%
P.S. 203 FLOYD BENNETT SCHOOL,40.621911,-73.925723,"5101 AVE M BROOKLYN, NY 11234",BROOKLYN,11234,5%,79%,9%,89%,3%
J.H.S. 278 MARINE PARK,40.60667,-73.938716,"1925 STUART ST BROOKLYN, NY 11229",BROOKLYN,11229,9%,47%,16%,63%,27%
P.S. 056 HARRY EICHLER,40.699106,-73.835471,"86-10 114TH ST RICHMOND HILL, NY 11418",RICHMOND HILL,11418,37%,4%,43%,47%,11%
P.S. 096,40.675357,-73.808131,"130-01 ROCKAWAY BLVD SOUTH OZONE PARK, NY 11420",SOUTH OZONE PARK,11420,49%,24%,14%,38%,2%
WATERSIDE CHILDREN'S STUDIO SCHOOL,40.579602,-73.831079,"1-90 BEACH 110TH ST ROCKAWAY PARK, NY 11694",ROCKAWAY PARK,11694,4%,24%,46%,70%,22%
P.S. 082 HAMMOND,40.704103,-73.811784,"88-02 144TH ST JAMAICA, NY 11435",JAMAICA,11435,27%,6%,64%,70%,2%
P.S. 038 ROSEDALE,40.671631,-73.733976,"135-21 241ST ST ROSEDALE, NY 11422",ROSEDALE,11422,1%,89%,6%,96%,2%
THE BELLAIRE SCHOOL,40.72012,-73.757425,"207-11 89TH AVE QUEENS VILLAGE, NY 11427",QUEENS VILLAGE,11427,37%,29%,19%,49%,3%
P.S. 084 STEINWAY,40.771182,-73.906108,"22-45 41ST ST ASTORIA, NY 11105",ASTORIA,11105,9%,7%,39%,46%,43%
P.S. 052 JOHN C. THOMPSON,40.582437,-74.088696,"450 BUEL AVE STATEN ISLAND, NY 10305",STATEN ISLAND,10305,10%,1%,20%,21%,68%
I.S. 072 ROCCO LAURIE,40.59247,-74.158532,"33 FERNDALE AVE STATEN ISLAND, NY 10314",STATEN ISLAND,10314,20%,5%,24%,29%,50%
STATEN ISLAND SCHOOL OF CIVIC LEADERSHIP,40.620326,-74.164432,"280 REGIS DR STATEN ISLAND, NY 10314",STATEN ISLAND,10314,12%,21%,41%,63%,23%
P.S. 123 SUYDAM,40.703905,-73.922574,"100 IRVING AVE BROOKLYN, NY 11237",BROOKLYN,11237,4%,3%,90%,94%,1%
EXPLORE EMPOWER CHARTER SCHOOL,40.672706,-73.92893,"188 ROCHESTER AVE BROOKLYN, NY 11213",BROOKLYN,11213,1%,89%,8%,97%,1%
MANHATTAN CHARTER SCHOOL,40.71823,-73.984082,"100 ATTORNEY ST NEW YORK, NY 10002",NEW YORK,10002,3%,20%,71%,90%,3%
DEMOCRACY PREP HARLEM CHARTER SCHOOL,40.814412,-73.945122,"207 W 133RD ST NEW YORK, NY 10030",NEW YORK,10030,1%,64%,33%,97%,1%
CHALLENGE PREPARATORY CHARTER SCHOOL,40.600208,-73.763868,"710 HARTMAN LANE FAR ROCKAWAY, NY 11691",FAR ROCKAWAY,11691,2%,80%,14%,94%,3%
YORKVILLE COMMUNITY SCHOOL,40.777924,-73.947316,"421 E 88TH ST NEW YORK, NY 10128",NEW YORK,10128,7%,14%,27%,41%,47%
YOUNG WOMEN'S LEADERSHIP SCHOOL,40.792935,-73.947168,"105 E 106TH ST NEW YORK, NY 10029",NEW YORK,10029,9%,25%,60%,85%,4%
P.S. 048 P.O. MICHAEL J. BUCZEK,40.853324,-73.933497,"4360-78 BROADWAY NEW YORK, NY 10033",NEW YORK,10033,1%,1%,96%,97%,2%
THE MOTT HALL SCHOOL,40.816172,-73.952104,"71-111 CONVENT AVE NEW YORK, NY 10027",NEW YORK,10027,1%,9%,84%,93%,4%
P.S. X015 INSTITUTE FOR ENVIRONMENTAL LEARNING,40.859165,-73.909733,"2195 ANDREWS AVE BRONX, NY 10453",BRONX,10453,1%,13%,85%,98%,0%
LUISA PINEIRO FUENTES SCHOOL OF SCIENCE AND DISCOVERY,40.869145,-73.901836,"124 EAMES PL BRONX, NY 10468",BRONX,10468,8%,8%,82%,91%,1%
P.S./M.S. 194,40.835236,-73.846547,"2365 WATERBURY AVE BRONX, NY 10462",BRONX,10462,33%,8%,53%,61%,4%
P.S. 011 PURVIS J. BEHAN,40.685623,-73.965851,"419 WAVERLY AVE BROOKLYN, NY 11238",BROOKLYN,11238,3%,68%,11%,79%,12%
P.S. 133 WILLIAM A. BUTLER,40.680088,-73.980577,"610 BALTIC ST BROOKLYN, NY 11217",BROOKLYN,11217,3%,27%,32%,59%,31%
CONSELYEA PREPARATORY SCHOOL,40.715274,-73.957057,"208 N 5TH ST BROOKLYN, NY 11211",BROOKLYN,11211,3%,3%,59%,62%,35%
PARKSIDE PREPARATORY ACADEMY,40.656389,-73.951462,"655 PARKSIDE AVE BROOKLYN, NY 11226",BROOKLYN,11226,3%,81%,13%,93%,2%
SCHOOL OF THE FUTURE BROOKLYN,40.665557,-73.897641,"574 DUMONT AVE BROOKLYN, NY 11207",BROOKLYN,11207,2%,64%,33%,97%,1%
P.S. 192 - THE MAGNET SCHOOL FOR MATH AND SCIENCE INQUIRY,40.628989,-73.979862,"4715 18TH AVE BROOKLYN, NY 11204",BROOKLYN,11204,20%,2%,52%,53%,26%
I.S. 228 DAVID A. BOODY,40.600816,-73.976838,"228 AVE S BROOKLYN, NY 11223",BROOKLYN,11223,29%,8%,26%,34%,36%
BROOKLYN STUDIO SECONDARY SCHOOL,40.604847,-73.994746,"8310 21ST AVE BROOKLYN, NY 11214",BROOKLYN,11214,18%,3%,29%,33%,49%
P.S. 139 ALEXINE A. FENTY,40.641322,-73.965829,"330 RUGBY RD BROOKLYN, NY 11226",BROOKLYN,11226,17%,31%,39%,70%,9%
KAPPA V (KNOWLEDGE AND POWER PREPARATORY ACADEMY),40.655763,-73.906685,"985 ROCKAWAY AVE BROOKLYN, NY 11212",BROOKLYN,11212,1%,90%,8%,97%,1%
I.S. 093 RIDGEWOOD,40.705855,-73.902827,"66-56 FOREST AVE RIDGEWOOD, NY 11385",RIDGEWOOD,11385,10%,1%,71%,72%,17%
P.S. 029 QUEENS,40.777987,-73.842975,"125-10 23RD AVE COLLEGE POINT, NY 11356",COLLEGE POINT,11356,29%,2%,57%,59%,12%
P.S. 129 PATRICIA LARKIN,40.789929,-73.839501,"128-02 7TH AVE COLLEGE POINT, NY 11356",COLLEGE POINT,11356,31%,2%,51%,52%,15%
P.S. 090 HORACE MANN,40.696715,-73.839267,"86-50 109TH ST RICHMOND HILL, NY 11418",RICHMOND HILL,11418,35%,7%,52%,58%,5%
P.S. 161 ARTHUR ASHE SCHOOL,40.690426,-73.821065,"101-33 124TH ST JAMAICA, NY 11419",JAMAICA,11419,62%,7%,18%,24%,2%
P.S. 033 EDWARD M. FUNK,40.727164,-73.73409,"91-37 222ND ST QUEENS VILLAGE, NY 11428",QUEENS VILLAGE,11428,46%,17%,26%,43%,4%
P.S. 034 JOHN HARVARD,40.71089,-73.737967,"104-12 SPRINGFIELD BLVD QUEENS VILLAGE, NY 11428",QUEENS VILLAGE,11428,8%,74%,16%,89%,1%
JEAN NUZZI INTERMEDIATE SCHOOL,40.720412,-73.746572,"213-10 92ND AVE QUEENS VILLAGE, NY 11428",QUEENS VILLAGE,11428,33%,40%,21%,61%,4%
P.S. 132 RALPH BUNCHE,40.681992,-73.749505,"132-15 218TH ST SPRINGFIELD GARDENS, NY 11413",SPRINGFIELD GARDENS,11413,1%,93%,4%,97%,1%
P.S./I.S. 268,40.707652,-73.785219,"92-07 175TH ST JAMAICA, NY 11433",JAMAICA,11433,27%,34%,27%,61%,2%
P.S. 002 ALFRED ZIMBERG,40.7697,-73.89414,"75-10 21ST AVE JACKSON HEIGHTS, NY 11372",JACKSON HEIGHTS,11372,21%,2%,37%,39%,39%
P.S. 038 GEORGE CROMWELL,40.574938,-74.099425,"421 LINCOLN AVE STATEN ISLAND, NY 10306",STATEN ISLAND,10306,8%,2%,33%,36%,55%
P.S. 054 CHARLES W. LENG,40.602779,-74.137628,"1060 WILLOWBROOK RD STATEN ISLAND, NY 10314",STATEN ISLAND,10314,32%,6%,24%,30%,36%
SPACE SHUTTLE COLUMBIA SCHOOL,40.583066,-74.160687,"77 MARSH AVE STATEN ISLAND, NY 10314",STATEN ISLAND,10314,14%,6%,25%,31%,53%
P.S. 086 THE IRVINGTON,40.700748,-73.91766,"220 IRVING AVE BROOKLYN, NY 11237",BROOKLYN,11237,4%,1%,94%,95%,1%
EXPLORE EXCEED CHARTER SCHOOL,40.677036,-73.960074,"443 ST MARKS AVE-RM 114 BROOKLYN, NY 11238",BROOKLYN,11238,3%,78%,16%,94%,0%
KIPP AMP CHARTER SCHOOL,40.672272,-73.937164,"1224 PARK PL-4TH FL BROOKLYN, NY 11213",BROOKLYN,11213,1%,87%,9%,96%,1%
COMMUNITY PARTNERSHIP CHARTER SCHOOL,40.689626,-73.961094,"241 EMERSON PL BROOKLYN, NY 11205",BROOKLYN,11205,0%,80%,15%,95%,1%
LEADERSHIP PREPARATORY OCEAN HILL CHARTER SCHOOL,40.672333,-73.906225,"51 CHRISTOPHER AVE BROOKLYN, NY 11212",BROOKLYN,11212,0%,84%,13%,96%,1%
DREAM CHARTER SCHOOL,40.788341,-73.944095,"1991 2ND AVE NEW YORK, NY 10029",NEW YORK,10029,1%,32%,65%,97%,1%
PENINSULA PREPARATORY ACADEMY CHARTER SCHOOL,40.600739,-73.752014,"611 BEACH 19TH ST FAR ROCKAWAY, NY 11691",FAR ROCKAWAY,11691,3%,68%,23%,92%,4%
EARTH SCHOOL,40.723747,-73.981602,"600 E 6TH ST NEW YORK, NY 10009",NEW YORK,10009,7%,13%,35%,48%,37%
P.S. 051 ELIAS HOWE,40.761593,-73.99559,"525 W 44TH ST NEW YORK, NY 10036",NEW YORK,10036,24%,12%,42%,55%,20%
COMMUNITY ACTION SCHOOL - MS 258,40.791685,-73.97077,"154 W 93RD ST NEW YORK, NY 10025",NEW YORK,10025,2%,45%,43%,87%,11%
GLOBAL TECHNOLOGY PREPARATORY,40.800631,-73.939323,"160 E 120TH ST NEW YORK, NY 10035",NEW YORK,10035,3%,40%,56%,97%,1%
M.S. 324 - PATRIA MIRABAL,40.839408,-73.935772,"21 JUMEL PL NEW YORK, NY 10032",NEW YORK,10032,2%,11%,85%,95%,3%
M.S. X101 EDWARD R. BYRNE,40.827214,-73.829212,"2750 LAFAYETTE AVE BRONX, NY 10465",BRONX,10465,14%,10%,56%,66%,20%
P.S. 153 HELEN KELLER,40.873045,-73.833345,"650 BAYCHESTER AVE BRONX, NY 10475",BRONX,10475,9%,58%,25%,84%,5%
P.S. 178 - DR. SELMAN WAKSMAN,40.875146,-73.833095,"850 BAYCHESTER AVE BRONX, NY 10475",BRONX,10475,2%,64%,27%,91%,4%
P.S. 034 OLIVER H. PERRY,40.726392,-73.94984,"131 NORMAN AVE BROOKLYN, NY 11222",BROOKLYN,11222,4%,4%,19%,23%,73%
P.S. 032 SAMUEL MILLS SPROLE,40.680431,-73.991704,"317 HOYT ST BROOKLYN, NY 11231",BROOKLYN,11231,8%,22%,26%,48%,41%
P.S. 124 SILAS B. DUTCHER,40.667492,-73.990697,"515 4TH AVE BROOKLYN, NY 11215",BROOKLYN,11215,22%,6%,51%,57%,18%
P.S. 261 PHILIP LIVINGSTON,40.687121,-73.988365,"314 PACIFIC ST BROOKLYN, NY 11201",BROOKLYN,11201,5%,29%,22%,51%,39%
P.S. 200 BENSON SCHOOL,40.602902,-74.001826,"1940 BENSON AVE BROOKLYN, NY 11214",BROOKLYN,11214,34%,1%,21%,22%,43%
P.S. 153 HOMECREST,40.601174,-73.960031,"1970 HOMECREST AVE BROOKLYN, NY 11229",BROOKLYN,11229,26%,2%,33%,36%,34%
P.S. 199 FREDERICK WACHTEL,40.616567,-73.963134,"1100 ELM AVE BROOKLYN, NY 11230",BROOKLYN,11230,21%,4%,27%,31%,48%
P.S. 193 GIL HODGES,40.621852,-73.950283,"2515 AVE L BROOKLYN, NY 11210",BROOKLYN,11210,17%,47%,14%,61%,18%
P.S. 217 COLONEL DAVID MARCUS SCHOOL,40.633626,-73.966273,"1100 NEWKIRK AVE BROOKLYN, NY 11230",BROOKLYN,11230,49%,11%,19%,30%,19%
ANDRIES HUDDE,40.623798,-73.946824,"2500 NOSTRAND AVE BROOKLYN, NY 11210",BROOKLYN,11210,18%,63%,12%,74%,7%
P.S. 143 LOUIS ARMSTRONG,40.755182,-73.855476,"34-74 113TH ST CORONA, NY 11368",CORONA,11368,5%,2%,93%,94%,1%
P. S. 62 - CHESTER PARK SCHOOL,40.688366,-73.835594,"97-25 108TH ST SOUTH RICHMOND HILL, NY 11419",SOUTH RICHMOND HILL,11419,62%,3%,27%,30%,2%
P.S. 100 GLEN MORRIS,40.672256,-73.821316,"111-11 118TH ST SOUTH OZONE PARK, NY 11420",SOUTH OZONE PARK,11420,49%,8%,17%,26%,3%
NEW YORK CITY ACADEMY FOR DISCOVERY,40.69146,-73.848566,"95-16 89TH AVE WOODHAVEN, NY 11421",WOODHAVEN,11421,16%,5%,69%,74%,4%
I.S. 010 HORACE GREELEY,40.759518,-73.912499,"45-11 31ST AVE LONG ISLAND CITY, NY 11103",LONG ISLAND CITY,11103,23%,6%,52%,58%,18%
I.S. 007 ELIAS BERNSTEIN,40.52409,-74.186183,"1270 HUGUENOT AVE STATEN ISLAND, NY 10312",STATEN ISLAND,10312,4%,1%,7%,7%,88%
I.S. 024 MYRA S. BARNES,40.545793,-74.145561,"225 CLEVELAND AVE STATEN ISLAND, NY 10308",STATEN ISLAND,10308,3%,1%,12%,13%,83%
THE STEPHANIE A. VIERNO SCHOOL,40.573922,-74.10908,"216 CLAWSON ST STATEN ISLAND, NY 10306",STATEN ISLAND,10306,7%,3%,29%,32%,57%
BROOKLYN DREAMS CHARTER SCHOOL,40.632144,-73.969817,"259 PARKVILLE AVE BROOKLYN, NY 11230",BROOKLYN,11230,21%,59%,16%,75%,3%
GREAT OAKS CHARTER SCHOOL,40.719935,-73.991656,"38 DELANCEY ST-3RD FL NEW YORK, NY 10002",NEW YORK,10002,22%,24%,52%,75%,2%
HARLEM LINK CHARTER SCHOOL,40.798495,-73.949849,"20 W 112TH ST-RM 357 NEW YORK, NY 10026",NEW YORK,10026,0%,59%,36%,95%,4%
DEMOCRACY PREP CHARTER SCHOOL,40.814949,-73.945808,"222 W 134TH ST NEW YORK, NY 10030",NEW YORK,10030,1%,67%,29%,97%,1%
AMBER CHARTER SCHOOL,40.790929,-73.943909,"220 E 106TH ST NEW YORK, NY 10029",NEW YORK,10029,1%,34%,64%,98%,1%
JOHN W. LAVELLE PREPARATORY CHARTER SCHOOL,40.605428,-74.179723,"1 CORPORATE COMMONS-1 TELEPORT DR STATEN ISLAND, NY 10311",STATEN ISLAND,10311,5%,40%,38%,78%,15%
GRAND CONCOURSE CHARTER SCHOOL,40.825693,-73.838405,"925 HUTCHINSON PARKWAY BRONX, NY 10465",BRONX,10465,3%,40%,54%,94%,2%
P.S. 116 MARY LINDLEY MURRAY,40.744425,-73.977634,"210 E 33RD ST NEW YORK, NY 10016",NEW YORK,10016,20%,9%,22%,30%,44%
P.S. 084 LILLIAN WEBER,40.789382,-73.9681,"32 W 92ND ST NEW YORK, NY 10025",NEW YORK,10025,3%,13%,42%,55%,38%
CENTRAL PARK EAST I,40.793747,-73.948572,"1573 MADISON AVE NEW YORK, NY 10029",NEW YORK,10029,9%,20%,29%,49%,28%
P.S. 132 JUAN PABLO DUARTE,40.850543,-73.933933,"185 WADSWORTH AVE NEW YORK, NY 10033",NEW YORK,10033,0%,1%,98%,99%,1%
I.S. 528 BEA FULLER RODGERS SCHOOL,40.850676,-73.934697,"180 WADSWORTH AVE NEW YORK, NY 10033",NEW YORK,10033,1%,2%,97%,99%,0%
"BRONX SCHOOL FOR LAW, GOVERNMENT AND JUSTICE",40.827572,-73.918927,"244 E 163RD ST BRONX, NY 10451",BRONX,10451,1%,24%,71%,96%,1%
I.S. 318 EUGENIO MARIA DE HOSTOS,40.703215,-73.948503,"101 WALTON ST BROOKLYN, NY 11206",BROOKLYN,11206,7%,18%,62%,80%,13%
FREDERICK DOUGLASS ACADEMY VIII MIDDLE SCHOOL,40.646745,-73.881849,"1400 PENNSYLVANIA AVE BROOKLYN, NY 11239",BROOKLYN,11239,5%,72%,23%,95%,0%
P.S. 048 MAPLETON,40.621555,-73.987279,"6015 18TH AVE BROOKLYN, NY 11204",BROOKLYN,11204,47%,1%,28%,28%,22%
P.S. 100 THE CONEY ISLAND SCHOOL,40.577556,-73.970791,"2951 W 3RD ST BROOKLYN, NY 11229",BROOKLYN,11229,4%,4%,6%,10%,85%
P.S. 121 NELSON A. ROCKEFELLER,40.622876,-73.978774,"5301 20TH AVE BROOKLYN, NY 11204",BROOKLYN,11204,18%,3%,42%,45%,35%
P.S. 216 ARTURO TOSCANINI,40.590181,-73.969661,"350 AVE X BROOKLYN, NY 11223",BROOKLYN,11223,24%,5%,18%,23%,52%
P.S. 253,40.580084,-73.961946,"601 OCEANVIEW AVE BROOKLYN, NY 11235",BROOKLYN,11235,38%,0%,41%,41%,20%
P.S. 195 MANHATTAN BEACH,40.580244,-73.943592,"131 IRWIN ST BROOKLYN, NY 11235",BROOKLYN,11235,3%,3%,2%,5%,92%
I.S. 061 LEONARDO DA VINCI,40.742087,-73.862808,"98-50 50TH AVE CORONA, NY 11368",CORONA,11368,6%,3%,89%,92%,1%
P.S. 153 MASPETH ELEM,40.716288,-73.904467,"60-02 60TH LN MASPETH, NY 11378",MASPETH,11378,7%,1%,45%,46%,46%
P.S. 130,40.760072,-73.783908,"200-01 42ND AVE BAYSIDE, NY 11361",BAYSIDE,11361,53%,3%,18%,21%,23%
P.S. 165 EDITH K. BERGTRAUM,40.729597,-73.817716,"70-35 150TH ST FLUSHING, NY 11367",FLUSHING,11367,55%,12%,19%,31%,12%
P.S. 047 CHRIS GALAS,40.606725,-73.820179,"9 POWER RD BROAD CHANNEL, NY 11693",BROAD CHANNEL,11693,0%,2%,15%,17%,83%
P.S. 064 JOSEPH P. ADDABBO,40.681153,-73.857012,"82-01 101ST AVE OZONE PARK, NY 11416",OZONE PARK,11416,56%,4%,35%,40%,2%
P.S. 066 JACQUELINE KENNEDY ONASSIS,40.697913,-73.84631,"85-11 102ND ST RICHMOND HILL, NY 11418",RICHMOND HILL,11418,18%,5%,65%,69%,8%
P.S. 108 CAPTAIN VINCENT G. FOWLER,40.67922,-73.83106,"108-10 109TH AVE SOUTH OZONE PARK, NY 11420",SOUTH OZONE PARK,11420,47%,7%,41%,47%,4%
P.S. 124 OSMOND A CHURCH,40.665478,-73.811093,"129-15 150TH AVE SOUTH OZONE PARK, NY 11420",SOUTH OZONE PARK,11420,49%,22%,22%,44%,2%
P.S. 155,40.679531,-73.810685,"130-02 115TH AVE SOUTH OZONE PARK, NY 11420",SOUTH OZONE PARK,11420,33%,26%,19%,45%,2%
J.H.S. 202 ROBERT H. GODDARD,40.670886,-73.845674,"138-30 LAFAYETTE ST OZONE PARK, NY 11417",OZONE PARK,11417,34%,7%,48%,55%,8%
P.S. 232 LINDENWOOD,40.66585,-73.851027,"153-23 83RD ST HOWARD BEACH, NY 11414",HOWARD BEACH,11414,11%,9%,41%,50%,37%
P.S. 254 - THE ROSA PARKS SCHOOL,40.697177,-73.847866,"84-40 101ST ST RICHMOND HILL, NY 11418",RICHMOND HILL,11418,12%,5%,75%,80%,6%
CHANNEL VIEW SCHOOL FOR RESEARCH,40.586666,-73.823435,"100-00 BEACH CHANNEL DR ROCKAWAY PARK, NY 11694",ROCKAWAY PARK,11694,7%,49%,28%,78%,13%
P.S. 206 THE HORACE HARDING SCHOOL,40.734734,-73.860797,"61-02 98TH ST REGO PARK, NY 11374",REGO PARK,11374,18%,18%,30%,48%,31%
I.S. 192 THE LINDEN,40.706768,-73.753793,"109-89 204TH ST SAINT ALBANS, NY 11412",SAINT ALBANS,11412,3%,86%,8%,95%,1%
HUNTERS POINT COMMUNITY MIDDLE SCHOOL,40.74308,-73.959251,"1-50 51ST AVE LONG ISLAND CITY, NY 11101",LONG ISLAND CITY,11101,16%,13%,51%,63%,18%
P.S. 004 MAURICE WOLLIN,40.552373,-74.195516,"200 NEDRA LANE STATEN ISLAND, NY 10312",STATEN ISLAND,10312,5%,2%,18%,21%,72%
P.S. 030 WESTERLEIGH,40.618028,-74.133161,"200 WARDWELL AVE STATEN ISLAND, NY 10314",STATEN ISLAND,10314,6%,2%,23%,25%,66%
P.S. 35 THE CLOVE VALLEY SCHOOL,40.613578,-74.098959,"60 FOOTE AVE STATEN ISLAND, NY 10301",STATEN ISLAND,10301,6%,9%,24%,32%,57%
BEGINNING WITH CHILDREN CHARTER SCHOOL II,40.703878,-73.953472,"215 HEYWARD ST BROOKLYN, NY 11206",BROOKLYN,11206,2%,31%,65%,96%,1%
INVICTUS PREPARATORY CHARTER SCHOOL,40.670064,-73.874556,"370 FOUNTAIN AVE-3RD FL BROOKLYN, NY 11208",BROOKLYN,11208,2%,76%,19%,96%,0%
BROOKLYN EXCELSIOR CHARTER SCHOOL,40.68972,-73.925019,"856 QUINCY ST BROOKLYN, NY 11221",BROOKLYN,11221,1%,86%,12%,97%,1%
HARLEM VILLAGE ACADEMY LEADERSHIP CHARTER SCHOOL,40.799315,-73.933952,"2351 1ST AVE-4TH FL NEW YORK, NY 10035",NEW YORK,10035,0%,65%,33%,98%,1%
HARLEM CHILDREN'S ZONE PROMISE ACADEMY II CHARTER SCHOOL,40.806204,-73.94102,"35 E 125TH ST NEW YORK, NY 10035",NEW YORK,10035,0%,84%,13%,97%,0%
KIPP STAR COLLEGE PREP CHARTER SCHOOL,40.810854,-73.956339,"433 W 123RD ST-4TH FL NEW YORK, NY 10027",NEW YORK,10027,1%,56%,41%,97%,1%
STATEN ISLAND COMMUNITY CHARTER SCHOOL,40.630238,-74.081143,"309 ST PAULS AVE STATEN ISLAND, NY 10304",STATEN ISLAND,10304,2%,54%,37%,91%,5%
NEW WORLD PREPARATORY CHARTER SCHOOL,40.639517,-74.137071,"26 SHAPE AVE STATEN ISLAND, NY 10302",STATEN ISLAND,10302,2%,35%,59%,94%,3%
CHILDREN'S AID COLLEGE PREP CHARTER SCHOOL,40.850073,-73.850702,"1734 WILLIAMSBRIDGE RD BRONX, NY 10457",BRONX,10457,1%,43%,51%,94%,2%
BRONX LIGHTHOUSE CHARTER SCHOOL,40.823187,-73.897385,"1001 INTERVALE AVE BRONX, NY 10459",BRONX,10459,1%,35%,62%,97%,0%
GIRLS PREPARATORY CHARTER SCHOOL OF THE BRONX,40.815971,-73.901686,"681 KELLY ST-RM 205 BRONX, NY 10455",BRONX,10455,0%,33%,64%,97%,1%
P.S. 110 FLORENCE NIGHTINGALE,40.715293,-73.979927,"285 DELANCEY ST NEW YORK, NY 10002",NEW YORK,10002,16%,10%,43%,53%,27%
P.S. 003 CHARRETTE SCHOOL,40.732632,-74.005947,"490 HUDSON ST NEW YORK, NY 10014",NEW YORK,10014,7%,5%,12%,18%,70%
P.S. 033 CHELSEA PREP,40.748945,-74.000243,"281 9TH AVE NEW YORK, NY 10001",NEW YORK,10001,25%,12%,30%,42%,26%
INSTITUTE FOR COLLABORATIVE EDUCATION,40.732676,-73.982576,"345 E 15TH ST NEW YORK, NY 10003",NEW YORK,10003,7%,16%,16%,32%,55%
P.S. 163 ALFRED E. SMITH,40.794945,-73.968535,"163 W 97TH ST NEW YORK, NY 10025",NEW YORK,10025,6%,16%,46%,62%,27%
PAULA HEDBAVNY SCHOOL,40.871567,-73.912337,"421 W 219TH ST NEW YORK, NY 10034",NEW YORK,10034,2%,3%,77%,80%,17%
WASHINGTON HEIGHTS ACADEMY,40.865573,-73.921602,"202 SHERMAN AVE NEW YORK, NY 10034",NEW YORK,10034,2%,1%,94%,95%,2%
P.S. 304 EARLY CHILDHOOD SCHOOL,40.827214,-73.829212,"2750 LAFAYETTE AVE BRONX, NY 10465",BRONX,10465,7%,5%,59%,64%,27%
P.S. 024 SPUYTEN DUYVIL,40.887662,-73.91357,"660 W 236TH ST BRONX, NY 10463",BRONX,10463,9%,6%,42%,48%,39%
RIVERDALE / KINGSBRIDGE ACADEMY (MIDDLE SCHOOL / HIGH SCHOOL 141),40.887701,-73.913605,"660 W 237TH ST BRONX, NY 10463",BRONX,10463,7%,10%,56%,66%,26%
P.S. 175 CITY ISLAND,40.84379,-73.784691,"200 CITY ISLAND AVE BRONX, NY 10464",BRONX,10464,6%,9%,29%,38%,54%
M.S. 180 DR. DANIEL HALE WILLIAMS,40.873204,-73.832178,"700 BAYCHESTER AVE BRONX, NY 10475",BRONX,10475,3%,69%,23%,92%,3%
BRONX LATIN,40.827387,-73.900529,"800 HOME ST BRONX, NY 10456",BRONX,10456,2%,21%,77%,98%,0%
BROOKLYN ARBOR ELEMENTARY SCHOOL,40.709823,-73.954488,"325 S 3RD ST BROOKLYN, NY 11238",BROOKLYN,11238,2%,3%,67%,70%,26%
P.S. 001 THE BERGEN,40.648687,-74.011252,"309 47TH ST BROOKLYN, NY 11220",BROOKLYN,11220,6%,1%,88%,89%,4%
J.H.S. 088 PETER ROUGET,40.660494,-73.9883,"544 7TH AVE BROOKLYN, NY 11215",BROOKLYN,11215,18%,11%,60%,71%,10%
SCHOOL FOR INTERNATIONAL STUDIES,40.685159,-73.993634,"284 BALTIC ST BROOKLYN, NY 11201",BROOKLYN,11201,5%,43%,34%,77%,16%
THE SCIENCE AND MEDICINE MIDDLE SCHOOL,40.647417,-73.891766,"965 E 107TH ST BROOKLYN, NY 11236",BROOKLYN,11236,1%,92%,7%,99%,1%
P.S./I.S. 30 MARY WHITE OVINGTON,40.633733,-74.02422,"7002 4TH AVE BROOKLYN, NY 11209",BROOKLYN,11209,20%,2%,30%,31%,48%
P.S. 127 MCKINLEY PARK,40.623807,-74.018575,"7805 7TH AVE BROOKLYN, NY 11228",BROOKLYN,11228,31%,1%,22%,22%,46%
P.S. 503: THE SCHOOL OF DISCOVERY,40.641937,-74.019313,"330 59TH ST BROOKLYN, NY 11220",BROOKLYN,11220,19%,1%,76%,77%,4%
P.S. 245,40.644838,-73.962837,"249 E 17TH ST BROOKLYN, NY 11226",BROOKLYN,11226,3%,51%,43%,93%,2%
P.S. 312 BERGEN BEACH,40.622032,-73.909073,"7103 AVE T BROOKLYN, NY 11234",BROOKLYN,11234,4%,39%,11%,51%,44%
I. S. 381,40.612571,-73.951555,"1599 E 22ND ST BROOKLYN, NY 11210",BROOKLYN,11210,6%,61%,18%,79%,14%
P.S. 58 - THE SCHOOL OF HEROES,40.72851,-73.890603,"72-24 GRAND AVE MASPETH, NY 11378",MASPETH,11378,38%,2%,38%,40%,21%
P.S. 102 BAYVIEW,40.73342,-73.87775,"55-24 VAN HORN ST ELMHURST, NY 11373",ELMHURST,11373,60%,3%,33%,36%,3%
I.S. 119 THE GLENDALE,40.705198,-73.875033,"74-01 78TH AVE GLENDALE, NY 11385",GLENDALE,11385,25%,1%,30%,32%,42%
P.S. 219 PAUL KLAPPER,40.735855,-73.823583,"144-39 GRAVETT RD FLUSHING, NY 11367",FLUSHING,11367,44%,9%,32%,40%,16%
I.S. 237,40.749539,-73.821454,"46-21 COLDEN ST FLUSHING, NY 11355",FLUSHING,11355,73%,7%,17%,25%,2%
P.S. 146 HOWARD BEACH,40.659866,-73.835156,"98-01 159TH AVE HOWARD BEACH, NY 11414",HOWARD BEACH,11414,3%,2%,35%,37%,60%
P.S. 175 THE LYNN GROSS DISCOVERY SCHOOL,40.731005,-73.852189,"64-35 102ND ST REGO PARK, NY 11374",REGO PARK,11374,20%,1%,11%,13%,66%
QUEENS COLLEGIATE: A COLLEGE BOARD SCHOOL,40.713395,-73.797066,"167-01 GOTHIC DR JAMAICA, NY 11432",JAMAICA,11432,27%,51%,15%,66%,3%
QUEENS UNITED MIDDLE SCHOOL,40.672087,-73.743438,"229-02 137TH AVE SPRINGFIELD GARDENS, NY 11413",SPRINGFIELD GARDENS,11413,1%,86%,5%,91%,1%
P.S. 070,40.761734,-73.913973,"30-45 42ND ST LONG ISLAND CITY, NY 11103",LONG ISLAND CITY,11103,18%,2%,43%,45%,35%
P.S./I.S. 78Q,40.744465,-73.957666,"48-09 CENTER BLVD LONG ISLAND CITY, NY 11109",LONG ISLAND CITY,11109,18%,4%,32%,36%,40%
P.S. 032 THE GIFFORD SCHOOL,40.555229,-74.154172,"32 ELVERTON AVE STATEN ISLAND, NY 10308",STATEN ISLAND,10308,3%,1%,17%,17%,78%
P.S. 042 ELTINGVILLE,40.552214,-74.16904,"380 GENESEE AVE STATEN ISLAND, NY 10312",STATEN ISLAND,10312,5%,1%,14%,14%,80%
THE BARBARA ESSELBORN SCHOOL,40.552128,-74.137382,"330 DURANT AVE STATEN ISLAND, NY 10308",STATEN ISLAND,10308,6%,2%,13%,15%,77%
P.S. 376,40.698048,-73.920166,"194 HARMAN ST BROOKLYN, NY 11237",BROOKLYN,11237,1%,7%,90%,97%,2%
LAUNCH EXPEDITIONARY LEARNING CHARTER SCHOOL,40.675732,-73.935082,"1580 DEAN ST-3RD FL BROOKLYN, NY 11213",BROOKLYN,11213,0%,83%,15%,98%,1%
HARLEM CHILDREN'S ZONE PROMISE ACADEMY 1 CHARTER SCHOOL,40.812589,-73.948156,"245 W 129TH ST NEW YORK, NY 10027",NEW YORK,10027,0%,85%,12%,97%,0%
INWOOD ACADEMY FOR LEADERSHIP CHARTER SCHOOL,40.869008,-73.920884,"108 COOPERS ST NEW YORK, NY 10034",NEW YORK,10034,0%,6%,93%,98%,1%
THE EQUALITY CHARTER SCHOOL,40.864136,-73.82396,"4140 HUTCHINSON RIVER PKWY E BRONX, NY 10475",BRONX,10475,1%,73%,24%,97%,1%
FAMILY LIFE ACADEMY CHARTER SCHOOL,40.840277,-73.918654,"14 W 170TH ST BRONX, NY 10452",BRONX,10452,0%,20%,77%,97%,1%
TEACHERS COLLEGE COMMUNITY SCHOOL,40.812517,-73.95354,"168 MORNINGSIDE AVE NEW YORK, NY 10027",NEW YORK,10027,6%,39%,28%,67%,20%
P.S./I.S. 210 - TWENTY-FIRST CENTURY ACADEMY FOR COMMUNITY LEADERSHIP,40.830009,-73.944648,"501-503 W 152ND ST NEW YORK, NY 10031",NEW YORK,10031,1%,3%,96%,99%,0%
M.S. 223 THE LABORATORY SCHOOL OF FINANCE AND TECHNOLOGY,40.813507,-73.920477,"360 E 145TH ST BRONX, NY 10454",BRONX,10454,0%,20%,79%,99%,1%
KAPPA,40.833708,-73.903937,"3630 3RD AVE BRONX, NY 10456",BRONX,10456,6%,45%,48%,93%,0%
P.S. 031 SAMUEL F. DUPONT,40.726988,-73.954188,"75 MESEROLE AVE BROOKLYN, NY 11222",BROOKLYN,11222,8%,5%,43%,48%,42%
P.S. 110 THE MONITOR,40.72367,-73.941985,"124 MONITOR ST BROOKLYN, NY 11222",BROOKLYN,11222,5%,6%,23%,28%,64%
P.S. 131 BROOKLYN,40.640784,-73.993347,"4305 FT HAMILTON PKWY BROOKLYN, NY 11219",BROOKLYN,11219,34%,1%,55%,56%,9%
"THE BROOKLYN NEW SCHOOL, P.S. 146",40.679432,-74.001943,"610 HENRY ST BROOKLYN, NY 11231",BROOKLYN,11231,5%,20%,22%,42%,44%
P.S. 66,40.648646,-73.906851,"845 E 96TH ST BROOKLYN, NY 11236",BROOKLYN,11236,1%,88%,7%,95%,3%
J.H.S. 062 DITMAS,40.638574,-73.97124,"700 CORTELYOU RD BROOKLYN, NY 11218",BROOKLYN,11218,31%,24%,31%,55%,13%
P.S. 112 LEFFERTS PARK,40.619415,-74.000572,"7115 15TH AVE BROOKLYN, NY 11228",BROOKLYN,11228,41%,0%,31%,31%,28%
P.S. 163 BATH BEACH,40.606594,-74.007612,"109 BAY 14TH ST BROOKLYN, NY 11214",BROOKLYN,11214,29%,1%,32%,33%,38%
J.H.S. 220 JOHN J. PERSHING,40.640773,-74.000808,"4812 9TH AVE BROOKLYN, NY 11220",BROOKLYN,11220,49%,1%,44%,45%,6%
J.H.S. 223 THE MONTAUK,40.634787,-73.981631,"4200 16TH AVE BROOKLYN, NY 11204",BROOKLYN,11204,61%,4%,27%,31%,7%
J.H.S. 259 WILLIAM MCKINLEY,40.626227,-74.014758,"7301 FT HAMILTON PKWY BROOKLYN, NY 11228",BROOKLYN,11228,45%,1%,22%,23%,32%
P.S. 506: THE SCHOOL OF JOURNALISM & TECHNOLOGY,40.641937,-74.019313,"330 59TH ST BROOKLYN, NY 11220",BROOKLYN,11220,30%,1%,65%,66%,4%
P.S. 254 DAG HAMMARSKJOLD,40.590901,-73.95149,"1801 AVE Y BROOKLYN, NY 11235",BROOKLYN,11235,33%,1%,9%,11%,56%
I.S. 392,40.665297,-73.917884,"104 SUTTER AVE BROOKLYN, NY 11212",BROOKLYN,11212,5%,77%,15%,91%,1%
P.S. 014 FAIRVIEW,40.740917,-73.854302,"107-01 OTIS AVE CORONA, NY 11368",CORONA,11368,8%,3%,86%,90%,2%
I.S. 73 - THE FRANK SANSIVIERI INTERMEDIATE SCHOOL,40.728596,-73.893296,"70-02 54TH AVE MASPETH, NY 11378",MASPETH,11378,27%,1%,59%,60%,13%
P.S. 199 MAURICE A. FITZGERALD,40.739982,-73.926377,"39-20 48TH AVE LONG ISLAND CITY, NY 11104",LONG ISLAND CITY,11104,32%,1%,59%,60%,7%
P.S. 330,40.757821,-73.859123,"110-08 NORTHERN BLVD CORONA, NY 11368",CORONA,11368,9%,2%,87%,89%,1%
P.S. 107 THOMAS A DOOLEY,40.755444,-73.799406,"167-02 45TH AVE FLUSHING, NY 11358",FLUSHING,11358,51%,1%,32%,34%,14%
P.S. 154 QUEENS,40.726437,-73.807592,"75-02 162ND ST FLUSHING, NY 11366",FLUSHING,11366,55%,8%,23%,30%,13%
J.H.S. 194 WILLIAM CARR,40.78322,-73.806977,"154-60 17TH AVE WHITESTONE, NY 11357",WHITESTONE,11357,35%,2%,29%,31%,33%
P.S. 242 LEONARD P. STAVISKY EARLY CHILDHOOD SCHOOL,40.769789,-73.832019,"29-66 137TH ST FLUSHING, NY 11354",FLUSHING,11354,74%,3%,15%,18%,5%
J.H.S. 157 STEPHEN A. HALSEY,40.732287,-73.853054,"63-55 102ND ST REGO PARK, NY 11374",REGO PARK,11374,24%,10%,23%,33%,41%
P.S. 174 WILLIAM SIDNEY MOUNT,40.720572,-73.861471,"65-10 DIETERLE CRES REGO PARK, NY 11374",REGO PARK,11374,35%,4%,25%,29%,33%
J.H.S. 190 RUSSELL SAGE,40.723014,-73.851845,"68-17 AUSTIN ST FOREST HILLS, NY 11375",FOREST HILLS,11375,33%,7%,28%,35%,29%
P.S. 011 KATHRYN PHELAN,40.745517,-73.909077,"54-25 SKILLMAN AVE WOODSIDE, NY 11377",WOODSIDE,11377,38%,2%,50%,51%,9%
I.S. 141 THE STEINWAY,40.775893,-73.904564,"37-11 21ST AVE LONG ISLAND CITY, NY 11105",LONG ISLAND CITY,11105,23%,4%,38%,41%,34%
P.S. 212,40.753191,-73.8849,"34-25 82ND ST JACKSON HEIGHTS, NY 11372",JACKSON HEIGHTS,11372,26%,1%,61%,62%,11%
P.S. 6 CORPORAL ALLAN F. KIVLEHAN SCHOOL,40.510274,-74.230429,"555 PAGE AVE STATEN ISLAND, NY 10307",STATEN ISLAND,10307,3%,0%,12%,12%,83%
P.S. 56 THE LOUIS DESARIO SCHOOL,40.54196,-74.213967,"250 KRAMER AVE STATEN ISLAND, NY 10309",STATEN ISLAND,10309,4%,1%,13%,14%,81%
P.S. 65 THE ACADEMY OF INNOVATIVE LEARNING,40.633709,-74.078261,"98 GRANT ST STATEN ISLAND, NY 10301",STATEN ISLAND,10301,4%,22%,41%,63%,27%
P.S. 069 DANIEL D. TOMPKINS,40.591227,-74.15756,"144 KEATING PL STATEN ISLAND, NY 10314",STATEN ISLAND,10314,14%,3%,22%,25%,59%
I.S. 075 FRANK D. PAULO,40.544369,-74.197201,"455 HUGUENOT AVE STATEN ISLAND, NY 10312",STATEN ISLAND,10312,9%,1%,10%,11%,79%
LEADERSHIP PREP BEDFORD STUYVESANT UNCOMMON PREP CHARTER SCHOOL,40.681896,-73.945611,"141 MACON ST-1ST FL BROOKLYN, NY 11216",BROOKLYN,11216,1%,87%,9%,96%,1%
BROOKLYN SCHOLARS CHARTER SCHOOL,40.669455,-73.867298,"2635 LINDEN BLVD BROOKLYN, NY 11208",BROOKLYN,11208,6%,69%,23%,92%,0%
KIPP INFINITY CHARTER SCHOOL,40.819764,-73.95724,"625 W 133 ST-RM 308D NEW YORK, NY 10027",NEW YORK,10027,0%,30%,68%,98%,1%
ROCHDALE EARLY ADVANTAGE CHARTER SCHOOL,40.679744,-73.77818,"122-05 SMITH ST JAMAICA, NY 11434",JAMAICA,11434,1%,91%,3%,94%,1%
ICAHN CHARTER SCHOOL 3,40.856635,-73.843042,"1500 PELHAM PKWY S BRONX, NY 10461",BRONX,10461,3%,62%,31%,93%,3%
ICAHN CHARTER SCHOOL,40.839176,-73.904982,"1525 BROOK AVE BRONX, NY 10457",BRONX,10457,0%,54%,45%,99%,1%
BRONX CHARTER SCHOOL FOR BETTER LEARNING,40.888739,-73.847787,"3740 BAYCHESTER AVE ANNEX BRONX, NY 10466",BRONX,10466,2%,86%,9%,95%,1%
THE EAST VILLAGE COMMUNITY SCHOOL,40.727726,-73.978382,"610 E 12TH ST NEW YORK, NY 10009",NEW YORK,10009,9%,9%,21%,29%,55%
J.H.S. 104 SIMON BARUCH,40.735735,-73.980611,"330 E 21ST ST NEW YORK, NY 10010",NEW YORK,10010,40%,8%,21%,29%,28%
QUEST TO LEARN,40.743368,-74.002547,"351 W 18TH ST NEW YORK, NY 10011",NEW YORK,10011,11%,19%,35%,54%,29%
PROFESSOR JUAN BOSCH PUBLIC SCHOOL,40.859317,-73.928232,"12-18 ELLWOOD ST NEW YORK, NY 10040",NEW YORK,10040,1%,2%,84%,86%,12%
P.S./I.S. 187 HUDSON CLIFFS,40.856137,-73.937295,"349 CABRINI BLVD NEW YORK, NY 10040",NEW YORK,10040,2%,3%,58%,61%,34%
MOTT HALL III,40.834973,-73.900304,"580 CROTONA PARK S BRONX, NY 10456",BRONX,10456,2%,45%,53%,98%,0%
BRONX HIGH SCHOOL FOR MEDICAL SCIENCE,40.839654,-73.911386,"240 E 172ND ST BRONX, NY 10457",BRONX,10457,8%,33%,57%,90%,1%
AMPARK NEIGHBORHOOD,40.883022,-73.891672,"3961 HILLMAN AVE BRONX, NY 10463",BRONX,10463,5%,13%,60%,73%,20%
P.S. 083 DONALD HERTZ,40.849167,-73.858861,"950 RHINELANDER AVE BRONX, NY 10462",BRONX,10462,10%,9%,49%,58%,32%
P.S. 230 DORIS L. COHEN,40.645318,-73.980292,"1 ALBEMARLE RD BROOKLYN, NY 11218",BROOKLYN,11218,47%,1%,32%,33%,18%
P.S. 235 JANICE MARIE KNIGHT SCHOOL,40.654737,-73.940641,"525 LENOX RD BROOKLYN, NY 11203",BROOKLYN,11203,2%,93%,2%,95%,2%
P.S. 205 CLARION,40.614826,-73.986999,"6701 20TH AVE BROOKLYN, NY 11204",BROOKLYN,11204,56%,1%,20%,21%,23%
J.H.S. 227 EDWARD B. SHALLOW,40.621845,-73.995529,"6500 16TH AVE BROOKLYN, NY 11204",BROOKLYN,11204,60%,0%,24%,25%,16%
P.S. 226 ALFRED DE B.MASON,40.615326,-73.976944,"6006 23RD AVE BROOKLYN, NY 11204",BROOKLYN,11204,28%,2%,31%,33%,38%
P.S. 222 KATHERINE R. SNYDER,40.613814,-73.938999,"3301 QUENTIN RD BROOKLYN, NY 11234",BROOKLYN,11234,19%,15%,19%,34%,45%
A.C.E. ACADEMY FOR SCHOLARS AT THE GERALDINE FERRARO CAMPUS,40.712656,-73.908184,"55-20 METROPOLITAN AVE RIDGEWOOD, NY 11385",RIDGEWOOD,11385,20%,3%,47%,50%,27%
P.S. 193 ALFRED J. KENNEDY,40.792326,-73.809516,"152-20 11TH AVE WHITESTONE, NY 11357",WHITESTONE,11357,24%,1%,20%,21%,54%
WORLD JOURNALISM PREPARATORY: A COLLEGE BOARD SCHOOL,40.765017,-73.789689,"34-65 192ND ST FLUSHING, NY 11358",FLUSHING,11358,18%,5%,26%,31%,50%
P.S./M.S. 114 BELLE HARBOR,40.578277,-73.854294,"134-01 CRONSTON AVE ROCKAWAY PARK, NY 11694",ROCKAWAY PARK,11694,1%,3%,9%,11%,87%
P.S. 207 ROCKWOOD PARK,40.657832,-73.844039,"159-15 88TH ST HOWARD BEACH, NY 11414",HOWARD BEACH,11414,3%,2%,19%,21%,75%
HAWTREE CREEK MIDDLE SCHOOL,40.675063,-73.816692,"121-10 ROCKAWAY BLVD SOUTH OZONE PARK, NY 11420",SOUTH OZONE PARK,11420,24%,45%,21%,66%,2%
P.S. 148 QUEENS,40.758364,-73.879173,"89-02 32ND AVE EAST ELMHURST, NY 11369",EAST ELMHURST,11369,14%,0%,83%,83%,3%
P.S. 149 CHRISTA MCAULIFFE,40.755297,-73.874426,"93-11 34TH AVE JACKSON HEIGHTS, NY 11372",JACKSON HEIGHTS,11372,8%,1%,87%,88%,3%
P.S. 166 HENRY GRADSTEIN,40.757499,-73.926238,"33-09 35TH AVE LONG ISLAND CITY, NY 11106",LONG ISLAND CITY,11106,29%,5%,44%,50%,20%
P.S. 234,40.766925,-73.923054,"30-15 29TH ST ASTORIA, NY 11102",ASTORIA,11102,24%,5%,38%,44%,31%
ACADEMY FOR NEW AMERICANS,40.766708,-73.923052,"30-14 30TH ST ASTORIA, NY 11102",ASTORIA,11102,22%,1%,61%,63%,15%
P.S. 280,40.753821,-73.873937,"34-20 94TH ST JACKSON HEIGHTS, NY 11372",JACKSON HEIGHTS,11372,7%,1%,91%,91%,1%
P.S. 003 THE MARGARET GIOIOSA SCHOOL,40.520825,-74.211845,"80 S GOFF AVE STATEN ISLAND, NY 10309",STATEN ISLAND,10309,5%,0%,12%,12%,82%
P.S. 8 SHIRLEE SOLOMON,40.547645,-74.151951,"112 LINDENWOOD RD STATEN ISLAND, NY 10308",STATEN ISLAND,10308,6%,2%,13%,15%,78%
P.S. 026 THE CARTERET SCHOOL,40.59156,-74.190234,"4108 VICTORY BLVD STATEN ISLAND, NY 10314",STATEN ISLAND,10314,8%,4%,34%,39%,51%
P.S. 050 FRANK HANKINSON,40.561488,-74.124926,"200 ADELAIDE AVE STATEN ISLAND, NY 10306",STATEN ISLAND,10306,9%,3%,15%,18%,71%
P.S. 055 HENRY M. BOEHM,40.536389,-74.163422,"54 OSBORNE ST STATEN ISLAND, NY 10312",STATEN ISLAND,10312,2%,0%,11%,12%,85%
EXPLORE CHARTER SCHOOL,40.656389,-73.951462,"655 PARKSIDE AVE BROOKLYN, NY 11226",BROOKLYN,11226,0%,84%,12%,96%,0%
HARLEM PREP CHARTER SCHOOL,40.801377,-73.935082,"240 E 123RD ST-1ST FL NEW YORK, NY 10035",NEW YORK,10035,0%,58%,39%,97%,1%
HARLEM VILLAGE ACADEMY CHARTER SCHOOL,40.806558,-73.944012,"35 W 124TH ST NEW YORK, NY 10027",NEW YORK,10027,0%,80%,18%,98%,1%
BRONX ACADEMY OF PROMISE CHARTER SCHOOL,40.839576,-73.91983,"1349 INWOOD AVE BRONX, NY 10452",BRONX,10452,2%,44%,52%,96%,0%
P.S. 011 WILLIAM T. HARRIS,40.744549,-74.000737,"320 W 21ST ST NEW YORK, NY 10011",NEW YORK,10011,14%,7%,25%,32%,49%
P.S. 126 JACOB AUGUST RIIS,40.710448,-73.997001,"80 CATHERINE ST NEW YORK, NY 10038",NEW YORK,10038,59%,11%,21%,32%,8%
P.S./I.S. 217 ROOSEVELT ISLAND,40.763969,-73.948468,"645 MAIN ST ROOSEVELT ISLAND, NY 10044",ROOSEVELT ISLAND,10044,29%,16%,14%,30%,36%
HAMILTON GRANGE MIDDLE SCHOOL,40.820988,-73.952995,"500 W 138TH ST NEW YORK, NY 10031",NEW YORK,10031,1%,11%,85%,96%,3%
CITY COLLEGE ACADEMY OF THE ARTS,40.86082,-73.930066,"4600 BROADWAY NEW YORK, NY 10040",NEW YORK,10040,1%,5%,92%,97%,2%
CASTLE BRIDGE SCHOOL,40.841047,-73.938751,"560 W 169TH ST NEW YORK, NY 10032",NEW YORK,10032,2%,11%,64%,75%,21%
P.S./M.S. 11X498 - VAN NEST ACADEMY,40.845031,-73.857976,"1640 BRONXDALE AVE BRONX, NY 10462",BRONX,10462,7%,12%,65%,78%,14%
ACADEMY OF ARTS AND LETTERS,40.691059,-73.971016,"225 ADELPHI ST BROOKLYN, NY 11205",BROOKLYN,11205,7%,39%,17%,57%,31%
P.S. 024,40.652818,-74.004496,"427 38TH ST BROOKLYN, NY 11232",BROOKLYN,11232,5%,0%,91%,91%,4%
P.S. 295,40.660969,-73.989018,"330 18TH ST BROOKLYN, NY 11215",BROOKLYN,11215,11%,6%,47%,52%,32%
NEW VOICES SCHOOL OF ACADEMIC & CREATIVE ARTS,40.660969,-73.989018,"330 18TH ST BROOKLYN, NY 11215",BROOKLYN,11215,6%,13%,35%,48%,45%
BROOKLYN SCIENCE AND ENGINEERING ACADEMY,40.647918,-73.925602,"5404 TILDEN AVE BROOKLYN, NY 11203",BROOKLYN,11203,0%,95%,3%,97%,1%
P.S. 089 CYPRESS HILLS,40.677777,-73.886699,"265 WARWICK ST BROOKLYN, NY 11207",BROOKLYN,11207,1%,3%,95%,98%,0%
P.S. 102 THE BAYVIEW,40.634338,-74.028923,"211 72ND ST BROOKLYN, NY 11209",BROOKLYN,11209,15%,1%,25%,27%,56%
P.S./I.S. 104 THE FORT HAMILTON SCHOOL,40.618025,-74.028588,"9115 5TH AVE BROOKLYN, NY 11209",BROOKLYN,11209,22%,3%,25%,28%,47%
P.S. 185 WALTER KASSENBROCK,40.623635,-74.033492,"8601 RIDGE BLVD BROOKLYN, NY 11209",BROOKLYN,11209,8%,0%,16%,17%,73%
P.S. 247 BROOKLYN,40.612249,-73.987219,"7000 21ST AVE BROOKLYN, NY 11204",BROOKLYN,11204,48%,1%,14%,15%,37%
THE ACADEMY OF TALENTED SCHOLARS,40.607008,-73.986852,"50 AVE P BROOKLYN, NY 11218",BROOKLYN,11218,18%,4%,14%,18%,63%
P.S. 97 THE HIGHLAWN,40.601211,-73.98564,"1855 STILLWELL AVE BROOKLYN, NY 11223",BROOKLYN,11223,50%,1%,20%,21%,29%
P.S. 128 BENSONHURST,40.604994,-73.995134,"2075 84TH ST BROOKLYN, NY 11214",BROOKLYN,11214,30%,1%,18%,19%,51%
P.S. 119 AMERSFORT,40.626035,-73.938787,"3829 AVE K BROOKLYN, NY 11210",BROOKLYN,11210,14%,70%,13%,83%,1%
P.S. K134,40.632284,-73.973274,"4001 18TH AVE BROOKLYN, NY 11218",BROOKLYN,11218,41%,9%,13%,22%,36%
J.H.S. 234 ARTHUR W. CUNNINGHAM,40.604437,-73.955171,"1875 E 17TH ST BROOKLYN, NY 11229",BROOKLYN,11229,25%,17%,11%,28%,45%
P.S. 236 MILL BASIN,40.615756,-73.912375,"6302 AVE U BROOKLYN, NY 11234",BROOKLYN,11234,10%,23%,12%,35%,51%
I.S. 5 - THE WALTER CROWLEY INTERMEDIATE SCHOOL,40.737757,-73.887429,"50-40 JACOBUS ST ELMHURST, NY 11373",ELMHURST,11373,44%,2%,52%,54%,2%
P.S. 013 CLEMENT C. MOORE,40.73728,-73.867964,"55-01 94TH ST ELMHURST, NY 11373",ELMHURST,11373,31%,10%,56%,66%,2%
I.S. 125 THOM J. MCCANN WOODSIDE,40.741091,-73.918649,"46-02 47TH AVE WOODSIDE, NY 11377",WOODSIDE,11377,40%,1%,53%,54%,5%
P.S. 229 EMANUEL KAPLAN,40.734493,-73.897209,"67-25 51ST RD WOODSIDE, NY 11377",WOODSIDE,11377,35%,2%,39%,41%,23%
P.S. 164 QUEENS VALLEY,40.721159,-73.823164,"138-01 77TH AVE FLUSHING, NY 11367",FLUSHING,11367,29%,6%,26%,32%,38%
J.H.S. 185 EDWARD BLEEKER,40.775122,-73.8185,"147-26 25TH DR FLUSHING, NY 11354",FLUSHING,11354,55%,4%,29%,32%,12%
P.S. 214 CADWALLADER COLDEN,40.770194,-73.82762,"31-15 140TH ST FLUSHING, NY 11354",FLUSHING,11354,65%,5%,24%,30%,3%
P.S. 026 RUFUS KING,40.736575,-73.778081,"195-02 69TH AVE FLUSHING, NY 11365",FLUSHING,11365,61%,10%,16%,26%,11%
P.S. 099 KEW GARDENS,40.711486,-73.827742,"82-37 KEW GARDENS RD KEW GARDENS, NY 11415",KEW GARDENS,11415,22%,6%,40%,47%,28%
P.S. 139 REGO PARK,40.727995,-73.862551,"93-06 63RD DR REGO PARK, NY 11374",REGO PARK,11374,24%,2%,31%,33%,40%
P.S. 131 ABIGAIL ADAMS,40.716997,-73.793918,"170-45 84TH AVE JAMAICA, NY 11432",JAMAICA,11432,74%,8%,12%,20%,4%
P.S. 251 QUEENS,40.665341,-73.759335,"144-51 ARTHUR ST SPRINGFIELD GARDENS, NY 11413",SPRINGFIELD GARDENS,11413,2%,92%,3%,95%,1%
PATHWAYS COLLEGE PREPARATORY SCHOOL: A COLLEGE BOARD SCHOOL,40.706768,-73.753793,"109-89 204TH ST SAINT ALBANS, NY 11412",SAINT ALBANS,11412,4%,88%,6%,94%,1%
P.S. 150 QUEENS,40.745747,-73.92332,"40-01 43RD AVE LONG ISLAND CITY, NY 11104",LONG ISLAND CITY,11104,28%,1%,47%,48%,22%
P.S. 023 RICHMONDTOWN,40.570691,-74.133509,"30 NATICK ST STATEN ISLAND, NY 10306",STATEN ISLAND,10306,3%,1%,17%,18%,77%
P.S. 029 BARDWELL,40.613944,-74.116236,"1581 VICTORY BLVD STATEN ISLAND, NY 10314",STATEN ISLAND,10314,16%,9%,22%,30%,52%
P.S. 048 WILLIAM G. WILCOX,40.602835,-74.091981,"1050 TARGEE ST STATEN ISLAND, NY 10304",STATEN ISLAND,10304,17%,4%,18%,22%,59%
P.S. 060 ALICE AUSTEN,40.610556,-74.162328,"55 MERRILL AVE STATEN ISLAND, NY 10314",STATEN ISLAND,10314,11%,4%,26%,30%,56%
MARSH AVENUE SCHOOL FOR EXPEDITIONARY LEARNING,40.581969,-74.15936,"100 ESSEX DR STATEN ISLAND, NY 10314",STATEN ISLAND,10314,10%,7%,20%,27%,62%
THE MICHAEL J. PETRIDES SCHOOL,40.608441,-74.105262,"715 OCEAN TERR STATEN ISLAND, NY 10301",STATEN ISLAND,10301,8%,20%,22%,42%,48%
J.H.S. 383 PHILIPPA SCHUYLER,40.697892,-73.919072,"1300 GREENE AVE BROOKLYN, NY 11237",BROOKLYN,11237,5%,43%,50%,93%,1%
EXPLORE EXCEL CHARTER SCHOOL,40.642544,-73.90803,"1077 REMSEN AVE BROOKLYN, NY 11236",BROOKLYN,11236,1%,90%,5%,96%,0%
LEADERSHIP PREPARATORY BROWNSVILLE CHARTER SCHOOL,40.655763,-73.906685,"985 ROCKAWAY AVE-3RD FL BROOKLYN, NY 11212",BROOKLYN,11212,0%,84%,14%,98%,0%
LEADERSHIP PREP CANARSIE CHARTER SCHOOL (LEADERSHIP PREP CS 4),40.644044,-73.892737,"1070 E 104TH ST BROOKLYN, NY 11236",BROOKLYN,11236,1%,90%,6%,96%,1%
HEBREW LANGUAGE ACADEMY CHARTER SCHOOL,40.611413,-73.913977,"2186 MILL AVE BROOKLYN, NY 11234",BROOKLYN,11234,1%,40%,4%,44%,54%
NEW HEIGHTS ACADEMY CHARTER SCHOOL,40.828615,-73.945402,"1818 AMSTERDAM AVE NEW YORK, NY 10031",NEW YORK,10031,0%,4%,96%,100%,0%
MERRICK ACADEMY - QUEENS PUBLIC CHARTER SCHOOL,40.67619,-73.75304,"136-25 218TH ST SPRINGFIELD GARDENS, NY 11413",SPRINGFIELD GARDENS,11413,4%,89%,5%,94%,0%
OUR WORLD NEIGHBORHOOD CHARTER SCHOOL,40.755778,-73.924144,"36-12 35TH AVE ASTORIA, NY 11106",ASTORIA,11106,17%,7%,44%,50%,30%
ICAHN CHARTER SCHOOL 7,40.822513,-73.877255,"1535 STORY AVE BRONX, NY 10473",BRONX,10473,5%,48%,43%,91%,3%
ICAHN CHARTER SCHOOL 5,40.856635,-73.843042,"1500 PELHAM PKWY S BRONX, NY 10461",BRONX,10461,4%,56%,31%,87%,8%
BRONX PREPARATORY CHARTER SCHOOL,40.839046,-73.90019,"3872 3RD AVE BRONX, NY 10457",BRONX,10457,1%,50%,48%,98%,1%
KIPP ACADEMY CHARTER SCHOOL,40.816194,-73.926169,"201 E 144TH ST BRONX, NY 10451",BRONX,10451,0%,40%,58%,98%,1%
M.S. 131,40.716213,-73.993555,"100 HESTER ST NEW YORK, NY 10002",NEW YORK,10002,77%,8%,14%,22%,0%
J.H.S. 167 ROBERT F. WAGNER,40.771827,-73.95794,"220 E 76TH ST NEW YORK, NY 10021",NEW YORK,10021,28%,8%,19%,27%,42%
YORKVILLE EAST MIDDLE SCHOOL,40.770203,-73.95073,"1458 YORK AVE NEW YORK, NY 10075",NEW YORK,10075,11%,11%,30%,40%,42%
PROFESSIONAL PERFORMING ARTS HIGH SCHOOL,40.761329,-73.988669,"328 W 48TH ST NEW YORK, NY 10036",NEW YORK,10036,5%,23%,20%,43%,44%
P.S. 333 MANHATTAN SCHOOL FOR CHILDREN,40.791685,-73.97077,"154 W 93RD ST NEW YORK, NY 10025",NEW YORK,10025,7%,11%,17%,27%,62%
P.S. 452,40.781081,-73.978085,"100 W 77TH ST NEW YORK, NY 10024",NEW YORK,10024,10%,8%,13%,21%,64%
MOUNT EDEN CHILDREN'S ACADEMY,40.842811,-73.916384,"1501 JEROME AVE BRONX, NY 10452",BRONX,10452,0%,22%,78%,99%,1%
P.S. 019 JUDITH K. WEISS,40.899321,-73.867223,"4318 KATONAH AVE BRONX, NY 10470",BRONX,10470,4%,8%,28%,36%,59%
P.S. 130 THE PARKSIDE,40.648959,-73.975848,"70 OCEAN PKWY BROOKLYN, NY 11218",BROOKLYN,11218,20%,7%,27%,34%,40%
P.S. 172 BEACON SCHOOL OF EXCELLENCE,40.657598,-74.000094,"825 4TH AVE BROOKLYN, NY 11232",BROOKLYN,11232,6%,4%,77%,81%,13%
SUNSET PARK PREP,40.652095,-74.007424,"4004 4TH AVE BROOKLYN, NY 11232",BROOKLYN,11232,19%,1%,75%,76%,4%
P.S. 164 CAESAR RODNEY,40.637173,-73.985845,"4211 14TH AVE BROOKLYN, NY 11219",BROOKLYN,11219,32%,2%,50%,52%,14%
RALPH A. FABRIZIO SCHOOL,40.63037,-74.018707,"7109 6TH AVE BROOKLYN, NY 11209",BROOKLYN,11209,45%,1%,19%,20%,34%
THE SEEALL ACADEMY,40.62659,-73.989464,"5601 16TH AVE BROOKLYN, NY 11204",BROOKLYN,11204,43%,1%,28%,29%,27%
P.S. 186 DR. IRVING A GLADSTONE,40.611106,-73.994593,"7601 19TH AVE BROOKLYN, NY 11214",BROOKLYN,11214,39%,0%,27%,27%,33%
P.S. 204 VINCE LOMBARDI,40.61368,-74.006356,"8101 15TH AVE BROOKLYN, NY 11228",BROOKLYN,11228,50%,1%,19%,19%,30%
P.S. 264 BAY RIDGE ELEMENTARY SCHOOL FOR THE ARTS,40.621006,-74.029639,"371 89TH ST BROOKLYN, NY 11209",BROOKLYN,11209,12%,3%,35%,37%,50%
P.S. 206 JOSEPH F LAMB,40.597135,-73.948515,"2200 GRAVESEND NECK RD BROOKLYN, NY 11229",BROOKLYN,11229,46%,2%,11%,13%,39%
P.S. 255 BARBARA REING SCHOOL,40.604467,-73.956004,"1866 E 17TH ST BROOKLYN, NY 11229",BROOKLYN,11229,23%,3%,11%,14%,62%
P.S. 277 GERRITSEN BEACH,40.595878,-73.927963,"2529 GERRITSEN AVE BROOKLYN, NY 11229",BROOKLYN,11229,9%,3%,11%,14%,76%
P.S. Q016 THE NANCY DEBENEDITTIS SCHOOL,40.749035,-73.861247,"41-15 104TH ST CORONA, NY 11368",CORONA,11368,8%,0%,90%,91%,1%
P.S. 019 MARINO JEANTET,40.749371,-73.86745,"98-02 ROOSEVELT AVE CORONA, NY 11368",CORONA,11368,7%,1%,92%,92%,0%
P.S. 049 DOROTHY BONAWIT KOLE,40.719517,-73.875034,"63-60 80TH ST MIDDLE VILLAGE, NY 11379",MIDDLE VILLAGE,11379,16%,0%,25%,26%,57%
P.S. 81Q JEAN PAUL RICHTER,40.703852,-73.911939,"559 CYPRESS AVE GLENDALE, NY 11385",GLENDALE,11385,6%,1%,87%,89%,5%
P.S./I.S. 113 ANTHONY J. PRANZO,40.705243,-73.861935,"78-23 87TH ST GLENDALE, NY 11385",GLENDALE,11385,5%,1%,40%,41%,52%
P.S. 022 THOMAS JEFFERSON,40.761748,-73.811379,"153-33 SANFORD AVE FLUSHING, NY 11355",FLUSHING,11355,60%,0%,36%,36%,3%
P.S. 079 FRANCIS LEWIS,40.785959,-73.817349,"147-27 15TH DR WHITESTONE, NY 11357",WHITESTONE,11357,44%,1%,20%,21%,33%
P.S. 169 BAY TERRACE,40.782346,-73.77844,"18-25 212TH ST BAYSIDE, NY 11360",BAYSIDE,11360,34%,4%,20%,25%,40%
"QUEENS SCHOOL OF INQUIRY, THE",40.724191,-73.80937,"158-40 76TH RD FLUSHING, NY 11366",FLUSHING,11366,40%,17%,23%,40%,18%
BELL ACADEMY,40.782346,-73.77844,"18-25 212TH ST BAYSIDE, NY 11360",BAYSIDE,11360,34%,4%,27%,31%,34%
P.S. 186 CASTLEWOOD,40.749967,-73.721714,"252-12 72ND AVE BELLEROSE, NY 11426",BELLEROSE,11426,34%,13%,21%,34%,29%
P.S. 101 SCHOOL IN THE GARDENS,40.715537,-73.843379,"2 RUSSELL PL FOREST HILLS, NY 11375",FOREST HILLS,11375,28%,3%,15%,18%,45%
P.S. 220 EDWARD MANDEL,40.7365,-73.851845,"62-10 108TH ST FOREST HILLS, NY 11375",FOREST HILLS,11375,27%,9%,23%,31%,39%
P.S. 176 CAMBRIA HEIGHTS,40.68487,-73.729678,"120-45 235TH ST CAMBRIA HEIGHTS, NY 11411",CAMBRIA HEIGHTS,11411,5%,81%,3%,85%,0%
THE GORDON PARKS SCHOOL,40.674937,-73.736741,"233-15 MERRICK BLVD ROSEDALE, NY 11422",ROSEDALE,11422,1%,97%,2%,98%,0%
I.S. 145 JOSEPH PULITZER,40.754326,-73.887594,"33-34 80TH ST JACKSON HEIGHTS, NY 11372",JACKSON HEIGHTS,11372,8%,1%,89%,90%,2%
BROWNSVILLE ASCEND CHARTER SCHOOL,40.668975,-73.917872,"1501 PITKIN AVE BROOKLYN, NY 11212",BROOKLYN,11212,1%,87%,11%,98%,0%
NEW YORK FRENCH AMERICAN CHARTER SCHOOL,40.807539,-73.954227,"311 W 120TH ST NEW YORK, NY 10027",NEW YORK,10027,1%,65%,14%,79%,13%
HYDE LEADERSHIP CHARTER SCHOOL,40.815594,-73.885238,"730 BRYANT AVE BRONX, NY 10474",BRONX,10474,0%,34%,65%,98%,1%
BRONX GLOBAL LEARNING INSTITUTE FOR GIRLS CHARTER SCHOOL,40.818739,-73.927164,"750 CONCOURSE VILLAGE W-LOWER LEVEL BRONX, NY 10451",BRONX,10451,1%,28%,67%,95%,1%
P.S. 158 BAYARD TAYLOR,40.770203,-73.95073,"1458 YORK AVE NEW YORK, NY 10021",NEW YORK,10021,11%,4%,10%,14%,71%
BATTERY PARK CITY SCHOOL,40.706563,-74.017528,"55 BATTERY PL NEW YORK, NY 10011",NEW YORK,10011,21%,4%,11%,15%,56%
LOWER MANHATTAN COMMUNITY MIDDLE SCHOOL,40.705442,-74.012888,"26 BROADWAY-6TH FL NEW YORK, NY 10004",NEW YORK,10004,40%,9%,20%,29%,27%
P.S. 166 THE RICHARD RODGERS SCHOOL OF THE ARTS AND TECHNOLOGY,40.788883,-73.972455,"132 W 89TH ST NEW YORK, NY 10024",NEW YORK,10024,11%,6%,17%,23%,59%
MOTT HALL II,40.802678,-73.96595,"234 W 109TH ST NEW YORK, NY 10025",NEW YORK,10025,6%,26%,37%,63%,26%
INTERNATIONAL SCHOOL FOR LIBERAL ARTS,40.870295,-73.897019,"2780 RESERVOIR AVE BRONX, NY 10468",BRONX,10468,0%,0%,99%,100%,0%
P.S. 008 ROBERT FULTON,40.700728,-73.992805,"37 HICKS ST BROOKLYN, NY 11201",BROOKLYN,11201,6%,14%,11%,25%,61%
P.S. 169 SUNSET PARK,40.645814,-74.001702,"4305 7TH AVE BROOKLYN, NY 11232",BROOKLYN,11232,53%,1%,41%,42%,4%
EAST NEW YORK FAMILY ACADEMY,40.661208,-73.886779,"2057 LINDEN BLVD BROOKLYN, NY 11207",BROOKLYN,11207,2%,65%,30%,95%,1%
P.S. 229 DYKER,40.610577,-74.013301,"1400 BENSON AVE BROOKLYN, NY 11228",BROOKLYN,11228,55%,1%,11%,13%,32%
P.S. 748 BROOKLYN SCHOOL FOR GLOBAL SCHOLARS,40.606942,-74.007327,"1664 BENSON AVE BROOKLYN, NY 11214",BROOKLYN,11214,39%,0%,21%,21%,38%
I.S. 98 BAY ACADEMY,40.583765,-73.954016,"1401 EMMONS AVE BROOKLYN, NY 11235",BROOKLYN,11235,27%,3%,10%,13%,59%
P.S. 101 THE VERRAZANO,40.597535,-73.991912,"2360 BENSON AVE BROOKLYN, NY 11214",BROOKLYN,11214,53%,1%,19%,20%,27%
P.S. 021 EDWARD HART,40.774168,-73.818543,"147-36 26TH AVE FLUSHING, NY 11354",FLUSHING,11354,62%,1%,29%,30%,7%
P.S. 120 QUEENS,40.745218,-73.828746,"58-01 136TH ST FLUSHING, NY 11355",FLUSHING,11355,83%,1%,15%,15%,2%
P.S. 018 WINCHESTER,40.732107,-73.732064,"86-35 235TH CT QUEENS VILLAGE, NY 11427",QUEENS VILLAGE,11427,72%,10%,11%,20%,6%
P.S. 031 BAYSIDE,40.757631,-73.769148,"211-45 46TH RD BAYSIDE, NY 11361",BAYSIDE,11361,54%,10%,22%,31%,15%
THE JAMES J. AMBROSE SCHOOL,40.743857,-73.709297,"80-51 261ST ST FLORAL PARK, NY 11004",FLORAL PARK,11004,68%,6%,14%,20%,9%
P.S. 144 COL JEROMUS REMSEN,40.715052,-73.852943,"93-02 69TH AVE FOREST HILLS, NY 11375",FOREST HILLS,11375,36%,3%,18%,21%,35%
P.S. 122 MAMIE FAY,40.780311,-73.91658,"21-21 DITMARS BLVD ASTORIA, NY 11105",ASTORIA,11105,30%,6%,21%,27%,39%
I.S. 230,40.75264,-73.892841,"73-10 34TH AVE JACKSON HEIGHTS, NY 11372",JACKSON HEIGHTS,11372,37%,1%,56%,57%,5%
P.S. 036 J. C. DRUMGOOLE,40.543238,-74.182578,"255 IONIA AVE STATEN ISLAND, NY 10312",STATEN ISLAND,10312,6%,0%,12%,12%,81%
ALL CITY LEADERSHIP SECONDARY SCHOOL,40.697591,-73.913097,"321 PALMETTO ST BROOKLYN, NY 11237",BROOKLYN,11237,6%,11%,77%,89%,5%
BROOKLYN URBAN GARDEN CHARTER SCHOOL,40.656204,-73.982638,"500 19TH ST BROOKLYN, NY 11215",BROOKLYN,11215,7%,33%,33%,66%,23%
KIPP WASHINGTON HEIGHTS MIDDLE SCHOOL,40.839408,-73.935772,"21 JUMEL PL-RM D109 NEW YORK, NY 10032",NEW YORK,10032,0%,12%,86%,99%,1%
VOICE CHARTER SCHOOL OF NEW YORK,40.760397,-73.939713,"36-24 12TH ST LONG ISLAND CITY, NY 11106",LONG ISLAND CITY,11106,16%,11%,59%,70%,10%
TOMPKINS SQUARE MIDDLE SCHOOL,40.723747,-73.981602,"600 E 6TH ST NEW YORK, NY 10009",NEW YORK,10009,23%,16%,37%,53%,20%
P.S. 040 AUGUSTUS SAINT-GAUDENS,40.735118,-73.981697,"319 E 19TH ST NEW YORK, NY 10003",NEW YORK,10003,9%,3%,13%,16%,64%
P.S. 183 ROBERT L. STEVENSON,40.763762,-73.957759,"419 E 66TH ST NEW YORK, NY 10021",NEW YORK,10021,17%,4%,10%,14%,66%
"EAST SIDE ELEMENTARY SCHOOL, PS 267",40.763854,-73.963813,"213 E 63RD ST NEW YORK, NY 10065",NEW YORK,10065,11%,2%,7%,9%,78%
"BALLET TECH, NYC PUBLIC SCHOOL FOR DANCE",40.73854,-73.989485,"890 BROADWAY NEW YORK, NY 10003",NEW YORK,10003,36%,25%,16%,41%,19%
M.S. M247 DUAL LANGUAGE MIDDLE SCHOOL,40.789382,-73.9681,"32 W 92ND ST NEW YORK, NY 10025",NEW YORK,10025,0%,1%,99%,99%,1%
SPECIAL MUSIC SCHOOL,40.775221,-73.982997,"129 W 67TH ST NEW YORK, NY 10023",NEW YORK,10023,16%,13%,14%,28%,43%
AMISTAD DUAL LANGUAGE SCHOOL,40.866522,-73.923818,"4862 BROADWAY NEW YORK, NY 10034",NEW YORK,10034,2%,1%,91%,93%,5%
MUSCOTA,40.866522,-73.923818,"4862 BROADWAY NEW YORK, NY 10034",NEW YORK,10034,4%,3%,46%,49%,42%
"MAGNET SCHOOL OF MATH, SCIENCE AND DESIGN TECHNOLOGY",40.660884,-73.98594,"511 7TH AVE BROOKLYN, NY 11215",BROOKLYN,11215,7%,8%,31%,39%,49%
P.S. 094 THE HENRY LONGFELLOW,40.643673,-74.008715,"5010 6TH AVE BROOKLYN, NY 11220",BROOKLYN,11220,61%,1%,37%,37%,1%
THE WINDSOR TERRACE SCHOOL,40.657119,-73.976048,"1625 11TH AVE BROOKLYN, NY 11215",BROOKLYN,11215,6%,3%,19%,22%,64%
THE MATH & SCIENCE EXPLORATORY SCHOOL,40.683835,-73.980355,"345 DEAN ST BROOKLYN, NY 11217",BROOKLYN,11217,8%,17%,20%,37%,52%
J.H.S. 201 THE DYKER HEIGHTS,40.618745,-74.01331,"8010 12TH AVE BROOKLYN, NY 11228",BROOKLYN,11228,46%,0%,14%,14%,39%
MARK TWAIN I.S. 239 FOR THE GIFTED & TALENTED,40.57866,-73.992391,"2401 NEPTUNE AVE BROOKLYN, NY 11224",BROOKLYN,11224,28%,7%,5%,12%,54%
P.S. 207 ELIZABETH G. LEARY,40.613779,-73.930304,"4011 FILLMORE AVE BROOKLYN, NY 11234",BROOKLYN,11234,10%,35%,15%,49%,39%
P.S. 007 LOUIS F. SIMEONE,40.739749,-73.882575,"80-55 CORNISH AVE ELMHURST, NY 11373",ELMHURST,11373,62%,0%,35%,35%,2%
P.S. 012 JAMES B. COLGATE,40.742305,-73.89349,"42-00 72ND ST WOODSIDE, NY 11377",WOODSIDE,11377,56%,0%,39%,40%,3%
P.S. 020 JOHN BOWNE,40.758365,-73.824407,"142-30 BARCLAY AVE FLUSHING, NY 11355",FLUSHING,11355,75%,3%,19%,23%,1%
P.S. 024 ANDREW JACKSON,40.751762,-73.81778,"141-11 HOLLY AVE FLUSHING, NY 11355",FLUSHING,11355,85%,3%,10%,13%,1%
P.S. 032 STATE STREET,40.76501,-73.794319,"171-11 35TH AVE FLUSHING, NY 11358",FLUSHING,11358,66%,1%,19%,20%,12%
P.S. 163 FLUSHING HEIGHTS,40.741093,-73.808757,"159-01 59TH AVE FLUSHING, NY 11365",FLUSHING,11365,79%,3%,15%,18%,2%
P.S. 046 ALLEY POND,40.764889,-73.764926,"64-45 218TH ST BAYSIDE, NY 11361",BAYSIDE,11361,61%,5%,14%,18%,18%
P.S. 133 QUEENS,40.731728,-73.717947,"248-05 86TH AVE BELLEROSE, NY 11426",BELLEROSE,11426,64%,6%,15%,21%,12%
GOLDIE MAPLE ACADEMY,40.591349,-73.786189,"3-65 BEACH 56TH ST ARVERNE, NY 11692",ARVERNE,11692,4%,70%,18%,88%,3%
METROPOLITAN EXPEDITIONARY LEARNING SCHOOL,40.712046,-73.861195,"91-30 METROPOLITAN AVE REGO PARK, NY 11374",REGO PARK,11374,17%,18%,39%,57%,20%
YORK EARLY COLLEGE ACADEMY,40.696913,-73.786396,"108-35 167TH ST JAMAICA, NY 11433",JAMAICA,11433,29%,51%,10%,61%,1%
P.S./I.S. 295,40.72073,-73.731394,"222-14 JAMAICA AVE QUEENS VILLAGE, NY 11428",QUEENS VILLAGE,11428,38%,25%,28%,53%,5%
P.S. 069 JACKSON HEIGHTS,40.748799,-73.888464,"77-02 37TH AVE JACKSON HEIGHTS, NY 11372",JACKSON HEIGHTS,11372,50%,0%,40%,41%,8%
HELLENIC CLASSICAL CHARTER SCHOOL,40.662963,-73.992106,"646 5TH AVE BROOKLYN, NY 11215",BROOKLYN,11215,3%,26%,40%,66%,28%
BROOKLYN PROSPECT CHARTER SCHOOL,40.648155,-73.978583,"3002 FORT HAMILTON PKWY BROOKLYN, NY 11218",BROOKLYN,11218,6%,15%,34%,49%,37%
MIDDLE VILLAGE PREP CHARTER SCHOOL,40.712244,-73.887868,"6802 METROPOLITAN AVE MIDDLE VILLAGE, NY 11379",MIDDLE VILLAGE,11379,5%,2%,56%,58%,36%
P.S. 002 MEYER LONDON,40.712943,-73.991557,"122 HENRY ST NEW YORK, NY 10002",NEW YORK,10002,85%,4%,9%,13%,1%
P.S. 059 BEEKMAN HILL INTERNATIONAL,40.759213,-73.966183,"231-249 E 56TH ST NEW YORK, NY 10019",NEW YORK,10019,15%,2%,13%,15%,59%
P.S. 89,40.716867,-74.013623,"201 WARREN ST NEW YORK, NY 10282",NEW YORK,10282,16%,2%,14%,16%,62%
P.S. 234 INDEPENDENCE SCHOOL,40.716096,-74.011765,"292 GREENWICH ST NEW YORK, NY 10007",NEW YORK,10007,11%,1%,8%,10%,70%
P.S. 290 MANHATTAN NEW SCHOOL,40.775137,-73.952812,"311 E 82ND ST NEW YORK, NY 10028",NEW YORK,10028,11%,1%,9%,10%,73%
SPRUCE STREET SCHOOL,40.711057,-74.005361,"12 SPRUCE ST NEW YORK, NY 10018",NEW YORK,10018,14%,3%,12%,15%,58%
SCHOOL OF THE FUTURE HIGH SCHOOL,40.739095,-73.985349,"127 E 22ND ST NEW YORK, NY 10010",NEW YORK,10010,15%,11%,29%,40%,37%
P.S. 009 SARAH ANDERSON,40.785101,-73.973867,"100 W 84TH ST NEW YORK, NY 10024",NEW YORK,10024,9%,5%,21%,26%,59%
P.S. 087 WILLIAM SHERMAN,40.781788,-73.978008,"160 W 78TH ST NEW YORK, NY 10024",NEW YORK,10024,7%,5%,15%,20%,64%
M.S. M245 THE COMPUTER SCHOOL,40.781081,-73.978085,"100 W 77TH ST NEW YORK, NY 10024",NEW YORK,10024,6%,14%,26%,40%,50%
"SCIENCE, TECHNOLOGY AND RESEARCH EARLY COLLEGE HIGH SCHOOL AT ERASMUS",40.649588,-73.957176,"911 FLATBUSH AVE BROOKLYN, NY 11226",BROOKLYN,11226,3%,86%,8%,94%,1%
P.S. 089 ELMHURST,40.745942,-73.879623,"85-28 BRITTON AVE ELMHURST, NY 11373",ELMHURST,11373,21%,0%,77%,77%,1%
I.S. 025 ADRIEN BLOCK,40.765017,-73.789689,"34-65 192ND ST FLUSHING, NY 11358",FLUSHING,11358,50%,1%,24%,25%,24%
P.S. 041 CROCHERON,40.770056,-73.771085,"214-43 35TH AVE BAYSIDE, NY 11361",BAYSIDE,11361,45%,2%,19%,21%,31%
IRWIN ALTMAN MIDDLE SCHOOL 172,40.742067,-73.713022,"81-14 257TH ST FLORAL PARK, NY 11004",FLORAL PARK,11004,62%,10%,13%,23%,13%
P.S./ IS 178 HOLLISWOOD,40.724401,-73.777475,"189-10 RADNOR RD JAMAICA, NY 11423",JAMAICA,11423,14%,7%,10%,17%,66%
P.S. 221 THE NORTH HILLS SCHOOL,40.758641,-73.73135,"57-40 MARATHON PKWY LITTLE NECK, NY 11362",LITTLE NECK,11362,65%,3%,13%,16%,19%
"YOUNG WOMEN'S LEADERSHIP SCHOOL, QUEENS",40.708431,-73.804196,"150-91 87TH RD JAMAICA, NY 11432",JAMAICA,11432,32%,46%,14%,60%,3%
P.S./I.S. 208,40.744184,-73.727581,"74-30 COMMONWLTH BLVD BELLEROSE, NY 11426",BELLEROSE,11426,9%,75%,13%,87%,1%
P.S. 092 HARRY T. STEWART SR.,40.755511,-73.868676,"99-01 34TH AVE CORONA, NY 11368",CORONA,11368,1%,2%,96%,98%,0%
I.S. 227 LOUIS ARMSTRONG,40.757692,-73.874171,"32-02 JUNCTION BLVD EAST ELMHURST, NY 11369",EAST ELMHURST,11369,14%,10%,48%,59%,27%
"YOUNG WOMEN'S LEADERSHIP SCHOOL, ASTORIA",40.771319,-73.924184,"23-15 NEWTOWN AVE LONG ISLAND CITY, NY 11105",LONG ISLAND CITY,11105,34%,6%,43%,49%,16%
BEDFORD STUYVESANT COLLEGIATE -UNCOMMON COLLEGIATE CHARTER HIGH SCHOOL,40.687938,-73.932378,"800 GATES AVE-4TH FL BROOKLYN, NY 11221",BROOKLYN,11221,1%,77%,18%,95%,0%
BROWNSVILLE COLLEGIATE CHARTER SCHOOL,40.668635,-73.905086,"364 SACKMAN ST-4TH FL BROOKLYN, NY 11212",BROOKLYN,11212,1%,72%,18%,90%,1%
THE CULTURAL ARTS ACADEMY AT SPRING CREEK CHARTER SCHOOL,40.654135,-73.908199,"1400 LINDEN BLVD BROOKLYN, NY 11212",BROOKLYN,11212,1%,90%,7%,97%,1%
AMERICAN DREAM CHARTER SCHOOL,40.809065,-73.91752,"510 E 141ST ST-4TH FL BRONX, NY 10454",BRONX,10454,0%,7%,91%,98%,1%
EAST SIDE COMMUNITY SCHOOL,40.729153,-73.982474,"420 E 12TH ST NEW YORK, NY 10009",NEW YORK,10009,11%,21%,53%,74%,12%
P.S. 006 LILLIE D. BLAKE,40.777703,-73.960428,"45 E 81ST ST NEW YORK, NY 10028",NEW YORK,10028,13%,2%,7%,9%,75%
P.S. 150,40.718083,-74.010942,"334 GREENWICH ST NEW YORK, NY 10013",NEW YORK,10013,16%,5%,14%,19%,55%
P.S. 212 MIDTOWN WEST,40.761329,-73.988669,"328 W 48TH ST NEW YORK, NY 10036",NEW YORK,10036,10%,6%,23%,29%,48%
M.S. 255 SALK SCHOOL OF SCIENCE,40.735118,-73.981697,"319 E 19TH ST NEW YORK, NY 10003",NEW YORK,10003,19%,3%,9%,13%,63%
J.H.S. 054 BOOKER T. WASHINGTON,40.800512,-73.962802,"103 W 107TH ST NEW YORK, NY 10025",NEW YORK,10025,9%,8%,12%,20%,64%
P.S. 199 JESSIE ISADOR STRAUS,40.777766,-73.984736,"270 W 70TH ST NEW YORK, NY 10023",NEW YORK,10023,14%,2%,13%,15%,63%
TAG YOUNG SCHOLARS,40.79259,-73.942119,"240 E 109TH ST NEW YORK, NY 10029",NEW YORK,10029,34%,25%,19%,44%,15%
THURGOOD MARSHALL ACADEMY FOR LEARNING AND SOCIAL CHANGE,40.815297,-73.944304,"200-214 W 135TH ST NEW YORK, NY 10030",NEW YORK,10030,1%,74%,23%,97%,0%
MILTON FEIN SCHOOL,40.881668,-73.905862,"3201 KINGSBRIDGE AVE BRONX, NY 10463",BRONX,10463,5%,6%,79%,85%,9%
P.S. 029 JOHN M. HARRIGAN,40.686935,-73.99771,"425 HENRY ST BROOKLYN, NY 11201",BROOKLYN,11201,5%,4%,11%,15%,74%
P.S. 039 HENRY BRISTOW,40.668666,-73.982912,"417 6TH AVE BROOKLYN, NY 11215",BROOKLYN,11215,7%,6%,9%,15%,76%
P.S. 058 THE CARROLL,40.68043,-73.99566,"330 SMITH ST BROOKLYN, NY 11231",BROOKLYN,11231,4%,3%,12%,15%,72%
P.S. 160 WILLIAM T. SAMPSON,40.636935,-73.999073,"5105 FORT HAMILTON PKWY BROOKLYN, NY 11219",BROOKLYN,11219,85%,1%,10%,11%,4%
P.S. 176 OVINGTON,40.624759,-74.005074,"1225 69TH ST BROOKLYN, NY 11219",BROOKLYN,11219,63%,0%,21%,21%,15%
BROOKLYN SCHOOL OF INQUIRY,40.607008,-73.986852,"50 AVE P BROOKLYN, NY 11218",BROOKLYN,11218,18%,5%,5%,10%,71%
"SCHOOL OF MATH, SCIENCE, AND HEALTHY LIVING",40.639505,-74.020291,"6214 4TH AVE BROOKLYN, NY 11220",BROOKLYN,11220,55%,1%,39%,40%,6%
P.S. 184 FLUSHING MANOR,40.778164,-73.799841,"163-15 21ST RD WHITESTONE, NY 11357",WHITESTONE,11357,37%,0%,15%,15%,46%
J.H.S. 189 DANIEL CARTER BEARD,40.760344,-73.817909,"144-80 BARCLAY AVE FLUSHING, NY 11355",FLUSHING,11355,69%,3%,25%,28%,3%
P.S. 094 DAVID D. PORTER,40.771304,-73.738765,"41-77 LITTLE NECK PKWY LITTLE NECK, NY 11363",LITTLE NECK,11363,45%,5%,22%,27%,25%
M.S. 158 MARIE CURIE,40.756375,-73.77232,"46-35 OCEANIA ST BAYSIDE, NY 11361",BAYSIDE,11361,61%,5%,14%,19%,20%
P.S. 159,40.770092,-73.783977,"205-01 33RD AVE BAYSIDE, NY 11361",BAYSIDE,11361,52%,2%,18%,20%,27%
P.S. 173 FRESH MEADOWS,40.734087,-73.795283,"174-10 67TH AVE FLUSHING, NY 11365",FLUSHING,11365,58%,1%,11%,13%,27%
P.S. 213 THE CARL ULLMAN SCHOOL,40.747524,-73.745381,"231-02 67TH AVE BAYSIDE, NY 11361",BAYSIDE,11361,68%,6%,13%,19%,11%
J.H.S. 216 GEORGE J. RYAN,40.73726,-73.794463,"64-20 175TH ST FLUSHING, NY 11365",FLUSHING,11365,68%,6%,11%,17%,14%
P.S./I.S. 266,40.746011,-73.728385,"74-10 COMMONWEALTH BLVD BELLEROSE, NY 11426",BELLEROSE,11426,43%,14%,24%,38%,17%
SCHOLARS' ACADEMY,40.58445,-73.82517,"320 BEACH 104TH ST ROCKAWAY PARK, NY 11694",ROCKAWAY PARK,11694,21%,19%,18%,37%,41%
P.S. 196 GRAND CENTRAL PARKWAY,40.722976,-73.837726,"71-25 113TH ST FOREST HILLS, NY 11375",FOREST HILLS,11375,38%,2%,13%,15%,40%
P.S. 152 GWENDOLINE N. ALLEYNE SCHOOL,40.753093,-73.90053,"33-52 62ND ST WOODSIDE, NY 11377",WOODSIDE,11377,50%,1%,44%,45%,4%
P.S. 005 HUGUENOT,40.529697,-74.187532,"348 DEISIUS ST STATEN ISLAND, NY 10312",STATEN ISLAND,10312,1%,0%,7%,7%,91%
KINGS COLLEGIATE CHARTER SCHOOL,40.677469,-73.942071,"1485 PACIFIC ST-FL 2 BROOKLYN, NY 11212",BROOKLYN,11212,0%,97%,2%,99%,0%
BUSHWICK ASCEND CHARTER SCHOOL,40.693686,-73.90903,"751 KNICKERBOCKER AVE BROOKLYN, NY 11221",BROOKLYN,11221,1%,25%,72%,97%,1%
NEIGHBORHOOD CHARTER SCHOOL OF HARLEM,40.80758,-73.947377,"132 W 124TH ST NEW YORK, NY 10027",NEW YORK,10027,1%,55%,40%,95%,3%
ST. HOPE LEADERSHIP ACADEMY CHARTER SCHOOL,40.814949,-73.945808,"222 W 134TH ST-RM 111 NEW YORK, NY 10030",NEW YORK,10030,1%,66%,29%,95%,1%
METROPOLITAN LIGHTHOUSE CHARTER SCHOOL,40.834312,-73.930213,"180 W 165TH ST BRONX, NY 10452",BRONX,10452,0%,40%,57%,97%,1%
MEDGAR EVERS COLLEGE PREPARATORY SCHOOL,40.667,-73.951014,"1186 CARROLL ST BROOKLYN, NY 11225",BROOKLYN,11225,3%,88%,5%,93%,1%
P.S. 69 VINCENT D. GRIPPO SCHOOL,40.63239,-74.009637,"6302 9TH AVE BROOKLYN, NY 11220",BROOKLYN,11220,90%,0%,5%,5%,4%
"P.S. 128 THE LORRAINE TUZZO, JUNIPER VALLEY ELEMENTARY SCHOOL",40.715009,-73.886225,"69-10 65TH DR MIDDLE VILLAGE, NY 11379",MIDDLE VILLAGE,11379,3%,1%,20%,21%,76%
PIONEER ACADEMY,40.749323,-73.865657,"40-20 100TH ST CORONA, NY 11368",CORONA,11368,3%,1%,94%,96%,1%
"ROBERT F. WAGNER, JR. SECONDARY SCHOOL FOR ARTS AND TECHNOLOGY",40.742708,-73.936328,"47-07 30TH PL LONG ISLAND CITY, NY 11101",LONG ISLAND CITY,11101,22%,5%,61%,65%,12%
P.S. 209 CLEARVIEW GARDENS,40.783714,-73.795027,"16-10 UTOPIA PKWY WHITESTONE, NY 11357",WHITESTONE,11357,41%,1%,17%,17%,39%
THE ACTIVE LEARNING ELEMENTARY SCHOOL,40.754465,-73.826204,"137-20 FRANKLIN AVE FLUSHING, NY 11367",FLUSHING,11367,86%,2%,8%,10%,3%
J.H.S. 067 LOUIS PASTEUR,40.762437,-73.734426,"51-60 MARATHON PKWY LITTLE NECK, NY 11362",LITTLE NECK,11362,62%,3%,12%,14%,23%
J.H.S. 074 NATHANIEL HAWTHORNE,40.758543,-73.77397,"61-15 OCEANIA ST BAYSIDE, NY 11361",BAYSIDE,11361,66%,5%,10%,15%,18%
P.S. 098 THE DOUGLASTON SCHOOL,40.76913,-73.749839,"40-20 235TH ST DOUGLASTON, NY 11363",DOUGLASTON,11363,28%,5%,15%,20%,46%
P.S. 162 JOHN GOLDEN,40.748394,-73.776565,"201-02 53RD AVE BAYSIDE, NY 11361",BAYSIDE,11361,70%,2%,11%,13%,15%
P.S. 191 MAYFLOWER,40.734222,-73.70892,"85-15 258TH ST FLORAL PARK, NY 11001",FLORAL PARK,11001,71%,4%,11%,16%,11%
P.S. 205 ALEXANDER GRAHAM BELL,40.764001,-73.771162,"75-25 BELL BLVD BAYSIDE, NY 11361",BAYSIDE,11361,39%,2%,22%,23%,34%
THE 30TH AVENUE SCHOOL (G&T CITYWIDE),40.768259,-73.922754,"28-37 29TH ST ASTORIA, NY 11102",ASTORIA,11102,45%,6%,9%,14%,31%
WILLIAMSBURG COLLEGIATE CHARTER SCHOOL,40.705915,-73.962068,"157 WILSON ST-4TH FL BROOKLYN, NY 11211",BROOKLYN,11211,0%,35%,63%,98%,2%
ACHIEVEMENT FIRST BROWNSVILLE CHARTER SCHOOL,40.674493,-73.913246,"2021 BERGEN ST-RM 149 BROOKLYN, NY 11233",BROOKLYN,11233,0%,88%,11%,99%,0%
BROOKLYN ASCEND CHARTER SCHOOL,40.662056,-73.920703,"205 ROCKAWAY PKWY-2ND FL BROOKLYN, NY 11212",BROOKLYN,11212,1%,95%,3%,98%,0%
BROOKLYN EAST COLLEGIATE CHARTER SCHOOL,40.678584,-73.96634,"80 UNDERHILL AVE BROOKLYN, NY 11238",BROOKLYN,11238,1%,82%,9%,90%,1%
THE EQUITY PROJECT CHARTER SCHOOL (TEP),40.863962,-73.933043,"549 AUDUBON AVE-TRAILER 30 NEW YORK, NY 10040",NEW YORK,10040,0%,6%,92%,98%,1%
CENTRAL QUEENS ACADEMY CHARTER SCHOOL,40.737333,-73.866404,"55-30 JUNCTION BLVD ELMHURST, NY 11373",ELMHURST,11373,19%,10%,67%,77%,3%
BRONX CHARTER SCHOOL FOR EXCELLENCE,40.834056,-73.858543,"1960 BENEDICT AVE BRONX, NY 10462",BRONX,10462,21%,44%,34%,78%,0%
BRONX CHARTER SCHOOL FOR CHILDREN,40.812627,-73.919908,"388 WILLIS AVE BRONX, NY 10454",BRONX,10454,0%,23%,74%,97%,1%
"NEW EXPLORATIONS INTO SCIENCE, TECHNOLOGY AND MATH HIGH SCHOOL",40.7195,-73.979239,"111 COLUMBIA ST NEW YORK, NY 10002",NEW YORK,10002,33%,9%,11%,20%,42%
HARBOR HEIGHTS,40.84562,-73.939738,"306 FORT WASHINGTON AVE-RM  414 NEW YORK, NY 10033",NEW YORK,10033,0%,0%,100%,100%,0%
M.S. 51 WILLIAM ALEXANDER,40.67218,-73.984625,"350 5TH AVE BROOKLYN, NY 11215",BROOKLYN,11215,12%,10%,19%,29%,57%
P.S. 107 JOHN W. KIMBALL,40.663015,-73.981125,"1301 8TH AVE BROOKLYN, NY 11215",BROOKLYN,11215,7%,4%,10%,14%,77%
P.S. 321 WILLIAM PENN,40.671669,-73.97834,"180 7TH AVE BROOKLYN, NY 11215",BROOKLYN,11215,7%,4%,8%,12%,75%
THE SCHOOL FOR FUTURE LEADERS,40.632148,-74.00754,"942 62ND ST BROOKLYN, NY 11219",BROOKLYN,11219,85%,1%,8%,8%,6%
THE 51 AVENUE ACADEMY (THE PATH TO ACADEMIC EXCELLENCE),40.737207,-73.887005,"76-05 51ST AVE ELMHURST, NY 11373",ELMHURST,11373,60%,1%,38%,39%,2%
"THE QUEENS COLLEGE SCHOOL FOR MATH, SCIENCE AND TECHNOLOGY",40.738332,-73.82028,"148-20 REEVES AVE FLUSHING, NY 11367",FLUSHING,11367,53%,22%,12%,35%,10%
P.S. 188 KINGSBURY,40.735064,-73.751895,"218-12 HARTLAND AVE FLUSHING, NY 11364",FLUSHING,11364,58%,2%,7%,9%,30%
P.S. 203 OAKLAND GARDENS,40.753563,-73.759991,"53-11 SPRNGFLD BLVD BAYSIDE, NY 11361",BAYSIDE,11361,72%,2%,9%,11%,15%
PREPARATORY ACADEMY FOR WRITERS: A COLLEGE BOARD SCHOOL,40.668105,-73.757899,"143-10 SPRINGFIELD BLVD SPRINGFIELD GARDENS, NY 11413",SPRINGFIELD GARDENS,11413,4%,85%,6%,91%,2%
RIVERTON STREET CHARTER SCHOOL,40.689348,-73.763541,"118-34 RIVERTON ST SAINT ALBANS, NY 11412",SAINT ALBANS,11412,0%,92%,7%,98%,0%
RENAISSANCE CHARTER SCHOOL,40.749951,-73.885164,"35-59 81ST ST JACKSON HEIGHTS, NY 11372",JACKSON HEIGHTS,11372,18%,8%,58%,67%,14%
SOUTH BRONX CLASSICAL CHARTER SCHOOL,40.822084,-73.894038,"977 FOX ST BRONX, NY 10459",BRONX,10459,1%,40%,57%,97%,1%
P.S. 184M SHUANG WEN,40.711437,-73.985486,"327 CHERRY ST-2ND FL NEW YORK, NY 10002",NEW YORK,10002,71%,4%,12%,15%,9%
P.S. 041 GREENWICH VILLAGE,40.735526,-73.999113,"116 W 11TH ST NEW YORK, NY 10011",NEW YORK,10011,9%,2%,10%,11%,69%
P.S. 042 BENJAMIN ALTMAN,40.716136,-73.990841,"71 HESTER ST NEW YORK, NY 10002",NEW YORK,10002,93%,0%,4%,4%,2%
EAST SIDE MIDDLE SCHOOL,40.780646,-73.947544,"331 E 91ST ST NEW YORK, NY 10028",NEW YORK,10028,15%,3%,9%,12%,66%
P.S. 124 YUNG WING,40.714426,-73.995526,"40 DIVISION ST NEW YORK, NY 10002",NEW YORK,10002,95%,0%,3%,3%,1%
P.S. 130 HERNANDO DE SOTO,40.718819,-73.998263,"143 BAXTER ST NEW YORK, NY 10013",NEW YORK,10013,88%,1%,5%,6%,3%
M.S. 260 CLINTON SCHOOL WRITERS & ARTISTS,40.736114,-73.992352,"10 E 15TH ST NEW YORK, NY 10003",NEW YORK,10003,14%,6%,10%,16%,65%
I.S. 289,40.716867,-74.013623,"201 WARREN ST NEW YORK, NY 10282",NEW YORK,10282,38%,8%,13%,21%,38%
NEW YORK CITY LAB MIDDLE SCHOOL FOR COLLABORATIVE STUDIES,40.742571,-74.002371,"333 W 17TH ST NEW YORK, NY 10011",NEW YORK,10011,47%,2%,7%,10%,34%
JONAS BRONCK ACADEMY,40.861305,-73.891283,"400 E FORDHAM RD BRONX, NY 10458",BRONX,10458,5%,18%,72%,91%,2%
P.S. 105 THE BLYTHEBOURNE,40.633244,-74.003507,"1031 59TH ST BROOKLYN, NY 11219",BROOKLYN,11219,92%,0%,4%,5%,3%
THE CHRISTA MCAULIFFE SCHOOL\I.S. 187,40.627847,-74.004003,"1171 65TH ST BROOKLYN, NY 11219",BROOKLYN,11219,69%,1%,6%,7%,24%
EAST-WEST SCHOOL OF INTERNATIONAL STUDIES,40.749539,-73.821454,"46-21 COLDEN ST FLUSHING, NY 11355",FLUSHING,11355,67%,10%,18%,28%,4%
THE ACADEMY FOR EXCELLENCE THROUGH THE ARTS,40.725755,-73.844042,"108-55 69TH ST FOREST HILLS, NY 11375",FOREST HILLS,11375,37%,4%,20%,23%,37%
ACHIEVEMENT FIRST EAST NEW YORK CHARTER SCHOOL,40.663784,-73.893259,"557 PENNSYLVANIA AVE BROOKLYN, NY 11207",BROOKLYN,11207,0%,82%,16%,98%,0%
ACHIEVEMENT FIRST APOLLO CHARTER SCHOOL,40.676982,-73.883838,"350 LINWOOD ST BROOKLYN, NY 11208",BROOKLYN,11208,4%,68%,26%,94%,1%
P.S. 77 LOWER LAB SCHOOL,40.785014,-73.950031,"1700 3RD AVE NEW YORK, NY 10128",NEW YORK,10128,27%,0%,5%,6%,59%
THE ANDERSON SCHOOL,40.781081,-73.978085,"100 W 77TH ST NEW YORK, NY 10024",NEW YORK,10024,28%,4%,9%,13%,53%
COLUMBIA SECONDARY SCHOOL,40.81064,-73.955847,"425 W 123RD ST NEW YORK, NY 10027",NEW YORK,10027,12%,21%,44%,65%,20%
CORONA ARTS AND SCIENCES ACADEMY,40.743204,-73.871482,"45-10 94TH ST ELMHURST, NY 11373",ELMHURST,11373,4%,1%,94%,95%,1%
KNOWLEDGE AND POWER PREPARATORY ACADEMY VI,40.601532,-73.763979,"8-21 BAY 25TH ST FAR ROCKAWAY, NY 11691",FAR ROCKAWAY,11691,5%,57%,35%,92%,3%
QUEENS GATEWAY TO HEALTH SCIENCES SECONDARY SCHOOL,40.71855,-73.805991,"160-20 GOETHALS AVE JAMAICA, NY 11432",JAMAICA,11432,47%,35%,11%,46%,3%
BACCALAUREATE SCHOOL FOR GLOBAL EDUCATION,40.755048,-73.926963,"34-12 36TH AVE LONG ISLAND CITY, NY 11106",LONG ISLAND CITY,11106,49%,2%,15%,17%,31%
ACHIEVEMENT FIRST CROWN HEIGHTS CHARTER SCHOOL,40.662087,-73.936458,"790 E NEW YORK AVE BROOKLYN, NY 11203",BROOKLYN,11203,0%,95%,4%,99%,0%
ACHIEVEMENT FIRST ENDEAVOR CHARTER SCHOOL,40.682396,-73.965924,"510 WAVERLY AVE BROOKLYN, NY 11238",BROOKLYN,11238,1%,88%,11%,99%,0%
ACHIEVEMENT FIRST BUSHWICK CHARTER SCHOOL,40.697892,-73.919072,"1300 GREENE AVE BROOKLYN, NY 11237",BROOKLYN,11237,1%,38%,60%,99%,0%
NEW HOPE ACADEMY CHARTER SCHOOL,40.643727,-73.922256,"475 E 57TH ST-3RD FL BROOKLYN, NY 11203",BROOKLYN,11203,0%,97%,2%,98%,1%
M.S. 243 CENTER SCHOOL,40.785101,-73.973867,"100 W 84TH ST-RM 310 NEW YORK, NY 10024",NEW YORK,10024,8%,15%,12%,27%,61%
SUCCESS ACADEMY CHARTER SCHOOL - BED-STUY 2,40.697704,-73.943342,"211 THROOP AVE-3RD FL BROOKLYN, NY 11206",BROOKLYN,11206,1%,70%,25%,95%,1%
SUCCESS ACADEMY CHARTER SCHOOL - COBBLE HILL,40.685159,-73.993634,"284 BALTIC ST-BSMT BROOKLYN, NY 11201",BROOKLYN,11201,5%,33%,30%,63%,29%
SUCCESS ACADEMY CHARTER SCHOOL - WILLIAMSBURG,40.711863,-73.960049,"183 S 3RD ST-4TH FL BROOKLYN, NY 11211",BROOKLYN,11211,3%,32%,54%,85%,9%
COMMUNITY ROOTS CHARTER SCHOOL,40.695143,-73.977889,"51 ST EDWARDS ST-3RD FL BROOKLYN, NY 11205",BROOKLYN,11205,4%,33%,16%,48%,39%
EXCELLENCE BOYS CHARTER SCHOOL,40.683447,-73.925849,"225 PATCHEN AVE BROOKLYN, NY 11233",BROOKLYN,11233,2%,88%,8%,96%,1%
LA CIMA CHARTER SCHOOL,40.687938,-73.932378,"800 GATES AVE BROOKLYN, NY 11221",BROOKLYN,11221,4%,68%,24%,92%,2%
PAVE ACADEMY CHARTER SCHOOL,40.675877,-74.003636,"732 HENRY ST BROOKLYN, NY 11231",BROOKLYN,11231,2%,42%,52%,94%,3%
BEGINNING WITH CHILDREN CHARTER SCHOOL,40.699216,-73.945215,"185 ELLERY ST BROOKLYN, NY 11206",BROOKLYN,11206,2%,38%,57%,95%,2%
OCEAN HILL COLLEGIATE CHARTER SCHOOL,40.678113,-73.915211,"1137 HERKIMER ST-2ND FL BROOKLYN, NY 11233",BROOKLYN,11233,1%,88%,6%,94%,1%
GROWING UP GREEN CHARTER SCHOOL,40.753116,-73.935701,"39-27 28TH ST LONG ISLAND CITY, NY 11101",LONG ISLAND CITY,11101,15%,12%,36%,48%,32%
BRONX COMMUNITY CHARTER SCHOOL,40.872656,-73.874846,"3170 WEBSTER AVE BRONX, NY 10467",BRONX,10467,3%,27%,64%,91%,4%